X,Y,PID/UUID,URL,Dateiname,Titel,Urheber,Entstehung,Koordninat,X-Koordina,Y-Koordina,Adresse,PLZ/Ort,Inhalt,Format,Ereignis,Verwertung,Unternehme,longitude,latitude
8.720257213081913,47.347344545819617,26ae67e2fc964a6788334ea0a3a3822f,https://mobile.cmistar.ch/webclients/stadtarchivuster/#/content/26ae67e2fc964a6788334ea0a3a3822f/image,1885_1892_01_002.jpg,1885_1892_01_002,"Gujer, Julius",1885-1892,"696841,244845",696841,244845,Florastrasse 18,8610 Uster,Im Garten der Villa Grunholzer. Im Hintergrund das Waschhaus. Knecht führt zwei Pferde vor.,jpeg,,https://creativecommons.org/publicdomain/zero/1.0/deed.de,"Stadtarchiv Uster, (ISIL: CH-000629-9)",8.720257,47.347345
8.716780021327301,47.345844864523492,703db1ef8d594d139bb79a80201ad329,https://mobile.cmistar.ch/webclients/stadtarchivuster/#/content/703db1ef8d594d139bb79a80201ad329/image,1885_1892_01_003.jpg,1885_1892_01_003,"Gujer, Julius",1885-1892,"696581,244674",696581,244674,ref. Kirche Uster,8610 Uster,Vermutlich von der Fabrik an Florastrasse 18a aus aufgenommen über die Brauereistrasse hinweg zur ref. Kirche.,jpeg,,https://creativecommons.org/publicdomain/zero/1.0/deed.de,"Stadtarchiv Uster, (ISIL: CH-000629-9)",8.716780,47.345845
8.714674693102657,47.348018085717712,3db7f354bacf470c96c2019493eac469,https://mobile.cmistar.ch/webclients/stadtarchivuster/#/content/3db7f354bacf470c96c2019493eac469/image,1885_1892_01_006.jpg,1885_1892_01_006,"Gujer, Julius",1890,"696418,244913",696418,244913,Seestrasse 4,8610 Uster,Blaustichiges Bild von Seestrasse 4. „Untere Farb. 1890“,jpeg,,https://creativecommons.org/publicdomain/zero/1.0/deed.de,"Stadtarchiv Uster, (ISIL: CH-000629-9)",8.714675,47.348018
8.728570097674522,47.346289429080883,f5b93c3bf53948f08655e8ddbceeadea,https://mobile.cmistar.ch/webclients/stadtarchivuster/#/content/f5b93c3bf53948f08655e8ddbceeadea/image,1885_1892_01_007.jpg,1885_1892_01_007,"Gujer, Julius",1885-1892,"697471,244738",697471,244738,Aathalstrasse 19,8610 Uster,grosses Arbeiterwohnhaus. Abgerissen.,jpeg,,https://creativecommons.org/publicdomain/zero/1.0/deed.de,"Stadtarchiv Uster, (ISIL: CH-000629-9)",8.728570,47.346289
8.728782417179973,47.345765314542781,63351da097bc454d8576f1d2adabd5b6,https://mobile.cmistar.ch/webclients/stadtarchivuster/#/content/63351da097bc454d8576f1d2adabd5b6/image,1885_1892_01_008.jpg,1885_1892_01_008,"Gujer, Julius",1885-1892,"697488,244680",697488,244680,"Aathalstrasse 19, 34 und 32",8610 Uster,"Aatalstrasse Oberuster. Von links nach rechts: Aatalstrasse 19, Fabrik Huber, Villa Huber, Ölmühle.",jpeg,,https://creativecommons.org/publicdomain/zero/1.0/deed.de,"Stadtarchiv Uster, (ISIL: CH-000629-9)",8.728782,47.345765
8.717882419584731,47.345454840607452,9de35c5cc13d4364885c2bf6afc2b61a,https://mobile.cmistar.ch/webclients/stadtarchivuster/#/content/9de35c5cc13d4364885c2bf6afc2b61a/image,1885_1892_01_009.jpg,1885_1892_01_009,"Gujer, Julius",1885-1892,"696665,244632",696665,244632,Burg Uster,8610 Uster,Blick auf Burg. Links davon Ökonomiegebäude des sog. „Bürgli“.,jpeg,,https://creativecommons.org/publicdomain/zero/1.0/deed.de,"Stadtarchiv Uster, (ISIL: CH-000629-9)",8.717882,47.345455
8.729930953807136,47.345644525313674,47e4710aa9244766b271c5019cfe1052,https://mobile.cmistar.ch/webclients/stadtarchivuster/#/content/47e4710aa9244766b271c5019cfe1052/image,1885_1892_01_010.jpg,1885_1892_01_010,"Gujer, Julius",1885-1892,"697575,244668",697575,244668,Aathalstrasse 27,8610 Uster,Aatalstrasse 27. Sog. Haus Berchtold mit Scheune. Heute Schulhaus.,jpeg,,https://creativecommons.org/publicdomain/zero/1.0/deed.de,"Stadtarchiv Uster, (ISIL: CH-000629-9)",8.729931,47.345645
8.717655174431458,47.348120033881997,44659b7ac7814339a92c9cba53685455,https://mobile.cmistar.ch/webclients/stadtarchivuster/#/content/44659b7ac7814339a92c9cba53685455/image,1885_1892_01_011.jpg,1885_1892_01_011,"Gujer, Julius",1885-1892,"696643,244928",696643,244928,Zürichstrasse 1,8610 Uster,"Zürichstrasse 1 (Villa Zangger) von hinten. Links Scheune, ganz rechts Hotel Sternen. Im Vordergrund Wirt- schaftsgarten.",jpeg,,https://creativecommons.org/publicdomain/zero/1.0/deed.de,"Stadtarchiv Uster, (ISIL: CH-000629-9)",8.717655,47.348120
8.718356764450013,47.347572526936176,8a0f8d5735b24a9dbb73b37b6058cba1,https://mobile.cmistar.ch/webclients/stadtarchivuster/#/content/8a0f8d5735b24a9dbb73b37b6058cba1/image,1885_1892_01_012.jpg,1885_1892_01_012,"Gujer, Julius",1885-1892,"696697,244868",696697,244868,Zentralstrasse 5,8610 Uster,"Hinter dem Baum links Zentralstrasse 5 (Kantonalbank), rechts dahinter obere Farb.",jpeg,,https://creativecommons.org/publicdomain/zero/1.0/deed.de,"Stadtarchiv Uster, (ISIL: CH-000629-9)",8.718357,47.347573
8.717882419584731,47.345454840607452,/8e5793431ae9486381366fc081718e03,https://mobile.cmistar.ch/webclients/stadtarchivuster/#/content/8e5793431ae9486381366fc081718e03/image,1885_1892_01_014.jpg,1885_1892_01_014,"Gujer, Julius",1885-1892,"696665,244632",696665,244632,Burg Uster,8610 Uster,Blick auf Burg und Ökonomiegebäude. Im Vordergrund Obstbäume zwischen Brauereistrasse und Fabrik Zangger an der Florastrasse 18a.,jpeg,,https://creativecommons.org/publicdomain/zero/1.0/deed.de,"Stadtarchiv Uster, (ISIL: CH-000629-9)",8.717882,47.345455
8.721861906920642,47.348577097023529,7d23916780e34ab8b232fe378d5ef4f8,https://mobile.cmistar.ch/webclients/stadtarchivuster/#/content/7d23916780e34ab8b232fe378d5ef4f8/image,1885_1892_01_015.jpg,1885_1892_01_015,"Gujer, Julius",1885-1892,"696960,244984",696960,244984,Freiestrasse 21,8610 Uster,Blick vom Hasenbühl auf kath. Kirche über den späteren Bauplatz fürs Schulhaus Freiestrasse auf das 1890 neu gebaute Rest. Steinfels.,jpeg,,https://creativecommons.org/publicdomain/zero/1.0/deed.de,"Stadtarchiv Uster, (ISIL: CH-000629-9)",8.721862,47.348577
8.720257213081913,47.347344545819617,8463589779b748f38638659d60bfa20c,https://mobile.cmistar.ch/webclients/stadtarchivuster/#/content/8463589779b748f38638659d60bfa20c/image,1885_1892_01_016.jpg,1885_1892_01_016,"Gujer, Julius",1885-1892,"696841,244845",696841,244845,Florastrasse 18,8610 Uster,Rückansicht von Florastrasse 16 (links) und 18 (rechts). Steine im Vordergrund gehören zur Fabrikkanalverkleidung.,jpeg,,https://creativecommons.org/publicdomain/zero/1.0/deed.de,"Stadtarchiv Uster, (ISIL: CH-000629-9)",8.720257,47.347345
8.717725722874702,47.347750435836382,0673ac356818404e8eb5cf424b7c3211,https://mobile.cmistar.ch/webclients/stadtarchivuster/#/content/0673ac356818404e8eb5cf424b7c3211/image,1885_1892_01_017.jpg,1885_1892_01_017,"Gujer, Julius",1885-1892,"696649,244887",696649,244887,Zentralstrasse 2a,8610 Uster,Sternenplatz. Ganz rechts der Garten Villa Zangger an der Zürichstrasse 1. Dahinter Fabrik Zangger von 1825. Mann auf der Kanalbrücke mit Geländer (mögl. Gujer). Links davon Inselhof.,jpeg,,https://creativecommons.org/publicdomain/zero/1.0/deed.de,"Stadtarchiv Uster, (ISIL: CH-000629-9)",8.717726,47.347750
8.717725722874702,47.347750435836382,fad55f35dbdc42f48c607aaee0144cc2,https://mobile.cmistar.ch/webclients/stadtarchivuster/#/content/fad55f35dbdc42f48c607aaee0144cc2/image,1885_1892_01_018.jpg,1885_1892_01_018,"Gujer, Julius",April 1891,"696649,244887",696649,244887,Zentralstrasse 2a,8610 Uster,Wie 1/17. „April 1891“. Kanalbrücke mit Steinen statt Geländer.,jpeg,,https://creativecommons.org/publicdomain/zero/1.0/deed.de,"Stadtarchiv Uster, (ISIL: CH-000629-9)",8.717726,47.347750
8.71828060922773,47.347708304009124,a34d324068b5480dbd31fe956eb096b1,https://mobile.cmistar.ch/webclients/stadtarchivuster/#/content/a34d324068b5480dbd31fe956eb096b1/image,1885_1892_01_019.jpg,1885_1892_01_019,"Gujer, Julius",April 1891,"696691,244883",696691,244883,Zentralstrasse 3,8610 Uster,"Zentralstrasse. Links Inselhof. Ganz rechts Zentralstrasse 5, links davon Zentralstrasse 3. Im Hintergrund Hotel Sternen. Aufnahme „April 1891“.",jpeg,,https://creativecommons.org/publicdomain/zero/1.0/deed.de,"Stadtarchiv Uster, (ISIL: CH-000629-9)",8.718281,47.347708
8.717725722874702,47.347750435836382,/34cd3438f5f040298735584e14105e00,https://mobile.cmistar.ch/webclients/stadtarchivuster/#/content/34cd3438f5f040298735584e14105e00/image,1885_1892_01_020.jpg,1885_1892_01_020,"Gujer, Julius",1885-1892,"696649,244887",696649,244887,Zentralstrasse 2a,8610 Uster,Fabrik Zangger von 1825. Ganz rechts: Garten Villa Zangger Zürichstrasse 1.,jpeg,,https://creativecommons.org/publicdomain/zero/1.0/deed.de,"Stadtarchiv Uster, (ISIL: CH-000629-9)",8.717726,47.347750
8.721718050934536,47.349199387348207,12ec3dd299394240800e2f6c939440fe,https://mobile.cmistar.ch/webclients/stadtarchivuster/#/content/12ec3dd299394240800e2f6c939440fe/image,1885_1892_01_024.jpg,1885_1892_01_024,"Gujer, Julius",1892,"696948,245053",696948,245053,Bahnstrasse 11,8610 Uster,"Sog. Villa Elektra, 1890 als Privatvilla für Alfred Zellweger und seine Familie erbaut.",jpeg,,https://creativecommons.org/publicdomain/zero/1.0/deed.de,"Stadtarchiv Uster, (ISIL: CH-000629-9)",8.721718,47.349199
8.716507238693042,47.343850877634047,df31e3fa3c7348858494cfbda24c1e6a,https://mobile.cmistar.ch/webclients/stadtarchivuster/#/content/df31e3fa3c7348858494cfbda24c1e6a/image,1885_1892_01_025.jpg,1885_1892_01_025,"Gujer, Julius",Herbst 1892,"696564,244452",696564,244452,Schwizerstrasse 2,8610 Uster,"Festtor für Erntedankfest 1892 bei Kreuzung Talacker-, Riediker- und Burgstrasse. Ganz links Burgstrasse 2, geradeaus Schwizerstrasse 2",jpeg,Erntedankfest,https://creativecommons.org/publicdomain/zero/1.0/deed.de,"Stadtarchiv Uster, (ISIL: CH-000629-9)",8.716507,47.343851
8.716699053932132,47.349093143876964,3b0607dee2e941b3b088bc3c90a7da51,https://mobile.cmistar.ch/webclients/stadtarchivuster/#/content/3b0607dee2e941b3b088bc3c90a7da51/image,1885_1892_01_026.jpg,1885_1892_01_026,"Gujer, Julius",Herbst 1892,"696569,245035",696569,245035,Poststrasse 20,8610 Uster,"Festtor für Erntedankfest 1892 an Kreuzung Zürich-, Post- und Seestrasse. Rechts Poststrasse 20 heute „Molino“.",jpeg,Erntedankfest,https://creativecommons.org/publicdomain/zero/1.0/deed.de,"Stadtarchiv Uster, (ISIL: CH-000629-9)",8.716699,47.349093
8.716699053932132,47.349093143876964,2332c08be432447da28e0b84dbf562f0,https://mobile.cmistar.ch/webclients/stadtarchivuster/#/content/2332c08be432447da28e0b84dbf562f0/image,1885_1892_01_030.jpg,1885_1892_01_030,"Gujer, Julius",Herbst 1892,"696569,245035",696569,245035,Poststrasse 20,8610 Uster,Wie 1/26. Man beachte den elektrischen Lampion im Tor über den Menschen.,jpeg,Erntedankfest,https://creativecommons.org/publicdomain/zero/1.0/deed.de,"Stadtarchiv Uster, (ISIL: CH-000629-9)",8.716699,47.349093
8.715844326839655,47.345459418323827,a109f2c8dd4b489480894f5450a51f42,https://mobile.cmistar.ch/webclients/stadtarchivuster/#/content/a109f2c8dd4b489480894f5450a51f42/image,1885_1892_01_031.jpg,1885_1892_01_031,"Gujer, Julius",Herbst 1892,"696511,244630",696511,244630,Talackerstrasse 2,8610 Uster,Für Erntedank geschmückte Talackerstrasse mit Blick aufs Gasthaus Kreuz (Mitte).,jpeg,Erntedankfest,https://creativecommons.org/publicdomain/zero/1.0/deed.de,"Stadtarchiv Uster, (ISIL: CH-000629-9)",8.715844,47.345459
8.716780021327301,47.345844864523492,ca2e7ac875904dc4b6e360e623a1b4d1,https://mobile.cmistar.ch/webclients/stadtarchivuster/#/content/ca2e7ac875904dc4b6e360e623a1b4d1/image,1885_1892_01_032.jpg,1885_1892_01_032,"Gujer, Julius",Herbst 1892,"696581,244674",696581,244674,ref. Kirche,8610 Uster,Schulweg mit Blick auf Kirche. Vorne rechts Zwiebelturmpavillon (Erntedankfest 1892).,jpeg,Erntedankfest,https://creativecommons.org/publicdomain/zero/1.0/deed.de,"Stadtarchiv Uster, (ISIL: CH-000629-9)",8.716780,47.345845
8.720257213081913,47.347344545819617,5d5af40898c84c43aaae8dcd750f511c,https://mobile.cmistar.ch/webclients/stadtarchivuster/#/content/5d5af40898c84c43aaae8dcd750f511c/image,1885_1892_01_033.jpg,1885_1892_01_033,"Gujer, Julius",Herbst 1892,"696841,244845",696841,244845,Florastrasse 18,8610 Uster,Festtor Imkerstrasse vor Villa Zangger an der Florastrasse 18 (Erntedankfest 1892).,jpeg,Erntedankfest,https://creativecommons.org/publicdomain/zero/1.0/deed.de,"Stadtarchiv Uster, (ISIL: CH-000629-9)",8.720257,47.347345
8.718417463204832,47.347895692838335,8583c422b7e54a7cac8ea6dbef86c919,https://mobile.cmistar.ch/webclients/stadtarchivuster/#/content/8583c422b7e54a7cac8ea6dbef86c919/image,1885_1892_01_034.jpg,1885_1892_01_034,"Gujer, Julius",1885-1892,"696701,244904",696701,244904,Florastrasse 2,8610 Uster,"Sternenplatz mit Blick in Florastrasse. Rechts Zentralstrasse 1, davor Wagen mit Brennholz. Die Platten in der Strassenmitte überdecken eine Wasserleitung.",jpeg,,https://creativecommons.org/publicdomain/zero/1.0/deed.de,"Stadtarchiv Uster, (ISIL: CH-000629-9)",8.718417,47.347896
8.717725722874702,47.347750435836382,2dfbe87b2437493891f008bcfce6691f,https://mobile.cmistar.ch/webclients/stadtarchivuster/#/content/2dfbe87b2437493891f008bcfce6691f/image,1885_1892_01_047.jpg,1885_1892_01_047,"Gujer, Julius",1885-1892,"696649,244887",696649,244887,Zentralstrasse 2a,8610 Uster,Aquarell vom Sternenplatz Richtung Zentralsrasse. Der Brunnen im Vordergrund ist mit jenem in Bild 1/34 identisch. Ganz rechts Fabrik Zangger I von 1824. Links daneben Sägerei. Geradeaus Kirche. Links Zentralstras- se 3.,jpeg,,https://creativecommons.org/publicdomain/zero/1.0/deed.de,"Stadtarchiv Uster, (ISIL: CH-000629-9)",8.717726,47.347750
8.720257213081913,47.347344545819617,075969f46f9a4e99b7f34f9f43182dc3,https://mobile.cmistar.ch/webclients/stadtarchivuster/#/content/075969f46f9a4e99b7f34f9f43182dc3/image,1885_1892_01_048.jpg,1885_1892_01_048,"Gujer, Julius",1892,"696841,244845",696841,244845,Florastrasse 18,8610 Uster,Im Garten Villa Grunholzer. Elise Gujer mit den beiden Töchtern Else und Mathilde. Im Hintergrund Waschhaus. „März 1892“,jpeg,,https://creativecommons.org/publicdomain/zero/1.0/deed.de,"Stadtarchiv Uster, (ISIL: CH-000629-9)",8.720257,47.347345
8.718808568339522,47.34985237969196,4acff16f28284f10b0be5a94bfff83b9,https://mobile.cmistar.ch/webclients/stadtarchivuster/#/content/4acff16f28284f10b0be5a94bfff83b9/image,1885_1892_01_050.jpg,1885_1892_01_050,"Gujer, Julius",1885-1892,"696727,245122",696727,245122,Bankstrasse 3,8610 Uster,Restaurant Krone. Ganz rechts Poststrasse 6. Ganz links Scheune Ryffel (abgerissen 2006).,jpeg,,https://creativecommons.org/publicdomain/zero/1.0/deed.de,"Stadtarchiv Uster, (ISIL: CH-000629-9)",8.718809,47.349852
8.718635870272577,47.34817213247198,b53d416acdb442b48713cd6816bf3da3,https://mobile.cmistar.ch/webclients/stadtarchivuster/#/content/b53d416acdb442b48713cd6816bf3da3/image,1885_1892_01_059.jpg,1885_1892_01_059,"Gujer, Julius",1885-1892,"696717,244935",696717,244935,"Florastrasse 5, 7, 9 (abg.)",8610 Uster,Blick in Florastrasse. Links Restaurant Brauerei. Das „Geländer“ vor der Brauerei diente zum Anbinden der Pferde.,jpeg,,https://creativecommons.org/publicdomain/zero/1.0/deed.de,"Stadtarchiv Uster, (ISIL: CH-000629-9)",8.718636,47.348172
8.717655174431458,47.348120033881997,9fd60aec222044478d8bb0f15e247804,https://mobile.cmistar.ch/webclients/stadtarchivuster/#/content/9fd60aec222044478d8bb0f15e247804/image,1885_1892_01_062.jpg,1885_1892_01_062,"Gujer, Julius",1885-1892,"696643,244928",696643,244928,Zürichstrasse 1,8610 Uster,"Zürichstrasse 1, Villa Zangger. Im Vordergrund Zaun des Villengartens.",jpeg,,https://creativecommons.org/publicdomain/zero/1.0/deed.de,"Stadtarchiv Uster, (ISIL: CH-000629-9)",8.717655,47.348120
8.719561693857317,47.345939967845538,5fe721e53a7542a7b3573bd510bc7f74,https://mobile.cmistar.ch/webclients/stadtarchivuster/#/content/5fe721e53a7542a7b3573bd510bc7f74/image,1885_1892_01_065.jpg,1885_1892_01_065,"Gujer, Julius",1885-1892,"696791,244688",696791,244688,Kirchgasse 5 oder 7,8610 Uster,Haus des Dachdecker Gyr in Uster. Abgerissen 1889. Typische Tätschhütte.,jpeg,,https://creativecommons.org/publicdomain/zero/1.0/deed.de,"Stadtarchiv Uster, (ISIL: CH-000629-9)",8.719562,47.345940
8.720257213081913,47.347344545819617,7b7c9103061a410983ce62c00d65256e,https://mobile.cmistar.ch/webclients/stadtarchivuster/#/content/7b7c9103061a410983ce62c00d65256e/image,1885_1892_01_066.jpg,1885_1892_01_066,"Gujer, Julius",1885-1892,"696841,244845",696841,244845,Florastrasse 18,8610 Uster,Bleistiftzeichnung. Im Vordergrund Garten der Villa Grunholzer an der Floratsrasse 18. Links die Fabrik Zangger von 1836 in der Reibewiese. Im Hintergrund die noch nicht umgebaute Burg. Zeichnung muss vor 1854 entstanden sein.,jpeg,,https://creativecommons.org/publicdomain/zero/1.0/deed.de,"Stadtarchiv Uster, (ISIL: CH-000629-9)",8.720257,47.347345
8.722316021480216,47.346548053736285,572d75efa233421485799b05dc1314b0,https://mobile.cmistar.ch/webclients/stadtarchivuster/#/content/572d75efa233421485799b05dc1314b0/image,1893_02_001.jpg,1893_02_001,"Gujer, Julius",1893,"696998,244759",696998,244759,Florastrasse,8610 Uster,"„Wuhranlage im Bau, Mai 1893“. Bau des Ruchwiesweihers. Im Hintergrund Holzverschalung der Badeanstalt vor dem Fabrikbau von 1836 an der Florastrasse 18a.",jpeg,,https://creativecommons.org/publicdomain/zero/1.0/deed.de,"Stadtarchiv Uster, (ISIL: CH-000629-9)",8.722316,47.346548
8.711073162835332,47.346294720545238,4cb702851d1b4509bba994dff72b9122,https://mobile.cmistar.ch/webclients/stadtarchivuster/#/content/4cb702851d1b4509bba994dff72b9122/image,1893_02_002.jpg,1893_02_002,"Gujer, Julius",1893,"696149,244717",696149,244717,"Sandstrasse 1-3, 5-7",8610 Uster,„Uster. April 93 v. Westen“. Blick von der BUAG aus auf Burg und Kirche. Die Lenzlinger Siedlung „Im Wil“ steht noch nicht. Die beiden identischen Häuser am rechten Bildrand mit den vorgelagerten Schuppen sind die Kosthäuser der BUAG an der S,jpeg,,https://creativecommons.org/publicdomain/zero/1.0/deed.de,"Stadtarchiv Uster, (ISIL: CH-000629-9)",8.711073,47.346295
8.694647511406487,47.349074305545194,57d6262e497a4b8bb3fb13c735bfb5ca,https://mobile.cmistar.ch/webclients/stadtarchivuster/#/content/57d6262e497a4b8bb3fb13c735bfb5ca/image,1893_02_003.jpg,1893_02_003,"Gujer, Julius",1893,"694903,245006",694903,245006,Mündung Aabach,8610 Uster,„Kahnfahrt auf der Aa. April 1893.“ Mit Stangen vorwärtsgetriebener Kahn. Damals gabs am Aabach vergleichsweise wenig Bäume. Sie werden für Heizzwecke gefällt.,jpeg,,https://creativecommons.org/publicdomain/zero/1.0/deed.de,"Stadtarchiv Uster, (ISIL: CH-000629-9)",8.694648,47.349074
8.689866593491239,47.351213170937392,fce3fd0939d84c1597bc071f646ce90b,https://mobile.cmistar.ch/webclients/stadtarchivuster/#/content/fce3fd0939d84c1597bc071f646ce90b/image,1893_02_004.jpg,1893_02_004,"Gujer, Julius",1893,"694538,245238",694538,245238,Mündung Aabach,8610 Uster,„Aamündung“. Kahn auf der Aa an der Flussmündung. Auch hier keine Bäume.,jpeg,,https://creativecommons.org/publicdomain/zero/1.0/deed.de,"Stadtarchiv Uster, (ISIL: CH-000629-9)",8.689867,47.351213
8.72083855723724,47.347302107864515,09fe9ee64f244a8c862c9baa774487db,https://mobile.cmistar.ch/webclients/stadtarchivuster/#/content/09fe9ee64f244a8c862c9baa774487db/image,1893_02_005.jpg,1893_02_005,"Gujer, Julius",1893,"696885,244841",696885,244841,Florastrasse 20,8610 Uster,Ruchwieshaus an der Florastrasse 20 vom Hof der Villa Zangger aus. „Mai 1893“.,jpeg,,https://creativecommons.org/publicdomain/zero/1.0/deed.de,"Stadtarchiv Uster, (ISIL: CH-000629-9)",8.720839,47.347302
8.720387587775988,47.347262138511155,c86cb1811f09436ea545915c0eb21d77,https://mobile.cmistar.ch/webclients/stadtarchivuster/#/content/c86cb1811f09436ea545915c0eb21d77/image,1893_02_006.jpg,1893_02_006,"Gujer, Julius",1893,"696851,244836",696851,244836,"Florastrasse 18, 18a",8610 Uster,„3. Juni 1893“. Grunholzer Villa und Fabrik Zangger an der Florastrasse 18 bzw. 18a.,jpeg,,https://creativecommons.org/publicdomain/zero/1.0/deed.de,"Stadtarchiv Uster, (ISIL: CH-000629-9)",8.720388,47.347262
8.716257210650424,47.348882142432508,1e325abff8fd48769b7802138bdd589e,https://mobile.cmistar.ch/webclients/stadtarchivuster/#/content/1e325abff8fd48769b7802138bdd589e/image,1893_02_007.jpg,1893_02_007,"Gujer, Julius",1893,"696536,245011",696536,245011,Zürichstrasse 5,8610 Uster,Kreuzung Zürichstrasse – Seestrasse. Wohnhaus anstelle der heutigen Überbauung Stadthof.,jpeg,,https://creativecommons.org/publicdomain/zero/1.0/deed.de,"Stadtarchiv Uster, (ISIL: CH-000629-9)",8.716257,47.348882
8.720177604771903,47.347336434116521,46c79bc37f974a708cd2a295945ff3c8,https://mobile.cmistar.ch/webclients/stadtarchivuster/#/content/46c79bc37f974a708cd2a295945ff3c8/image,1893_02_008a.jpg,1893_02_008a,"Gujer, Julius",1893,"696835,244844",696835,244844,Florastrasse 18,8610 Uster,„2. Juni 1893“ Park der Villa Grunholzer Florastrasse 18.,jpeg,,https://creativecommons.org/publicdomain/zero/1.0/deed.de,"Stadtarchiv Uster, (ISIL: CH-000629-9)",8.720178,47.347336
8.715291204200039,47.346679932501587,ce49f4f8ae964be9a59c1ba0d477098a,https://mobile.cmistar.ch/webclients/stadtarchivuster/#/content/ce49f4f8ae964be9a59c1ba0d477098a/image,1893_02_009.jpg,1893_02_009,"Gujer, Julius",1893,"696467,244765",696467,244765,Schulweg 6,8610 Uster,„Schulhaus Uster“ am Schulweg 6.,jpeg,,https://creativecommons.org/publicdomain/zero/1.0/deed.de,"Stadtarchiv Uster, (ISIL: CH-000629-9)",8.715291,47.346680
8.725408589883754,47.347458152769455,7b61257e1eca476d964f216f289e1e85,https://mobile.cmistar.ch/webclients/stadtarchivuster/#/content/7b61257e1eca476d964f216f289e1e85/image,1893_02_010.jpg,1893_02_010,"Gujer, Julius",1893,"697230,244864",697230,244864,Freiestrasse 43,8610 Uster,Villa an der Freiestrasse 43.,jpeg,,https://creativecommons.org/publicdomain/zero/1.0/deed.de,"Stadtarchiv Uster, (ISIL: CH-000629-9)",8.725409,47.347458
8.721535343703183,47.346556732637808,9d4041405b3642cb8e0bed7cab7d5c78,https://mobile.cmistar.ch/webclients/stadtarchivuster/#/content/9d4041405b3642cb8e0bed7cab7d5c78/image,1893_02_012.jpg,1893_02_012,"Gujer, Julius",1893,"696939,244759",696939,244759,Florastrasse,8610 Uster,„Wuhr im Bau 7. Juni 1893“. Rückhalteweiher (Ruchwiesweiher) hinter der Fabrik Zangger (1836). Im Hintergrund ragt die Burg über die Bäume.,jpeg,,https://creativecommons.org/publicdomain/zero/1.0/deed.de,"Stadtarchiv Uster, (ISIL: CH-000629-9)",8.721535,47.346557
8.718795582458608,47.347657616613063,559b6c7f106c45e5a71ce47650b141cb,https://mobile.cmistar.ch/webclients/stadtarchivuster/#/content/559b6c7f106c45e5a71ce47650b141cb/image,1893_02_013.jpg,1893_02_013,"Gujer, Julius",1893,"696730,244878",696730,244878,Florastrasse 6,8610 Uster,"„Inselhof u. Umgebung“. Blick von Fabrik Zangger (1836) nach Westen. Links „Inselhof“ von 1864, in der Mitte der Holzbau der „Oberen Farb“.",jpeg,,https://creativecommons.org/publicdomain/zero/1.0/deed.de,"Stadtarchiv Uster, (ISIL: CH-000629-9)",8.718796,47.347658
8.716685689320077,47.348535569800866,f57350cb61d34edca066487738b71336,https://mobile.cmistar.ch/webclients/stadtarchivuster/#/content/f57350cb61d34edca066487738b71336/image,1893_02_014.jpg,1893_02_014,"Gujer, Julius",1893,"696569,244973",696569,244973,Seestrasse 3,8610 Uster,„Untere Spinnerei Mai 93“. Ostseite der driten Fabrik Zangger von 1868.,jpeg,,https://creativecommons.org/publicdomain/zero/1.0/deed.de,"Stadtarchiv Uster, (ISIL: CH-000629-9)",8.716686,47.348536
8.720649374445451,47.347691016756407,b8f605619223469496d4c84ff2200f31,https://mobile.cmistar.ch/webclients/stadtarchivuster/#/content/b8f605619223469496d4c84ff2200f31/image,1893_02_015.jpg,1893_02_015,"Gujer, Julius",1893,"696870,244884",696870,244884,Florastrasse 37,8610 Uster,"„u. Nachbarschaft“. Blick aus Fabrik Zangger (1836) nach Nordosten. Vorne Links, Villa Grunholzer an der Florastrasse 18 mit Einmündung in die Imkerstrasse.",jpeg,,https://creativecommons.org/publicdomain/zero/1.0/deed.de,"Stadtarchiv Uster, (ISIL: CH-000629-9)",8.720649,47.347691
8.717276831146581,47.348349113207,cd3f5bcd99784ddca9583fef4ff9dc4c,https://mobile.cmistar.ch/webclients/stadtarchivuster/#/content/cd3f5bcd99784ddca9583fef4ff9dc4c/image,1893_02_016.jpg,1893_02_016,"Gujer, Julius",1893,"696614,244953",696614,244953,Zürichstrasse 3,8610 Uster,„Unteres Wohnhaus u. Fabrik“. Ökonomieensemble am Standort des heutigen Uschter 77. Ganz rechts Wohnhhaus Zangger Zürichstrasse 1. Im Hintergrund dritte Fabrik Zangger.,jpeg,,https://creativecommons.org/publicdomain/zero/1.0/deed.de,"Stadtarchiv Uster, (ISIL: CH-000629-9)",8.717277,47.348349
8.719335074907182,47.347525695156797,52bacefe334844a18867302556b33024,https://mobile.cmistar.ch/webclients/stadtarchivuster/#/content/52bacefe334844a18867302556b33024/image,1893_02_019.jpg,1893_02_019,"Gujer, Julius",1893,"696771,244864",696771,244864,Obere Farb Weg,8610 Uster,Personen mit Pferd vor dem Fabrikkanal nahe Fabrik Zangger (1836). Tröckneturm der „Oberen Farb“ ganz im Hintergrund.,jpeg,,https://creativecommons.org/publicdomain/zero/1.0/deed.de,"Stadtarchiv Uster, (ISIL: CH-000629-9)",8.719335,47.347526
8.721306256534293,47.346937090725241,ad6406324f804e0fa1e70aecf3274fb4,https://mobile.cmistar.ch/webclients/stadtarchivuster/#/content/ad6406324f804e0fa1e70aecf3274fb4/image,1893_02_020.jpg,1893_02_020,"Gujer, Julius",1893,"696921,244801",696921,244801,Florastrasse 22,8610 Uster,Badende Kinder in der Badeanstalt.,jpeg,,https://creativecommons.org/publicdomain/zero/1.0/deed.de,"Stadtarchiv Uster, (ISIL: CH-000629-9)",8.721306,47.346937
8.722546771823213,47.35283335963959,a4bc5f7abe864963bbd026aa3fee8d62,https://mobile.cmistar.ch/webclients/stadtarchivuster/#/content/a4bc5f7abe864963bbd026aa3fee8d62/image,1893_02_022.jpg,1893_02_022,"Gujer, Julius",1893,"697004,245458",697004,245458,Brunnenstrasse 27,8610 Uster,Villa des Baumeisters Antonio Bianchi an der Brunnenstrasse.,jpeg,,https://creativecommons.org/publicdomain/zero/1.0/deed.de,"Stadtarchiv Uster, (ISIL: CH-000629-9)",8.722547,47.352833
8.720257213081913,47.347344545819617,bf775c9bd5e74890a27f12e8c22e47b7,https://mobile.cmistar.ch/webclients/stadtarchivuster/#/content/bf775c9bd5e74890a27f12e8c22e47b7/image,1893_02_024.jpg,1893_02_024,"Gujer, Julius",1893,"696841,244845",696841,244845,Florastrasse 18,8610 Uster,Julius Gujer im Park der Villa Grunholzer mit einem Freund oder Mitarbeiter ...,jpeg,,https://creativecommons.org/publicdomain/zero/1.0/deed.de,"Stadtarchiv Uster, (ISIL: CH-000629-9)",8.720257,47.347345
8.722316021480216,47.346548053736285,af0364bddf1b4cdfa82362557cd829bf,https://mobile.cmistar.ch/webclients/stadtarchivuster/#/content/af0364bddf1b4cdfa82362557cd829bf/image,1893_02_030.jpg,1893_02_030,"Gujer, Julius",1893,"696998,244759",696998,244759,Florastrasse,8610 Uster,Gerade beendeter Ruchwiesweiher hinter der Fabrik Zangger an der Florastrasse.,jpeg,,https://creativecommons.org/publicdomain/zero/1.0/deed.de,"Stadtarchiv Uster, (ISIL: CH-000629-9)",8.722316,47.346548
8.717964051832865,47.349960692472926,ccd7041d0e49406a87f51596716352a0,https://mobile.cmistar.ch/webclients/stadtarchivuster/#/content/ccd7041d0e49406a87f51596716352a0/image,1893_02_040.jpg,1893_02_040,"Gujer, Julius",1893,"696663,245133",696663,245133,Poststrasse 6,8610 Uster,"Alte Gemeindekanzlei an der Poststrasse 6, spätere Apotheke Rieder.",jpeg,,https://creativecommons.org/publicdomain/zero/1.0/deed.de,"Stadtarchiv Uster, (ISIL: CH-000629-9)",8.717964,47.349961
8.720257213081913,47.347344545819617,08e275d726db44bc9e9a8d49e3a1a05c,https://mobile.cmistar.ch/webclients/stadtarchivuster/#/content/08e275d726db44bc9e9a8d49e3a1a05c/image,1893_02_042.jpg,1893_02_042,"Gujer, Julius",1893,"696841,244845",696841,244845,Florastrasse 18,8610 Uster,„18. August 1893“. Grosse Palme im Park der Villa Grunholzer.,jpeg,,https://creativecommons.org/publicdomain/zero/1.0/deed.de,"Stadtarchiv Uster, (ISIL: CH-000629-9)",8.720257,47.347345
8.740743544841786,47.345622011988873,d6be5b26c39740908c278e5ae81932db,https://mobile.cmistar.ch/webclients/stadtarchivuster/#/content/d6be5b26c39740908c278e5ae81932db/image,1893_02_044.jpg,1893_02_044,"Gujer, Julius",1893,"698392,244679",698392,244679,Aathalstrasse 74-84,8610 Uster,Aatalstrasse nach Osten. Fabrik Trümpler im Spätsommer 1893.,jpeg,,https://creativecommons.org/publicdomain/zero/1.0/deed.de,"Stadtarchiv Uster, (ISIL: CH-000629-9)",8.740744,47.345622
8.717622664433227,47.349523694963196,4640a53887344ba78eaac3dc859adab8,https://mobile.cmistar.ch/webclients/stadtarchivuster/#/content/4640a53887344ba78eaac3dc859adab8/image,1893_02_045.jpg,1893_02_045,"Gujer, Julius",1893,"696638,245084",696638,245084,Poststrasse,8610 Uster,"Poststrasse von der dritten Fabrik Zangger an der Seestrasse 3 aus betrachtet. Ganz im Hintergrund der Bahnhof, alte Post, späteres Restaurant „Schweizerhof“ und Wohnhaus Ehrismann. Grosses Satteldach Mitte links ist Poststrasse 20.",jpeg,,https://creativecommons.org/publicdomain/zero/1.0/deed.de,"Stadtarchiv Uster, (ISIL: CH-000629-9)",8.717623,47.349524
8.727546281927232,47.34664269611838,3956db3b111042bc80e8cd34511ed360,https://mobile.cmistar.ch/webclients/stadtarchivuster/#/content/3956db3b111042bc80e8cd34511ed360/image,1893_02_046.jpg,1893_02_046,"Gujer, Julius",1893,"697393,244776",697393,244776,Florastrasse 20,8610 Uster,Rückseite des sog. Ruchwieshauses mit Ökonomiegebäuden an der heutigen Florastrasse 20. Im Hintergrund links hinter den Bäumen Florastrasse 37.,jpeg,,https://creativecommons.org/publicdomain/zero/1.0/deed.de,"Stadtarchiv Uster, (ISIL: CH-000629-9)",8.727546,47.346643
8.715404543471834,47.349755145423437,0b3f538c864847589fe6ff57f7600d72,https://mobile.cmistar.ch/webclients/stadtarchivuster/#/content/0b3f538c864847589fe6ff57f7600d72/image,1893_02_047.jpg,1893_02_047,"Gujer, Julius",1893,"696470,245107",696470,245107,Zürichstrasse 14-18,8610 Uster,Zürichstrasse an Stelle des heutigen Illuster Einkaufszentrums. Der Weg am linken Bildrand ist der heutige Landihallen-Weg.,jpeg,,https://creativecommons.org/publicdomain/zero/1.0/deed.de,"Stadtarchiv Uster, (ISIL: CH-000629-9)",8.715405,47.349755
8.720420149823793,47.346964924516477,3aa5e1f2b73e476eb176934851f6bf6c,https://mobile.cmistar.ch/webclients/stadtarchivuster/#/content/3aa5e1f2b73e476eb176934851f6bf6c/image,1893_02_048.jpg,1893_02_048,"Gujer, Julius",1893,"696854,244803",696854,244803,Florastrasse 18a,8610 Uster,Bau des Maschinenhauses an der Ostseite der Fabrik Zangger an der Florastrasse 18a.,jpeg,,https://creativecommons.org/publicdomain/zero/1.0/deed.de,"Stadtarchiv Uster, (ISIL: CH-000629-9)",8.720420,47.346965
8.719106656252713,47.349588203639442,aba4e15e984d4633b2ffaf1107b10b78,https://mobile.cmistar.ch/webclients/stadtarchivuster/#/content/aba4e15e984d4633b2ffaf1107b10b78/image,1893_02_049.jpg,1893_02_049,"Gujer, Julius",1893,"696750,245093",696750,245093,Bahnhofstrasse 2,8610 Uster,"Freiestrasse mit Blick in die Bahnhofstrasse. Geradeaus „Hotel Usterhof“, rechts Bahnhofstrasse 3 und links Bahnhofstrasse 5.",jpeg,,https://creativecommons.org/publicdomain/zero/1.0/deed.de,"Stadtarchiv Uster, (ISIL: CH-000629-9)",8.719107,47.349588
8.720420149823793,47.346964924516477,4c55599f8b7d4a82a2d3abdb1f9f301c,https://mobile.cmistar.ch/webclients/stadtarchivuster/#/content/4c55599f8b7d4a82a2d3abdb1f9f301c/image,1893_02_050.jpg,1893_02_050,"Gujer, Julius",1893,"696854,244803",696854,244803,Florastrasse 18a,8610 Uster,Fabrik und Ökonomiegebäude Zangger an der Florastrasse von Osten aufgenommen.,jpeg,,https://creativecommons.org/publicdomain/zero/1.0/deed.de,"Stadtarchiv Uster, (ISIL: CH-000629-9)",8.720420,47.346965
8.716685821460018,47.349093290376686,f4a39a7a79fe41118d7c2a1b42a416f6,https://mobile.cmistar.ch/webclients/stadtarchivuster/#/content/f4a39a7a79fe41118d7c2a1b42a416f6/image,1893_02_051.jpg,1893_02_051,"Gujer, Julius",1893,"696568,245035",696568,245035,Poststrasse 20,8610 Uster,"Poststrasse 20 von der Zürichstrasse aus gesehen etwa 7 Jahre vor dem Umbau. Von diesem erhalten ist der vordere Drittel, in dem heute das Restaurant Molino untergebracht ist.",jpeg,,https://creativecommons.org/publicdomain/zero/1.0/deed.de,"Stadtarchiv Uster, (ISIL: CH-000629-9)",8.716686,47.349093
8.717882419584731,47.345454840607452,33214b2b5da44ca6800cb3b9735e6ed8,https://mobile.cmistar.ch/webclients/stadtarchivuster/#/content/33214b2b5da44ca6800cb3b9735e6ed8/image,1893_1894_03_001.jpg,1893_1894_03_001,"Gujer, Julius",1893,"696665,244632",696665,244632,Burg Uster,8610 Uster,Ansicht der Burg mit Ökonomie vom Stauberberg bzw. Buchhalden-Weg aus gesehen im Herbst/Winter 1893. An Stelle des Bauernhauses mit Krüppelwalmdach steht heute das Restaurant Burg.,jpeg,,https://creativecommons.org/publicdomain/zero/1.0/deed.de,"Stadtarchiv Uster, (ISIL: CH-000629-9)",8.717882,47.345455
8.718082472547957,47.344966864819327,06296e7db42b4c59b5be2cb035fabad9,https://mobile.cmistar.ch/webclients/stadtarchivuster/#/content/06296e7db42b4c59b5be2cb035fabad9/image,1893_1894_03_002.jpg,1893_1894_03_002,"Gujer, Julius",1893,"696681,244578",696681,244578,"Restaurant Burg, Schlossweg 4",8610 Uster,„Bürgli“. Bauernhaus mit Krüppelwalmdach auf dem Burgplateau.,jpeg,,https://creativecommons.org/publicdomain/zero/1.0/deed.de,"Stadtarchiv Uster, (ISIL: CH-000629-9)",8.718082,47.344967
8.716881395833532,47.351178084123411,ca5044dc534e49fd9dab96ca50b8d17f,https://mobile.cmistar.ch/webclients/stadtarchivuster/#/content/ca5044dc534e49fd9dab96ca50b8d17f/image,1893_1894_03_003.jpg,1893_1894_03_003,"Gujer, Julius",1893,"696579,245267",696579,245267,Bahnhof Uster,8610 Uster,„9. Oktober 1893“. Anlieferung einer Turbine am Bahnhof Uster auf einer Rampenähnlichen Erhebung.,jpeg,,https://creativecommons.org/publicdomain/zero/1.0/deed.de,"Stadtarchiv Uster, (ISIL: CH-000629-9)",8.716881,47.351178
8.719102278356893,47.349957068465102,6b3d71b4aa4e4f3ba998cf808d2d8104,https://mobile.cmistar.ch/webclients/stadtarchivuster/#/content/6b3d71b4aa4e4f3ba998cf808d2d8104/image,1893_1894_03_005.jpg,1893_1894_03_005,"Gujer, Julius",1893,"696749,245134",696749,245134,Bahnhof Uster,8610 Uster,Abtransport der Turbine vom Bahnhofsareal.,jpeg,,https://creativecommons.org/publicdomain/zero/1.0/deed.de,"Stadtarchiv Uster, (ISIL: CH-000629-9)",8.719102,47.349957
8.718345840191796,47.348220325647262,85d8c14fff654137b6a518b0e9501740,https://mobile.cmistar.ch/webclients/stadtarchivuster/#/content/85d8c14fff654137b6a518b0e9501740/image,1893_1894_03_006.jpg,1893_1894_03_006,"Gujer, Julius",1893,"696695,244940",696695,244940,Sternenplatz,8610 Uster,Turbine macht Pause vor dem „Sternen“.,jpeg,,https://creativecommons.org/publicdomain/zero/1.0/deed.de,"Stadtarchiv Uster, (ISIL: CH-000629-9)",8.718346,47.348220
8.720153782063525,47.346895917729483,5cac462516ca4e218585cdc15a559d90,https://mobile.cmistar.ch/webclients/stadtarchivuster/#/content/5cac462516ca4e218585cdc15a559d90/image,1893_1894_03_007.jpg,1893_1894_03_007,"Gujer, Julius",1893-1894,"696834,244795",696834,244795,Reibestrasse,8610 Uster,"Aufnahme vom Stauberberg nach Nordosten. Ganz links hinten „Hotel Usterhof“, ganz rechts aussen kath. Kirche. Vordergrund rechts Spinnerei Zangger II",jpeg,,https://creativecommons.org/publicdomain/zero/1.0/deed.de,"Stadtarchiv Uster, (ISIL: CH-000629-9)",8.720154,47.346896
8.722279547565321,47.347232119795848,2534ef9a856b4c4089a94c238ed22728,https://mobile.cmistar.ch/webclients/stadtarchivuster/#/content/2534ef9a856b4c4089a94c238ed22728/image,1893_1894_03_009.jpg,1893_1894_03_009,"Gujer, Julius",1893-1894,"696994,244835",696994,244835,"Florastrasse 47, 53",8610 Uster,„Am Weiher“. Blick über die Wasserfläche des Ruchwiesweihers auf die Bebauung entlang der Florastrasse.,jpeg,,https://creativecommons.org/publicdomain/zero/1.0/deed.de,"Stadtarchiv Uster, (ISIL: CH-000629-9)",8.722280,47.347232
8.720420149823793,47.346964924516477,2157108a4f454bc7af30ac126f46fec9,https://mobile.cmistar.ch/webclients/stadtarchivuster/#/content/2157108a4f454bc7af30ac126f46fec9/image,1893_1894_03_010.jpg,1893_1894_03_010,"Gujer, Julius",1894,"696854,244803",696854,244803,Florastrasse 18a,8610 Uster,Fabrik Zangger an der Florastrasse 18a von Osten. Neues Maschinenhaus mit Dampfmaschine.,jpeg,,https://creativecommons.org/publicdomain/zero/1.0/deed.de,"Stadtarchiv Uster, (ISIL: CH-000629-9)",8.720420,47.346965
8.721827373631129,47.349342100600524,156063f5e174400fad327b22ecd02769,https://mobile.cmistar.ch/webclients/stadtarchivuster/#/content/156063f5e174400fad327b22ecd02769/image,1893_1894_03_011.jpg,1893_1894_03_011,"Gujer, Julius",1894,"696956,245069",696956,245069,Neuwiesenstrasse 10,8610 Uster,"Aufnahme der Bahnstrasse nach Norden. Links Villa Elektra, rechts Fabrik Zellweger an der Neuwiesenstrasse 10.",jpeg,,https://creativecommons.org/publicdomain/zero/1.0/deed.de,"Stadtarchiv Uster, (ISIL: CH-000629-9)",8.721827,47.349342
8.716692871668615,47.345521990564968,d662c7c33b8743e5a96cc1754ddd5b32,https://mobile.cmistar.ch/webclients/stadtarchivuster/#/content/d662c7c33b8743e5a96cc1754ddd5b32/image,1893_1894_03_012.jpg,1893_1894_03_012,"Gujer, Julius",1894,"696575,244638",696575,244638,Schlossweg 2,8610 Uster,Ref. Kirche mit Burg im Hintergrund. Davor im Mittelgrund am Schlossweg 2 das sog. „Bäuli“ vor seinem Umbau.,jpeg,,https://creativecommons.org/publicdomain/zero/1.0/deed.de,"Stadtarchiv Uster, (ISIL: CH-000629-9)",8.716693,47.345522
8.720273687459555,47.347479295819397,bbcbf126b72c420b89524042cac89455,https://mobile.cmistar.ch/webclients/stadtarchivuster/#/content/bbcbf126b72c420b89524042cac89455/image,1893_1894_03_016.jpg,1893_1894_03_016,"Gujer, Julius",1894,"696842,244860",696842,244860,Florastrasse 18,8610 Uster,Familie Gujer vor der Villa Grunholzer an der Florastrasse 18.,jpeg,,https://creativecommons.org/publicdomain/zero/1.0/deed.de,"Stadtarchiv Uster, (ISIL: CH-000629-9)",8.720274,47.347479
8.723223287669866,47.349596441410412,76b3dbf46add49cc871ba7f48fc34672,https://mobile.cmistar.ch/webclients/stadtarchivuster/#/content/76b3dbf46add49cc871ba7f48fc34672/image,1893_1894_03_017.jpg,1893_1894_03_017,"Gujer, Julius",1894,"697061,245099",697061,245099,Neuwiesenstrasse 17,8610 Uster,„Kathol. Kirche“ über die Kanzleistrasse betrachtet.,jpeg,,https://creativecommons.org/publicdomain/zero/1.0/deed.de,"Stadtarchiv Uster, (ISIL: CH-000629-9)",8.723223,47.349596
8.720080874228984,47.347166592942763,964c3879659c4258922e8da7ac6524ef,https://mobile.cmistar.ch/webclients/stadtarchivuster/#/content/964c3879659c4258922e8da7ac6524ef/image,1893_1894_03_018.jpg,1893_1894_03_018,"Gujer, Julius",1894,"696828,244825",696828,244825,Florastrasse 18,8610 Uster,Im Park der Villa Grunholzer an der Florastrasse 18. Ganz links die Fabrik.,jpeg,,https://creativecommons.org/publicdomain/zero/1.0/deed.de,"Stadtarchiv Uster, (ISIL: CH-000629-9)",8.720081,47.347167
8.724207063672903,47.348676941483021,84c9b375272649fba3762ab2ea2bd3c2,https://mobile.cmistar.ch/webclients/stadtarchivuster/#/content/84c9b375272649fba3762ab2ea2bd3c2/image,1893_1894_03_022.jpg,1893_1894_03_022,"Gujer, Julius",1894,"697137,244998",697137,244998,Neuwisenstrasse 27,8610 Uster,Rechts Neuwiesenstrasse 27 mit vorgelagerter Scheune an der Neuwiesenstrasse 25,jpeg,,https://creativecommons.org/publicdomain/zero/1.0/deed.de,"Stadtarchiv Uster, (ISIL: CH-000629-9)",8.724207,47.348677
8.71962315588601,47.347396561329134,8cd4d42e6ba1446b92bca23ee1e71602,https://mobile.cmistar.ch/webclients/stadtarchivuster/#/content/8cd4d42e6ba1446b92bca23ee1e71602/image,1893_1894_03_023.jpg,1893_1894_03_023,"Gujer, Julius",1894,"696793,244850",696793,244850,Florastrasse 12,8610 Uster,Rückseite der Florastrasse 12 (heute abgrissen). Ehemalige Buchmanufaktur gegenüber der Einmündung der Braschlergasse.,jpeg,,https://creativecommons.org/publicdomain/zero/1.0/deed.de,"Stadtarchiv Uster, (ISIL: CH-000629-9)",8.719623,47.347397
8.714873821999731,47.348042870929135,96f108411ef344afbb85f8880f4435db,https://mobile.cmistar.ch/webclients/stadtarchivuster/#/content/96f108411ef344afbb85f8880f4435db/image,1893_1894_03_024.jpg,1893_1894_03_024,"Gujer, Julius",1894,"696433,244916",696433,244916,Seestrasse 4,8610 Uster,„Untere Farb“. Das sog. „Teckte Brüggli“ über die Aa.,jpeg,,https://creativecommons.org/publicdomain/zero/1.0/deed.de,"Stadtarchiv Uster, (ISIL: CH-000629-9)",8.714874,47.348043
8.711449036902927,47.348179634003579,88c16ae8904d418786cdb26d3985edd3,https://mobile.cmistar.ch/webclients/stadtarchivuster/#/content/88c16ae8904d418786cdb26d3985edd3/image,1893_1894_03_025.jpg,1893_1894_03_025,"Gujer, Julius",1894,"696174,244927",696174,244927,Im Lot,8610 Uster,"Spinnerei Bachmann, spätere BUAG von der Wilstrasse aus gesehen.Links das Kosthaus.",jpeg,,https://creativecommons.org/publicdomain/zero/1.0/deed.de,"Stadtarchiv Uster, (ISIL: CH-000629-9)",8.711449,47.348180
8.690791473442298,47.343251144720838,e1c8a3c6fe524b03b0bc930edc7c3dff,https://mobile.cmistar.ch/webclients/stadtarchivuster/#/content/e1c8a3c6fe524b03b0bc930edc7c3dff/image,1893_1894_03_028.jpg,1893_1894_03_028,"Gujer, Julius",1894,"694622,244354",694622,244354,Schifflände Niederuster,8610 Uster,"Greifenseekähne, sog. Prahme, an der Schifflände Uster.",jpeg,,https://creativecommons.org/publicdomain/zero/1.0/deed.de,"Stadtarchiv Uster, (ISIL: CH-000629-9)",8.690791,47.343251
12.270411028323821,47.251622276839484,10c7f5ba8a304589bfcba54b724a1a20,https://mobile.cmistar.ch/webclients/stadtarchivuster/#/content/10c7f5ba8a304589bfcba54b724a1a20/image,1893_1894_03_029.jpg,1893_1894_03_029,"Gujer, Julius",1894,"965535,244672",965535,244672,Turbinenweg 4,8610 Uster,Spinnerei Kunz II in Niederuster von der Mühle aus gesehen. Der Brunnen steht heute am Standpunkt des Photographen.,jpeg,,https://creativecommons.org/publicdomain/zero/1.0/deed.de,"Stadtarchiv Uster, (ISIL: CH-000629-9)",12.270411,47.251622
8.716604570978285,47.348464503717331,5e1fde0e94704bdfaa73453970b92b49,https://mobile.cmistar.ch/webclients/stadtarchivuster/#/content/5e1fde0e94704bdfaa73453970b92b49/image,1893_1894_03_030.jpg,1893_1894_03_030,"Gujer, Julius",1894,"696563,244965",696563,244965,Sestrasse 3,8610 Uster,Ansicht Kirchusters vom Buchhalden aus gesehen. In der Mitte dritte Fabrik Zangger von 1868. Unten Schützenhaus an Brauereistrasse.,jpeg,,https://creativecommons.org/publicdomain/zero/1.0/deed.de,"Stadtarchiv Uster, (ISIL: CH-000629-9)",8.716605,47.348465
8.721306256534293,47.346937090725241,a781e89a120a44468e24d6e62138cddf,https://mobile.cmistar.ch/webclients/stadtarchivuster/#/content/a781e89a120a44468e24d6e62138cddf/image,1893_1894_03_032.jpg,1893_1894_03_032,"Gujer, Julius",1894,"696921,244801",696921,244801,Florastrasse 22,8610 Uster,Badeanstalt an der Florastrasse.,jpeg,,https://creativecommons.org/publicdomain/zero/1.0/deed.de,"Stadtarchiv Uster, (ISIL: CH-000629-9)",8.721306,47.346937
8.718606245022038,47.343629719262331,ecfefdcbb5424420957d6f6846d9a290,https://mobile.cmistar.ch/webclients/stadtarchivuster/#/content/ecfefdcbb5424420957d6f6846d9a290/image,1893_1894_03_033.jpg,1893_1894_03_033,"Gujer, Julius",1894,"696723,244430",696723,244430,Burgstrasse 10,8610 Uster,Burghügel von der Burgstrasse aus gesehen. Das Gehöft vorne ist Burgstrasse 10. Links hinten Burgstrasse 11. Beides steht heute noch.,jpeg,,https://creativecommons.org/publicdomain/zero/1.0/deed.de,"Stadtarchiv Uster, (ISIL: CH-000629-9)",8.718606,47.343630
8.718896135810992,47.348538062689073,e21a9be04bd84bfca57164ee766af36e,https://mobile.cmistar.ch/webclients/stadtarchivuster/#/content/e21a9be04bd84bfca57164ee766af36e/image,1893_1894_03_034.jpg,1893_1894_03_034,"Gujer, Julius",1894,"696736,244976",696736,244976,Bahnhofstrasse 17,8610 Uster,Viehmarkt vor der „Sternenscheune“ an der Bahnhofstrasse. Im Hintergrund Brandmauer des Hotels Uster- hof.,jpeg,,https://creativecommons.org/publicdomain/zero/1.0/deed.de,"Stadtarchiv Uster, (ISIL: CH-000629-9)",8.718896,47.348538
8.721306256534293,47.346937090725241,6741bc35e2a8479687fd86424f026f46,https://mobile.cmistar.ch/webclients/stadtarchivuster/#/content/6741bc35e2a8479687fd86424f026f46/image,1893_1894_03_035.jpg,1893_1894_03_035,"Gujer, Julius",1894,"696921,244801",696921,244801,Florastrasse 22,8610 Uster,Badeanstalt an der Florastrasse.,jpeg,,https://creativecommons.org/publicdomain/zero/1.0/deed.de,"Stadtarchiv Uster, (ISIL: CH-000629-9)",8.721306,47.346937
8.719737386818917,47.348294846155085,c5b3737c26454187bbba3f6406afd576,https://mobile.cmistar.ch/webclients/stadtarchivuster/#/content/c5b3737c26454187bbba3f6406afd576/image,1893_1894_03_036.jpg,1893_1894_03_036,"Gujer, Julius",1894,"696800,244950",696800,244950,Braschlergasse 6,8610 Uster,Rechts: Braschlergasse 4-6 von der Florastrasse aus betrachtet.,jpeg,,https://creativecommons.org/publicdomain/zero/1.0/deed.de,"Stadtarchiv Uster, (ISIL: CH-000629-9)",8.719737,47.348295
8.721961979675806,47.347235650732991,f533973a182f453d9ccd14bf091267f2,https://mobile.cmistar.ch/webclients/stadtarchivuster/#/content/f533973a182f453d9ccd14bf091267f2/image,1893_1894_03_037.jpg,1893_1894_03_037,"Gujer, Julius",1894,"696970,244835",696970,244835,Florastrasse 49,8610 Uster,Inhaber Kleidermacher Hausser vor seinem Haus an der Florastrasse 49.,jpeg,,https://creativecommons.org/publicdomain/zero/1.0/deed.de,"Stadtarchiv Uster, (ISIL: CH-000629-9)",8.721962,47.347236
8.715396197888479,47.346642789186461,45f98901f03047259979bbbc1b5eb8b9,https://mobile.cmistar.ch/webclients/stadtarchivuster/#/content/45f98901f03047259979bbbc1b5eb8b9/image,1893_1894_03_038.jpg,1893_1894_03_038,"Gujer, Julius",1894,"696475,244761",696475,244761,Schulweg 6,8610 Uster,Kindergruppe vor dem Eingang des Schulhauses Dorf am Schulweg 6. Rechts ist die „Untere Farb“ zu er- kennen.,jpeg,,https://creativecommons.org/publicdomain/zero/1.0/deed.de,"Stadtarchiv Uster, (ISIL: CH-000629-9)",8.715396,47.346643
8.715396197888479,47.346642789186461,5b695179e0ea45a39f85c9ae0ebf9f5f,https://mobile.cmistar.ch/webclients/stadtarchivuster/#/content/5b695179e0ea45a39f85c9ae0ebf9f5f/image,1893_1894_03_039.jpg,1893_1894_03_039,"Gujer, Julius",1894,"696475,244761",696475,244761,Schulweg 6,8610 Uster,Kinder vor dem Eingang des Schulhauses Dorf am Schulweg 6.,jpeg,,https://creativecommons.org/publicdomain/zero/1.0/deed.de,"Stadtarchiv Uster, (ISIL: CH-000629-9)",8.715396,47.346643
8.718291467291783,47.347609232892644,3d6e09fd2619459e954e960f68e91f09,https://mobile.cmistar.ch/webclients/stadtarchivuster/#/content/3d6e09fd2619459e954e960f68e91f09/image,1893_1894_03_040.jpg,1893_1894_03_040,"Gujer, Julius",1894,"696692,244872",696692,244872,Zentralstrasse 5,8610 Uster,Ehemaliges Kantonalbankgebäude an der Zentralstrasse 5.,jpeg,,https://creativecommons.org/publicdomain/zero/1.0/deed.de,"Stadtarchiv Uster, (ISIL: CH-000629-9)",8.718291,47.347609
8.717708966250049,47.348155419949805,22700057d8b94f469cf09454eb16d92d,https://mobile.cmistar.ch/webclients/stadtarchivuster/#/content/22700057d8b94f469cf09454eb16d92d/image,1893_1894_03_041.jpg,1893_1894_03_041,"Gujer, Julius",1894,"696647,244932",696647,244932,Zürichstrasse 1,8610 Uster,"Rückansicht der Villa Zangger an der Zürichstrasse 1. Rechts davon Sternen, links sog. Scheune",jpeg,,https://creativecommons.org/publicdomain/zero/1.0/deed.de,"Stadtarchiv Uster, (ISIL: CH-000629-9)",8.717709,47.348155
8.717708966250049,47.348155419949805,a265b5cc18da4e6085778b05d1614b6e,https://mobile.cmistar.ch/webclients/stadtarchivuster/#/content/a265b5cc18da4e6085778b05d1614b6e/image,1893_1894_03_043.jpg,1893_1894_03_043,"Gujer, Julius",1894,"696647,244932",696647,244932,Zürichstrasse 1,8610 Uster,„8. April 1894“. Blick von Florastrasse in die Zürichstrasse. In der Mitte Villa Zangger mit angrenzendem Park an der Zürichstrasse 1 mit in Rautenmuster gelegten Dachziegeln. Rechts Hotel Sternen.,jpeg,,https://creativecommons.org/publicdomain/zero/1.0/deed.de,"Stadtarchiv Uster, (ISIL: CH-000629-9)",8.717709,47.348155
8.717708966250049,47.348155419949805,d32d56870f514c178ecffc43100f7888,https://mobile.cmistar.ch/webclients/stadtarchivuster/#/content/d32d56870f514c178ecffc43100f7888/image,1893_1894_03_046.jpg,1893_1894_03_046,"Gujer, Julius",1894,"696647,244932",696647,244932,Zürichstrasse 1,8610 Uster,Villa Zangger an der Zürichstrasse 1 von der Sternenscheune aus gesehen. Dolendeckel im Vordergrund bezeugt die Existenz einer Kanalisation im Jahre 1894.,jpeg,,https://creativecommons.org/publicdomain/zero/1.0/deed.de,"Stadtarchiv Uster, (ISIL: CH-000629-9)",8.717709,47.348155
8.717708966250049,47.348155419949805,70c393fdbcbf43aab5a4641764f5b483,https://mobile.cmistar.ch/webclients/stadtarchivuster/#/content/70c393fdbcbf43aab5a4641764f5b483/image,1893_1894_03_048.jpg,1893_1894_03_048,"Gujer, Julius",1894,"696647,244932",696647,244932,Zürichstrasse 1,8610 Uster,Villa Zangger an der Zürichstrasse 1 in der rückwärtigen Ansicht.,jpeg,,https://creativecommons.org/publicdomain/zero/1.0/deed.de,"Stadtarchiv Uster, (ISIL: CH-000629-9)",8.717709,47.348155
8.720080874228984,47.347166592942763,18d725da92a04d37978b9114cfa1ea77,https://mobile.cmistar.ch/webclients/stadtarchivuster/#/content/18d725da92a04d37978b9114cfa1ea77/image,1893_1894_03_049.jpg,1893_1894_03_049,"Gujer, Julius",1894,"696828,244825",696828,244825,Florastrasse 18,8610 Uster,Park der Villa Grunholzer an der Florastrasse 18 im „Sept. 1894“. Gujer Töchter mit Zofe.,jpeg,,https://creativecommons.org/publicdomain/zero/1.0/deed.de,"Stadtarchiv Uster, (ISIL: CH-000629-9)",8.720081,47.347167
8.720080874228984,47.347166592942763,fc437ad2bf6c4e4792689aa6d58db6be,https://mobile.cmistar.ch/webclients/stadtarchivuster/#/content/fc437ad2bf6c4e4792689aa6d58db6be/image,1893_1894_03_050.jpg,1893_1894_03_050,"Gujer, Julius",1894,"696828,244825",696828,244825,Florastrasse 18,8610 Uster,Park der Villa Grunholzer an der Florastrasse 18 im „Sept. 1894“.,jpeg,,https://creativecommons.org/publicdomain/zero/1.0/deed.de,"Stadtarchiv Uster, (ISIL: CH-000629-9)",8.720081,47.347167
8.714873821999731,47.348042870929135,969f25af422b4847a174e62da5dda74f,https://mobile.cmistar.ch/webclients/stadtarchivuster/#/content/969f25af422b4847a174e62da5dda74f/image,1893_1894_03_051.jpg,1893_1894_03_051,"Gujer, Julius",1894,"696433,244916",696433,244916,Seestrasse 4,8610 Uster,Untere Farb und „Teckstes Brüggli“ von Süden aufgenommen.,jpeg,,https://creativecommons.org/publicdomain/zero/1.0/deed.de,"Stadtarchiv Uster, (ISIL: CH-000629-9)",8.714874,47.348043
8.687228201920862,47.37250692657031,35ee49d6808b468a9009eb9b7f65e648,https://mobile.cmistar.ch/webclients/stadtarchivuster/#/content/35ee49d6808b468a9009eb9b7f65e648/image,1893_1894_03_052.jpg,1893_1894_03_052,"Gujer, Julius",1894,"694301,247602",694301,247602,Bluetmatt,8606 Nänikon,„Denkmal in Nänikon“. Denkmal mit sog. Blutbuche am Ort der Hinrichtung der Besatzung der Burg Grei- fensee im alten Zürichkrieg.,jpeg,Ausflug zum Blutbuchendenkmal in Nänikon,https://creativecommons.org/publicdomain/zero/1.0/deed.de,"Stadtarchiv Uster, (ISIL: CH-000629-9)",8.687228,47.372507
8.72200835697045,47.348062723873262,4290c1146ce744ca808d3c8528a95c1d,https://mobile.cmistar.ch/webclients/stadtarchivuster/#/content/4290c1146ce744ca808d3c8528a95c1d/image,1893_1894_03_053.jpg,1893_1894_03_053,"Gujer, Julius",1894,"696972,244927",696972,244927,Freiestrasse 20,8610 Uster,„Bauplatz Sek Schulhaus gegen Florastr.“ mit Absteckungen von der Freiestrasse aus gesehen.,jpeg,,https://creativecommons.org/publicdomain/zero/1.0/deed.de,"Stadtarchiv Uster, (ISIL: CH-000629-9)",8.722008,47.348063
8.716884605495965,47.348551358406702,71ca5832f07544229cd969e95505d235,https://mobile.cmistar.ch/webclients/stadtarchivuster/#/content/71ca5832f07544229cd969e95505d235/image,1893_1894_03_054.jpg,1893_1894_03_054,"Gujer, Julius",1894,"696584,244975",696584,244975,Zürichstrasse / Uschter77,8610 Uster,Dreschgespann vor der Strassenecke Poststrasse – Seestrasse – Zürichstrasse. Beim Bauernhaus links handeltl es sich um die Poststrasse 20 (heute Rest. Molino).,jpeg,,https://creativecommons.org/publicdomain/zero/1.0/deed.de,"Stadtarchiv Uster, (ISIL: CH-000629-9)",8.716885,47.348551
8.714787850105067,47.346109785030706,499d69a3034646b89bbd67b2355903e7,https://mobile.cmistar.ch/webclients/stadtarchivuster/#/content/499d69a3034646b89bbd67b2355903e7/image,1893_1894_03_055.jpg,1893_1894_03_055,"Gujer, Julius",1894,"696430,244701",696430,244701,Apothekerstrasse 16,8610 Uster,"„Apotheke“ an der Apothekerstrasse 16. ""Apotheke - G. Staubli"".",jpeg,,https://creativecommons.org/publicdomain/zero/1.0/deed.de,"Stadtarchiv Uster, (ISIL: CH-000629-9)",8.714788,47.346110
8.687228201920862,47.37250692657031,9ba6daf18cfb4f6781da8e829ae9db76,https://mobile.cmistar.ch/webclients/stadtarchivuster/#/content/9ba6daf18cfb4f6781da8e829ae9db76/image,1895_1896_04_002.jpg,1895_1896_04_002,"Gujer, Julius",1895,"694301,247602",694301,247602,Bluetmatt,8606 Nänikon,Blutbuche in Nänikon,jpeg,Ausflug zum Blutbuchendenkmal in Nänikon,https://creativecommons.org/publicdomain/zero/1.0/deed.de,"Stadtarchiv Uster, (ISIL: CH-000629-9)",8.687228,47.372507
8.717882419584731,47.345454840607452,79c5481fff754a559fdbc29524ed2891,https://mobile.cmistar.ch/webclients/stadtarchivuster/#/content/79c5481fff754a559fdbc29524ed2891/image,1895_1896_04_003.jpg,1895_1896_04_003,"Gujer, Julius",1895,"696665,244632",696665,244632,Burg Uster,8610 Uster,„April 1895“. Burg und ref. Kirche von der Brauereistrasse aus betrachtet.,jpeg,,https://creativecommons.org/publicdomain/zero/1.0/deed.de,"Stadtarchiv Uster, (ISIL: CH-000629-9)",8.717882,47.345455
8.720273687459555,47.347479295819397,79a407e2330648cebe7b496b22b45847,https://mobile.cmistar.ch/webclients/stadtarchivuster/#/content/79a407e2330648cebe7b496b22b45847/image,1895_1896_04_004.jpg,1895_1896_04_004,"Gujer, Julius",1895,"696842,244860",696842,244860,Florastrasse 18,8610 Uster,Fabrikkanal mit Ökonomiegebäude zugehörig zur Fabrik Zangger an der Florastrasse 18. Aufnahme nach Osten.,jpeg,,https://creativecommons.org/publicdomain/zero/1.0/deed.de,"Stadtarchiv Uster, (ISIL: CH-000629-9)",8.720274,47.347479
8.720273687459555,47.347479295819397,7ea3ea92990245febd5877eb8294a926,https://mobile.cmistar.ch/webclients/stadtarchivuster/#/content/7ea3ea92990245febd5877eb8294a926/image,1895_1896_04_005.jpg,1895_1896_04_005,"Gujer, Julius",1895,"696842,244860",696842,244860,Florastrasse 18,8610 Uster,„April 1895“. Florastrasse Richtung Kirchuster. Links Villa Grunholzer an der Florastrasse 18.,jpeg,,https://creativecommons.org/publicdomain/zero/1.0/deed.de,"Stadtarchiv Uster, (ISIL: CH-000629-9)",8.720274,47.347479
8.720420149823793,47.346964924516477,d1d34a229c9e4f5e9758dd1a993a0226,https://mobile.cmistar.ch/webclients/stadtarchivuster/#/content/d1d34a229c9e4f5e9758dd1a993a0226/image,1895_1896_04_006.jpg,1895_1896_04_006,"Gujer, Julius",1895,"696854,244803",696854,244803,Florastrasse 18a,8610 Uster,Fabrik Zangger an der Florastrasse 18a. Links neues Maschinenhaus und Ökonomiegebäude mi darüber gelegener Burg.,jpeg,,https://creativecommons.org/publicdomain/zero/1.0/deed.de,"Stadtarchiv Uster, (ISIL: CH-000629-9)",8.720420,47.346965
8.716604570978285,47.348464503717331,9a4ffd9bf1f94655b10c184e3f447ba4,https://mobile.cmistar.ch/webclients/stadtarchivuster/#/content/9a4ffd9bf1f94655b10c184e3f447ba4/image,1895_1896_04_007.jpg,1895_1896_04_007,"Gujer, Julius",1895,"696563,244965",696563,244965,Seestrasse 3,8610 Uster,"„April 1895“. Aufnahme aus der Spinnerei Zangger Zentralstrasse (1824) auf die Neue Spinnerei Zangger Seestrasse von 1868. Links Fabrikkanal, ganz am oberen linken Bildrand zu sehen „Untere Farb“. Rechts Villa Zangger an der Zürichstrasse 1.",jpeg,,https://creativecommons.org/publicdomain/zero/1.0/deed.de,"Stadtarchiv Uster, (ISIL: CH-000629-9)",8.716605,47.348465
8.720648725781416,47.347664037378863,bf6a427f9e5d4566b79e6cf19995d9b8,https://mobile.cmistar.ch/webclients/stadtarchivuster/#/content/bf6a427f9e5d4566b79e6cf19995d9b8/image,1895_1896_04_008.jpg,1895_1896_04_008,"Gujer, Julius",1895,"696870,244881",696870,244881,Florastrasse 37,8610 Uster,Imkerstrasse in Richtung Freiestrasse. Rechts Florastrasse 37.,jpeg,,https://creativecommons.org/publicdomain/zero/1.0/deed.de,"Stadtarchiv Uster, (ISIL: CH-000629-9)",8.720649,47.347664
8.72200835697045,47.348062723873262,5a2874724b294af19f4652a4678f940e,https://mobile.cmistar.ch/webclients/stadtarchivuster/#/content/5a2874724b294af19f4652a4678f940e/image,1895_1896_04_009.jpg,1895_1896_04_009,"Gujer, Julius",1895,"696972,244927",696972,244927,Florastrasse 20,8610 Uster,Sog. Ruchwieshaus an der Florastrasse 20 im „April 1895“.,jpeg,,https://creativecommons.org/publicdomain/zero/1.0/deed.de,"Stadtarchiv Uster, (ISIL: CH-000629-9)",8.722008,47.348063
8.718594407372288,47.350304530258853,37b2c0a8131b492ebb7b6c487bcc55e5,https://mobile.cmistar.ch/webclients/stadtarchivuster/#/content/37b2c0a8131b492ebb7b6c487bcc55e5/image,1895_1896_04_010.jpg,1895_1896_04_010,"Gujer, Julius",1895,"696710,245172",696710,245172,Bahnstation Uster,8610 Uster,Bahnhofplatz im Frühsommer 1895. Rechte Bildhälfte: Bahnhofsgebäude mit hölzerner Perronhalle. Remise I von 1856 und offen stehender Gepäck-Waggon. Linke Bildhälfte: Restaurant Krone an der Bankstrasse 3 mit zugehöriger Trinkhalle auf dem G,jpeg,,https://creativecommons.org/publicdomain/zero/1.0/deed.de,"Stadtarchiv Uster, (ISIL: CH-000629-9)",8.718594,47.350305
8.711449036902927,47.348179634003579,79be730701e046388be0828b07b00130,https://mobile.cmistar.ch/webclients/stadtarchivuster/#/content/79be730701e046388be0828b07b00130/image,1895_1896_04_011.jpg,1895_1896_04_011,"Gujer, Julius",1895,"696174,244927",696174,244927,Im Lot,8610 Uster,"Fabrik Bachmann, spätere BUAG im „Mai 1895“. Haupthaus links, Fabrikantenvilla rechts. 12: Blick über den Ruchwiesweiher auf Burg und ref. Kirche.",jpeg,,https://creativecommons.org/publicdomain/zero/1.0/deed.de,"Stadtarchiv Uster, (ISIL: CH-000629-9)",8.711449,47.348180
8.716685821460018,47.349093290376686,f1031f6d7f7343f2bc7ddfe6732ade08,https://mobile.cmistar.ch/webclients/stadtarchivuster/#/content/f1031f6d7f7343f2bc7ddfe6732ade08/image,1895_1896_04_013.jpg,1895_1896_04_013,"Gujer, Julius",1895,"696568,245035",696568,245035,Poststrasse 20,8610 Uster,"Heutige Poststrasse 20, dem heutigen Restaurant Molino vor dem Umbau im „Mai 1895“. Im Vordergrund die Kreuzung Zürichstrasse, Niederusterstrasse und Poststrasse.",jpeg,,https://creativecommons.org/publicdomain/zero/1.0/deed.de,"Stadtarchiv Uster, (ISIL: CH-000629-9)",8.716686,47.349093
8.720273687459555,47.347479295819397,71cc4a9da79d490f9cb9398bfd7c9633,https://mobile.cmistar.ch/webclients/stadtarchivuster/#/content/71cc4a9da79d490f9cb9398bfd7c9633/image,1895_1896_04_013a.jpg,1895_1896_04_013a,"Gujer, Julius",1895,"696842,244860",696842,244860,"Florastrasse 18, 18a",8610 Uster,Florastrasse 18 und 18a. Villa Grunholzer und Spinnerei Zangger.,jpeg,,https://creativecommons.org/publicdomain/zero/1.0/deed.de,"Stadtarchiv Uster, (ISIL: CH-000629-9)",8.720274,47.347479
8.723747442240864,47.346631077599994,c4d84eed7ae04b8f9ab40c67d6b7d084,https://mobile.cmistar.ch/webclients/stadtarchivuster/#/content/c4d84eed7ae04b8f9ab40c67d6b7d084/image,1895_1896_04_013b.jpg,1895_1896_04_013b,"Gujer, Julius",1895,"697106,244770",697106,244770,Florastrasse 34,8610 Uster,"„Mai 1895“. Unklar. Womöglich Florastrasse 34 (ehem. Schulhaus, sog. Scmidlin Kammer).",jpeg,,https://creativecommons.org/publicdomain/zero/1.0/deed.de,"Stadtarchiv Uster, (ISIL: CH-000629-9)",8.723747,47.346631
8.721848025308914,47.348550264751765,c5f12d6e3f064977b8d817c985d2db71,https://mobile.cmistar.ch/webclients/stadtarchivuster/#/content/c5f12d6e3f064977b8d817c985d2db71/image,1895_1896_04_016.jpg,1895_1896_04_016,"Gujer, Julius",1895,"696959,244981",696959,244981,Freiestrasse 19,8610 Uster,Blick über den Bauplatz des neuen Sekundarschule an der Freiestrasse auf die Bebauung Freiestrasse 17 und 19.,jpeg,,https://creativecommons.org/publicdomain/zero/1.0/deed.de,"Stadtarchiv Uster, (ISIL: CH-000629-9)",8.721848,47.348550
8.721043905147052,47.351437767522853,70a32e68fb5649f99d7c2d4e582e7cbc,https://mobile.cmistar.ch/webclients/stadtarchivuster/#/content/70a32e68fb5649f99d7c2d4e582e7cbc/image,1895_1896_04_020.jpg,1895_1896_04_020,"Gujer, Julius",1895,"696893,245301",696893,245301,Brunnenstrasse 17,8610 Uster,Mansardenhaus an der Brunnenstrasse 17 mit der 1982 abgebrochenen Scheune. Aufnahme von der Brunnackerstrasse aus auf den hinteren Hausteil mit Blick auf Brunnenstrasse 3.,jpeg,,https://creativecommons.org/publicdomain/zero/1.0/deed.de,"Stadtarchiv Uster, (ISIL: CH-000629-9)",8.721044,47.351438
8.720294686197551,47.350555531516775,1abe5c2f36a94ce69323b3bbd7d06ff0,https://mobile.cmistar.ch/webclients/stadtarchivuster/#/content/1abe5c2f36a94ce69323b3bbd7d06ff0/image,1895_1896_04_021.jpg,1895_1896_04_021,"Gujer, Julius",1895,"696838,245202",696838,245202,Brunnenstrasse 3,8610 Uster,"Brunnenstrasse 3. Sog. ""Neuer Neuhof"" von 1880 des Industriellen Rudolf Walter Bünzli. 2014 Abbruch. Im Hintergrund rechts Brunnenstrasse 17 mit Scheune. Die Strasse, welche links wegführt ist die heutige Industriestrasse.",jpeg,,https://creativecommons.org/publicdomain/zero/1.0/deed.de,"Stadtarchiv Uster, (ISIL: CH-000629-9)",8.720295,47.350556
8.720420149823793,47.346964924516477,8f1fe3353df9451c814baf10c343b8f1,https://mobile.cmistar.ch/webclients/stadtarchivuster/#/content/8f1fe3353df9451c814baf10c343b8f1/image,1895_1896_04_022.jpg,1895_1896_04_022,"Gujer, Julius",1895,"696854,244803",696854,244803,Florastrasse 18a,8610 Uster,Fabrik Zangger (Florastrasse 18a) vom Standort der heutigen Villa am Aabach aus gesehen. Am linken Bildrand die „obere Farb“.,jpeg,,https://creativecommons.org/publicdomain/zero/1.0/deed.de,"Stadtarchiv Uster, (ISIL: CH-000629-9)",8.720420,47.346965
8.71663610194252,47.343705522470657,3a8fe630cb654d55b6b9a082929bde33,https://mobile.cmistar.ch/webclients/stadtarchivuster/#/content/3a8fe630cb654d55b6b9a082929bde33/image,1895_1896_04_023.jpg,1895_1896_04_023,"Gujer, Julius",1895,"696574,244436",696574,244436,Schwizerstrasse 2,8610 Uster,Wohnhaus an der Talackerstrasse 15. Ganz links die Burg.,jpeg,,https://creativecommons.org/publicdomain/zero/1.0/deed.de,"Stadtarchiv Uster, (ISIL: CH-000629-9)",8.716636,47.343706
8.717708966250049,47.348155419949805,f907c8a5d10243ebb81401f7706cff70,https://mobile.cmistar.ch/webclients/stadtarchivuster/#/content/f907c8a5d10243ebb81401f7706cff70/image,1895_1896_04_029.jpg,1895_1896_04_029,"Gujer, Julius",1895,"696647,244932",696647,244932,Zürichstrasse 1,8610 Uster,Villa Zangger an der Zürichstrasse 1.,jpeg,,https://creativecommons.org/publicdomain/zero/1.0/deed.de,"Stadtarchiv Uster, (ISIL: CH-000629-9)",8.717709,47.348155
8.720420149823793,47.346964924516477,ab45e3ac46e143c3b62cd61031f9eaa5,https://mobile.cmistar.ch/webclients/stadtarchivuster/#/content/ab45e3ac46e143c3b62cd61031f9eaa5/image,1895_1896_04_030.jpg,1895_1896_04_030,"Gujer, Julius",1895,"696854,244803",696854,244803,Florastrasse 18a,8610 Uster,"Blick vom Sekundarschulhaus auss auf die Fabrik Zangger an der Florastrasse 18a. Rechts in der Mitte das Haus Florastrasse 39, des heutigen Sanitär Günthard. Davor ist die Villa Grunholzer an der Florastrasse 18 sichtbar.",jpeg,,https://creativecommons.org/publicdomain/zero/1.0/deed.de,"Stadtarchiv Uster, (ISIL: CH-000629-9)",8.720420,47.346965
8.725780152010239,47.346401532279373,9b0c410e38314b46a2f7aa9352cdd397,https://mobile.cmistar.ch/webclients/stadtarchivuster/#/content/9b0c410e38314b46a2f7aa9352cdd397/image,1895_1896_04_034.jpg,1895_1896_04_034,"Gujer, Julius",1895,"697260,244747",697260,244747,Florastrasse 42,8610 Uster,"Spinnerei Heusser-Staub, ehemals Kunz I von der Inselstrasse aus photographiert.",jpeg,,https://creativecommons.org/publicdomain/zero/1.0/deed.de,"Stadtarchiv Uster, (ISIL: CH-000629-9)",8.725780,47.346402
8.719880831310341,47.347654571876632,f684eea140744e7c9ae4e0e1cd8a81ae,https://mobile.cmistar.ch/webclients/stadtarchivuster/#/content/f684eea140744e7c9ae4e0e1cd8a81ae/image,1895_1896_04_035.jpg,1895_1896_04_035,"Gujer, Julius",1895,"696812,244879",696812,244879,Florastrasse 16,8610 Uster,Blick von der Florastrasse auf den Sternenplatz. Links Florastrasse 16 (abgerissen).,jpeg,,https://creativecommons.org/publicdomain/zero/1.0/deed.de,"Stadtarchiv Uster, (ISIL: CH-000629-9)",8.719881,47.347655
8.724081273395603,47.346753298109853,4fa3bb67db8948ac86e1e7f408e6a9d0,https://mobile.cmistar.ch/webclients/stadtarchivuster/#/content/4fa3bb67db8948ac86e1e7f408e6a9d0/image,1895_1896_04_037.jpg,1895_1896_04_037,"Gujer, Julius",1895,"697131,244784",697131,244784,Florastrasse 67,8610 Uster,Florastrasse 67 mit rückwärtiger Scheune.,jpeg,,https://creativecommons.org/publicdomain/zero/1.0/deed.de,"Stadtarchiv Uster, (ISIL: CH-000629-9)",8.724081,47.346753
8.720273687459555,47.347479295819397,1e88ff0dae38400b8e72220961826c03,https://mobile.cmistar.ch/webclients/stadtarchivuster/#/content/1e88ff0dae38400b8e72220961826c03/image,1895_1896_04_038.jpg,1895_1896_04_038,"Gujer, Julius",1895,"696842,244860",696842,244860,Florastrasse 18,8610 Uster,Villa Grunholzer an der Florastrasse 18.,jpeg,,https://creativecommons.org/publicdomain/zero/1.0/deed.de,"Stadtarchiv Uster, (ISIL: CH-000629-9)",8.720274,47.347479
8.72200835697045,47.348062723873262,658a348cb77c4e0f8108fa2fa9e4e964,https://mobile.cmistar.ch/webclients/stadtarchivuster/#/content/658a348cb77c4e0f8108fa2fa9e4e964/image,1895_1896_04_039.jpg,1895_1896_04_039,"Gujer, Julius",1895,"696972,244927",696972,244927,Freiestrasse 20,8610 Uster,„Sekundarschulhauseinweihung 1. Sept. 1895“ an der Freiestrasse 20.,jpeg,,https://creativecommons.org/publicdomain/zero/1.0/deed.de,"Stadtarchiv Uster, (ISIL: CH-000629-9)",8.722008,47.348063
8.721178763760783,47.349340313003118,a82f5cdd7bad41a0915f8b47eb7cc50b,https://mobile.cmistar.ch/webclients/stadtarchivuster/#/content/a82f5cdd7bad41a0915f8b47eb7cc50b/image,1895_1896_04_040.jpg,1895_1896_04_040,"Gujer, Julius",1896,"696907,245068",696907,245068,Bahnstrasse 7,8610 Uster,Villa an der Bahnstrasse 7 über den Bahndamm aufgenommen.,jpeg,,https://creativecommons.org/publicdomain/zero/1.0/deed.de,"Stadtarchiv Uster, (ISIL: CH-000629-9)",8.721179,47.349340
8.720426202887118,47.347216732096328,2b34d871c19d4c0c8f72d8e88bcc87c1,https://mobile.cmistar.ch/webclients/stadtarchivuster/#/content/2b34d871c19d4c0c8f72d8e88bcc87c1/image,1895_1896_04_042.jpg,1895_1896_04_042,"Gujer, Julius",1896,"696854,244831",696854,244831,Florastrasse 18a,8610 Uster,Spinnerei Zangger von 1836 an der Florastrasse 18a von der Brauereistrasse aufgenommen. Die Scheune verdeckt zum Teil die Südfassade der Fabrik.,jpeg,,https://creativecommons.org/publicdomain/zero/1.0/deed.de,"Stadtarchiv Uster, (ISIL: CH-000629-9)",8.720426,47.347217
8.722873825475761,47.349375441445254,efa66194080849a1904e941e11412ff4,https://mobile.cmistar.ch/webclients/stadtarchivuster/#/content/efa66194080849a1904e941e11412ff4/image,1895_1896_04_043.jpg,1895_1896_04_043,"Gujer, Julius",1896,"697035,245074",697035,245074,Neuwiesenstrasse 17,8610 Uster,Blick vom Sekundarschulplatz über die Kanzleistrasse zur Kath. Kirche. Sichtachse auf den architekonisch betonten Seiteneingang. Villa links an der Freistrasse 21 (Rest. Steinfels) und rechts 23.,jpeg,,https://creativecommons.org/publicdomain/zero/1.0/deed.de,"Stadtarchiv Uster, (ISIL: CH-000629-9)",8.722874,47.349375
8.720314680628235,47.347532813842626,0d6295cab1164541b7ba1e8b261957cf,https://mobile.cmistar.ch/webclients/stadtarchivuster/#/content/0d6295cab1164541b7ba1e8b261957cf/image,1895_1896_04_044.jpg,1895_1896_04_044,"Gujer, Julius",1896,"696845,244866",696845,244866,Florastrasse 18,8610 Uster,Blick von Imkerstrasse auf die Villa Grunholzer an der Florastrasse 18.,jpeg,,https://creativecommons.org/publicdomain/zero/1.0/deed.de,"Stadtarchiv Uster, (ISIL: CH-000629-9)",8.720315,47.347533
8.725407504766467,47.3474131871819,ffde665f1a9f41059c1e8ba9f49616b9,https://mobile.cmistar.ch/webclients/stadtarchivuster/#/content/ffde665f1a9f41059c1e8ba9f49616b9/image,1895_1896_04_045.jpg,1895_1896_04_045,"Gujer, Julius",1896,"697230,244859",697230,244859,Freiestrasse 43,8610 Uster,"Villa ""Küderli"" an der Freiestrasse 43",jpeg,,https://creativecommons.org/publicdomain/zero/1.0/deed.de,"Stadtarchiv Uster, (ISIL: CH-000629-9)",8.725408,47.347413
8.726436728428089,47.345638583632976,8bbc260c6d1e4e2b80166164e90a2bb2,https://mobile.cmistar.ch/webclients/stadtarchivuster/#/content/8bbc260c6d1e4e2b80166164e90a2bb2/image,1895_1896_04_052.jpg,1895_1896_04_052,"Gujer, Julius",1896,"697311,244663",697311,244663,Kanalweg 4,8610 Uster,"Wuhranlagen der Spinnerei Heusser-Staub, ehem. Kunz an der Florastrasse 42. Die Spinnerei ist am linken Bildrand hinter den Bäumen zu erkennen.",jpeg,,https://creativecommons.org/publicdomain/zero/1.0/deed.de,"Stadtarchiv Uster, (ISIL: CH-000629-9)",8.726437,47.345639
8.718041421538045,47.347117250706368,b805c0080a61480185355ac772c2d890,https://mobile.cmistar.ch/webclients/stadtarchivuster/#/content/b805c0080a61480185355ac772c2d890/image,1895_1896_04_053.jpg,1895_1896_04_053,"Gujer, Julius",1896,"696674,244817",696674,244817,Zentralstrasse 15,8610 Uster,Grosses Gewerbe- und Wohnhaus an der Zentralstrasse 15 mit angebauter Scheune gleich hinter der Aabachbrücke. In den 40er Jahren Viehhandlung Wyler. Wohnhaus 1946 abgebrannt.,jpeg,,https://creativecommons.org/publicdomain/zero/1.0/deed.de,"Stadtarchiv Uster, (ISIL: CH-000629-9)",8.718041,47.347117
8.721557180670866,47.351315122932057,451d6aa80c5a4d1ca15a235771eb344b,https://mobile.cmistar.ch/webclients/stadtarchivuster/#/content/451d6aa80c5a4d1ca15a235771eb344b/image,1895_1896_04_054.jpg,1895_1896_04_054,"Gujer, Julius",1896,"696932,245288",696932,245288,Brunnenstrasse 16,8610 Uster,Villa Ritter an der Brunnenstrasse 16. Kurz nach Fertigstellung.,jpeg,,https://creativecommons.org/publicdomain/zero/1.0/deed.de,"Stadtarchiv Uster, (ISIL: CH-000629-9)",8.721557,47.351315
8.720314680628235,47.347532813842626,d946d5d6f67d4c7ea91c64b0b331f5c0,https://mobile.cmistar.ch/webclients/stadtarchivuster/#/content/d946d5d6f67d4c7ea91c64b0b331f5c0/image,1895_1896_04_055.jpg,1895_1896_04_055,"Gujer, Julius",1896,"696845,244866",696845,244866,Florastrasse 18,8610 Uster,"„4. Oktober 1896. Hr. Rohleder auf Besuch“ im Park der Villa Grunholzer. Rohleder sitzend, Gujer stehend. Gujers Frau Elise und seine beiden Töchter.",jpeg,,https://creativecommons.org/publicdomain/zero/1.0/deed.de,"Stadtarchiv Uster, (ISIL: CH-000629-9)",8.720315,47.347533
8.720314680628235,47.347532813842626,e1c7870b3e03440ca9b5ab9a326dd224,https://mobile.cmistar.ch/webclients/stadtarchivuster/#/content/e1c7870b3e03440ca9b5ab9a326dd224/image,1895_1896_04_056.jpg,1895_1896_04_056,"Gujer, Julius",1896,"696845,244866",696845,244866,Florastrasse 18,8610 Uster,"„4. Oktober 1896. Hr. Rohleder auf Besuch“ im Park der Villa Grunholzer. Rohleder sitzend, Gujer stehend. Gujers Frau Elise und seine beiden Töchter.",jpeg,,https://creativecommons.org/publicdomain/zero/1.0/deed.de,"Stadtarchiv Uster, (ISIL: CH-000629-9)",8.720315,47.347533
8.718686856194063,47.348090607414157,b0341f91d2504d5d9725f90d9c1bad88,https://mobile.cmistar.ch/webclients/stadtarchivuster/#/content/b0341f91d2504d5d9725f90d9c1bad88/image,1895_1896_04_057.jpg,1895_1896_04_057,"Gujer, Julius",1896,"696721,244926",696721,244926,Florastrasse 5,8610 Uster,Florastrasse 5. Restaurant Brauerei. Rechts daneben Doppelwohnhaus Florastrasse 7 und 9.,jpeg,,https://creativecommons.org/publicdomain/zero/1.0/deed.de,"Stadtarchiv Uster, (ISIL: CH-000629-9)",8.718687,47.348091
8.72200835697045,47.348062723873262,c952596527c24291be553e85eb971527,https://mobile.cmistar.ch/webclients/stadtarchivuster/#/content/c952596527c24291be553e85eb971527/image,1895_1896_04_067.jpg,1895_1896_04_067,"Gujer, Julius",1896,"696972,244927",696972,244927,Freiestrasse 20,8610 Uster,„22. Februar 1896“. Innenraum mit Theaterbühne in der Turnhalle an der Freiestrasse neben dem Sekundarschulhaus. Aufnahme kurz nach der Vollendung vor der ersten Aufführung.,jpeg,,https://creativecommons.org/publicdomain/zero/1.0/deed.de,"Stadtarchiv Uster, (ISIL: CH-000629-9)",8.722008,47.348063
8.721557180670866,47.351315122932057,627a56cfddf14d909dcdbd72183150a9,https://mobile.cmistar.ch/webclients/stadtarchivuster/#/content/627a56cfddf14d909dcdbd72183150a9/image,1895_1896_04_069.jpg,1895_1896_04_069,"Gujer, Julius",1896,"696932,245288",696932,245288,Brunnenstrasse 16,8610 Uster,Neubau der Villa Dr. Ritter an der Brunnenstrasse 16. „12. III. 1896“. Ganz im Hintergrund rechts das neu erbaute Spital Uster.,jpeg,,https://creativecommons.org/publicdomain/zero/1.0/deed.de,"Stadtarchiv Uster, (ISIL: CH-000629-9)",8.721557,47.351315
8.721181724386995,47.347262313489594,d188c61c3b6a4411bbdfd20d2161e21f,https://mobile.cmistar.ch/webclients/stadtarchivuster/#/content/d188c61c3b6a4411bbdfd20d2161e21f/image,1895_1896_04_073.jpg,1895_1896_04_073,"Gujer, Julius",1896,"696911,244837",696911,244837,Florastrasse 24,8610 Uster,Aufnahme eines nicht mehr stehenden Sattelflarzes an der Florastrasse direkt unterhalb der Dorfbadi. Die Häuser rechts sind die noch stehenden Florastrasse 41 und 45,jpeg,,https://creativecommons.org/publicdomain/zero/1.0/deed.de,"Stadtarchiv Uster, (ISIL: CH-000629-9)",8.721182,47.347262
8.720995965682475,47.348343840516677,e6c6c3acf529434c8db7a5fa50c54541,https://mobile.cmistar.ch/webclients/stadtarchivuster/#/content/e6c6c3acf529434c8db7a5fa50c54541/image,1895_1896_04_077.jpg,1895_1896_04_077,"Gujer, Julius",1896,"696895,244957",696895,244957,Imkerstrasse 5,8610 Uster,Druckerei Weilenmann an der Imkerstrasse 5 von der Freiestrasse aus betrachtet. Das kleine Holzhäuschen vor dem Wohnhaus ist ein Bienenhaus.,jpeg,,https://creativecommons.org/publicdomain/zero/1.0/deed.de,"Stadtarchiv Uster, (ISIL: CH-000629-9)",8.720996,47.348344
8.718272072647306,47.35011020233209,a3138442d78341f798b8188ee830c64f,https://mobile.cmistar.ch/webclients/stadtarchivuster/#/content/a3138442d78341f798b8188ee830c64f/image,1895_1896_04_078.jpg,1895_1896_04_078,"Gujer, Julius",1896,"696686,245150",696686,245150,Poststrasse 2,8610 Uster,Alte Post an der Poststrasse 2 mit Postkutsche. An der Poststrasse anschliessend das Restaurant „Post“ und die inzwischen abgerissenen Poststrasse 6 und 1 ehemals Gemeindekanzlei und Apotheke.,jpeg,,https://creativecommons.org/publicdomain/zero/1.0/deed.de,"Stadtarchiv Uster, (ISIL: CH-000629-9)",8.718272,47.350110
8.720413358216252,47.347783592936949,a06fd0468b35483888d42132457eb0a5,https://mobile.cmistar.ch/webclients/stadtarchivuster/#/content/a06fd0468b35483888d42132457eb0a5/image,1895_1896_04_086.jpg,1895_1896_04_086,"Gujer, Julius",1896,"696852,244894",696852,244894,Florastrasse 35,8610 Uster,„Aug. 1891“. Haus Florastrasse 35 ehemaliges Restaurant Frohsinn mit Blick in die Imkerstrasse. Rechts Imkerstrasse 3.,jpeg,,https://creativecommons.org/publicdomain/zero/1.0/deed.de,"Stadtarchiv Uster, (ISIL: CH-000629-9)",8.720413,47.347784
8.715396197888479,47.346642789186461,2fb81edcce8e4e39b98e32b8217665c1,https://mobile.cmistar.ch/webclients/stadtarchivuster/#/content/2fb81edcce8e4e39b98e32b8217665c1/image,1895_1896_04_087.jpg,1895_1896_04_087,"Gujer, Julius",1896,"696475,244761",696475,244761,Schulweg 6,8610 Uster,Schulhaus Dorf am Schulweg 6. Am Bildrand rechts „Untere Farb“.,jpeg,,https://creativecommons.org/publicdomain/zero/1.0/deed.de,"Stadtarchiv Uster, (ISIL: CH-000629-9)",8.715396,47.346643
8.720314680628235,47.347532813842626,0feb284b49bf4059827bdc12858f5e66,https://mobile.cmistar.ch/webclients/stadtarchivuster/#/content/0feb284b49bf4059827bdc12858f5e66/image,1895_1896_04_093.jpg,1895_1896_04_093,"Gujer, Julius",1896,"696845,244866",696845,244866,Florastrasse 18,8610 Uster,Aufnahmen vom Hinterhof der Villa Grunholzer an der Florastrasse 18. In der rechten Aufnahme erkennt man im Hintegrund das Wacshhaus.,jpeg,,https://creativecommons.org/publicdomain/zero/1.0/deed.de,"Stadtarchiv Uster, (ISIL: CH-000629-9)",8.720315,47.347533
8.720648725781416,47.347664037378863,88529d32441a40f8936e94f2f2b97c84,https://mobile.cmistar.ch/webclients/stadtarchivuster/#/content/88529d32441a40f8936e94f2f2b97c84/image,1895_1896_04_094.jpg,1895_1896_04_094,"Gujer, Julius",1896,"696870,244881",696870,244881,Florastrasse 37,8610 Uster,"Von Hauseinfahrt Villa Grunholzer an der Florastrasse 18 auf die Imkerstrasse. Links Florastrasse 35, rechts Florastrasse 37.",jpeg,,https://creativecommons.org/publicdomain/zero/1.0/deed.de,"Stadtarchiv Uster, (ISIL: CH-000629-9)",8.720649,47.347664
8.723217838793499,47.350469068032595,eea8664cc28b40c1a80c65a8a4edec48,https://mobile.cmistar.ch/webclients/stadtarchivuster/#/content/eea8664cc28b40c1a80c65a8a4edec48/image,1897_1899_05_002.jpg,1897_1899_05_002,"Gujer, Julius",1897,"697059,245196",697059,245196,Asylstrasse 10,8610 Uster,„Electrische Centrale 3. Mai 1897“. Bauabsteckungen an der Asylstrasse für das Elektrizitätswerk. Das Haus links scheint das Pfarrhaus an der Neuwiesenstrasse 19 zu sein.,jpeg,,https://creativecommons.org/publicdomain/zero/1.0/deed.de,"Stadtarchiv Uster, (ISIL: CH-000629-9)",8.723218,47.350469
8.723217838793499,47.350469068032595,789333e220554e868640944def69b21d,https://mobile.cmistar.ch/webclients/stadtarchivuster/#/content/789333e220554e868640944def69b21d/image,1897_1899_05_006.jpg,1897_1899_05_006,"Gujer, Julius",1897,"697059,245196",697059,245196,Asylstrasse 10,8610 Uster,"Bauaushub für die „Electrische Centrale am 12. April 1897“. Links das Pfarrhaus, in der Mitte, halb von der kath. Kirche verdeckt die Seidenstickerei an der Kanzleistrasse 4.",jpeg,,https://creativecommons.org/publicdomain/zero/1.0/deed.de,"Stadtarchiv Uster, (ISIL: CH-000629-9)",8.723218,47.350469
8.723217838793499,47.350469068032595,b4ed529f0a484d2c9eadc1a3a2f3d58e,https://mobile.cmistar.ch/webclients/stadtarchivuster/#/content/b4ed529f0a484d2c9eadc1a3a2f3d58e/image,1897_1899_05_016.jpg,1897_1899_05_016,"Gujer, Julius",1897,"697059,245196",697059,245196,Asylstrasse 10,8610 Uster,Aufmauerung des Elektrizitätswerkes. Im Hintergund Brunnenstrasse 16 und 17.,jpeg,,https://creativecommons.org/publicdomain/zero/1.0/deed.de,"Stadtarchiv Uster, (ISIL: CH-000629-9)",8.723218,47.350469
8.723217838793499,47.350469068032595,ef66fecec01046caa762e41cc45d1895,https://mobile.cmistar.ch/webclients/stadtarchivuster/#/content/ef66fecec01046caa762e41cc45d1895/image,1897_1899_05_018.jpg,1897_1899_05_018,"Gujer, Julius",1897,"697059,245196",697059,245196,Asylstrasse 10,8610 Uster,Fertiggestelltes Elektrizitätswerk mit Schopf in Richtung Brunnenstrasse.,jpeg,,https://creativecommons.org/publicdomain/zero/1.0/deed.de,"Stadtarchiv Uster, (ISIL: CH-000629-9)",8.723218,47.350469
8.723217838793499,47.350469068032595,708b7b6621e8437c913a9645a6a79569,https://mobile.cmistar.ch/webclients/stadtarchivuster/#/content/708b7b6621e8437c913a9645a6a79569/image,1897_1899_05_020.jpg,1897_1899_05_020,"Gujer, Julius",1897,"697059,245196",697059,245196,Asylstrasse 10,8610 Uster,„Electrische Centrale in Uster“ von der Asylstrasse aus. Seitlich davor ein elektrischer Kandelaber mit Volutenverzierung.,jpeg,,https://creativecommons.org/publicdomain/zero/1.0/deed.de,"Stadtarchiv Uster, (ISIL: CH-000629-9)",8.723218,47.350469
8.720621352063533,47.345424454375639,e610601eef09499b922a2e473f5c3a1a,https://mobile.cmistar.ch/webclients/stadtarchivuster/#/content/e610601eef09499b922a2e473f5c3a1a/image,1897_1899_05_025.jpg,1897_1899_05_025,"Gujer, Julius",1897,"696872,244632",696872,244632,Brauereistrasse 15,8610 Uster,Brauereigebäude. Das Brauhaus noch ohne Villa aber mit der zinnenbekrönten Dachbekranzung die heute leider fehlt.,jpeg,,https://creativecommons.org/publicdomain/zero/1.0/deed.de,"Stadtarchiv Uster, (ISIL: CH-000629-9)",8.720621,47.345424
8.714873821999731,47.348042870929135,56c761130acb450fb2b40b175844a06a,https://mobile.cmistar.ch/webclients/stadtarchivuster/#/content/56c761130acb450fb2b40b175844a06a/image,1897_1899_05_031.jpg,1897_1899_05_031,"Gujer, Julius",1897-1899,"696433,244916",696433,244916,Seestrasse 4,8610 Uster,Blick auf Burg und Kirche. Davor das gedeckte Brügglein und die „Untere Farb“ (rechts). Aufnahme von der Püntwiese aus.,jpeg,,https://creativecommons.org/publicdomain/zero/1.0/deed.de,"Stadtarchiv Uster, (ISIL: CH-000629-9)",8.714874,47.348043
8.721306256534293,47.346937090725241,786007ea95704864884c6cec03a1277d,https://mobile.cmistar.ch/webclients/stadtarchivuster/#/content/786007ea95704864884c6cec03a1277d/image,1897_1899_05_037.jpg,1897_1899_05_037,"Gujer, Julius",1897-1899,"696921,244801",696921,244801,Florastrasse 22,8610 Uster,Szene aus der Dorfbadi an der Florastrasse.,jpeg,,https://creativecommons.org/publicdomain/zero/1.0/deed.de,"Stadtarchiv Uster, (ISIL: CH-000629-9)",8.721306,47.346937
8.723747442240864,47.346631077599994,034206a92bdc46cf9b9ae65f5027cd5f,https://mobile.cmistar.ch/webclients/stadtarchivuster/#/content/034206a92bdc46cf9b9ae65f5027cd5f/image,1897_1899_05_043.jpg,1897_1899_05_043,"Gujer, Julius",1897-1899,"697106,244770",697106,244770,Florastrasse 34,8610 Uster,Klassenbild vor der als Sekundarschule genutzten Florastrasse 34.,jpeg,,https://creativecommons.org/publicdomain/zero/1.0/deed.de,"Stadtarchiv Uster, (ISIL: CH-000629-9)",8.723747,47.346631
8.716764569576901,47.349065431967233,abaeecc8eaf34b4e881da5833a249828,https://mobile.cmistar.ch/webclients/stadtarchivuster/#/content/abaeecc8eaf34b4e881da5833a249828/image,1897_1899_05_050.jpg,1897_1899_05_050,"Gujer, Julius",1897-1899,"696574,245032",696574,245032,Poststrasse 20,8610 Uster,"Haus Poststrasse 20, heute Restaurant Molino vor dem Umbau.",jpeg,,https://creativecommons.org/publicdomain/zero/1.0/deed.de,"Stadtarchiv Uster, (ISIL: CH-000629-9)",8.716765,47.349065
8.720314680628235,47.347532813842626,da27a3a70b1e435183e4890c1b30dfef,https://mobile.cmistar.ch/webclients/stadtarchivuster/#/content/da27a3a70b1e435183e4890c1b30dfef/image,1900_06_001.jpg,1900_06_001,"Gujer, Julius",1900,"696845,244866",696845,244866,Florastrasse 18,8610 Uster,"Im Garten der Villa Grunholzer an der Florastrasse 18. Im Hintergund der Schopf, bzw. das Waschhaus. Zwei Männer posieren an einem Laufbrunnen.",jpeg,,https://creativecommons.org/publicdomain/zero/1.0/deed.de,"Stadtarchiv Uster, (ISIL: CH-000629-9)",8.720315,47.347533
8.720314680628235,47.347532813842626,670b25b814164dd3bbbf2dbbcf881904,https://mobile.cmistar.ch/webclients/stadtarchivuster/#/content/670b25b814164dd3bbbf2dbbcf881904/image,1900_06_002.jpg,1900_06_002,"Gujer, Julius",1900,"696845,244866",696845,244866,Florastrasse 18,8610 Uster,Im Garten hinter der Villa Grunholzer an der Florastrasse 18. Verwandtenbesuch am Gartentisch mit den beiden Gujermädchen.,jpeg,,https://creativecommons.org/publicdomain/zero/1.0/deed.de,"Stadtarchiv Uster, (ISIL: CH-000629-9)",8.720315,47.347533
8.722873825475761,47.349375441445254,43ec62911ab748be9bd404b406cc5602,https://mobile.cmistar.ch/webclients/stadtarchivuster/#/content/43ec62911ab748be9bd404b406cc5602/image,1900_06_008.jpg,1900_06_008,"Gujer, Julius",1900,"697035,245074",697035,245074,Neuwiesenstrasse 17,8610 Uster,Kath. Kirche mit Pfarrhaus. Ganz rechts ist noch die ehemalige Seidenstickerei an der Kanzleistrasse 4 zu erkennen.,jpeg,,https://creativecommons.org/publicdomain/zero/1.0/deed.de,"Stadtarchiv Uster, (ISIL: CH-000629-9)",8.722874,47.349375
8.718470823593494,47.347913092294419,99610a9caf5745bb9823400f366502f4,https://mobile.cmistar.ch/webclients/stadtarchivuster/#/content/99610a9caf5745bb9823400f366502f4/image,1900_06_009.jpg,1900_06_009,"Gujer, Julius",1900,"696705,244906",696705,244906,Florastrasse 2,8610 Uster,„Sternenplatz“. Links Hotel Sternen. Rechts Florastrasse 2. Das Haus mit dem Säulenportikus in der Mitte ist Florastrasse 10. Das davor Nr. 4.,jpeg,,https://creativecommons.org/publicdomain/zero/1.0/deed.de,"Stadtarchiv Uster, (ISIL: CH-000629-9)",8.718471,47.347913
8.687228201920862,47.37250692657031,ce532a7bb91c4500a04b005ae5a5aeca,https://mobile.cmistar.ch/webclients/stadtarchivuster/#/content/ce532a7bb91c4500a04b005ae5a5aeca/image,1900_06_010.jpg,1900_06_010,"Gujer, Julius",1900,"694301,247602",694301,247602,Bluetmatt,8606 Nänikon,„Denkmal in Nänikon“ an der Blutbuche.,jpeg,Ausflug zum Blutbuchendenkmal in Nänikon,https://creativecommons.org/publicdomain/zero/1.0/deed.de,"Stadtarchiv Uster, (ISIL: CH-000629-9)",8.687228,47.372507
8.675587174544624,47.365022092333177,903d78f311f341bc9c33d2db1ca544a4,https://mobile.cmistar.ch/webclients/stadtarchivuster/#/content/903d78f311f341bc9c33d2db1ca544a4/image,1900_06_011.jpg,1900_06_011,"Gujer, Julius",1900,"693435,246756",693435,246756,Schloss,8606 Greifensee,„Schloss Greifensee“.,jpeg,Ausflug nach Greifensee,https://creativecommons.org/publicdomain/zero/1.0/deed.de,"Stadtarchiv Uster, (ISIL: CH-000629-9)",8.675587,47.365022
8.687228201920862,47.37250692657031,f6ce861a4175400488b4a96e45a9f920,https://mobile.cmistar.ch/webclients/stadtarchivuster/#/content/f6ce861a4175400488b4a96e45a9f920/image,1900_06_012.jpg,1900_06_012,"Gujer, Julius",1900,"694301,247602",694301,247602,Bluetmatt,8606 Nänikon,Denkmal mit Kindern in Nänikon.,jpeg,Ausflug zum Blutbuchendenkmal in Nänikon,https://creativecommons.org/publicdomain/zero/1.0/deed.de,"Stadtarchiv Uster, (ISIL: CH-000629-9)",8.687228,47.372507
8.722017390998781,47.349537889818713,7511d6143ce64e6f81a31f47af897f58,https://mobile.cmistar.ch/webclients/stadtarchivuster/#/content/7511d6143ce64e6f81a31f47af897f58/image,1900_06_014.jpg,1900_06_014,"Gujer, Julius",1900,"696970,245091",696970,245091,Neuwiesenstrasse 10,8610 Uster,"Neuwiesenstrasse 10, Sitz der Firma Zellweger. Links am Rand Villa Elektra.",jpeg,,https://creativecommons.org/publicdomain/zero/1.0/deed.de,"Stadtarchiv Uster, (ISIL: CH-000629-9)",8.722017,47.349538
8.71951708249444,47.349592645957898,7a782cacfc8f46078791d85795e2b713,https://mobile.cmistar.ch/webclients/stadtarchivuster/#/content/7a782cacfc8f46078791d85795e2b713/image,1900_06_016.jpg,1900_06_016,"Gujer, Julius",1900,"696781,245094",696781,245094,Bahnhofstrasse 3,8610 Uster,Bahnhofplatz mit Blick auf Hotel Usterhof rechts und Bahnhofstrasse 3 links. Ganz links ist noch die Bahn- hofstrasse 1 zu erkennen. Ganz rechts Bankstrasse 1 vor Brand und Umbau. Man beachte die elektrische Stras- senleuchte in der Mitte über dem Jung,jpeg,,https://creativecommons.org/publicdomain/zero/1.0/deed.de,"Stadtarchiv Uster, (ISIL: CH-000629-9)",8.719517,47.349593
8.792560978362419,47.358186484407334,d736b3d3bec44f148184015d8771298f,https://mobile.cmistar.ch/webclients/stadtarchivuster/#/content/d736b3d3bec44f148184015d8771298f/image,1900_06_018.jpg,1900_06_018,"Gujer, Julius",1900,"702283,246142",702283,246142,Römisches Kastell,8330 Pfäffikon,Besuch auf dem Kastell Irgenhausen bei Pfäffikon.,jpeg,Ausflug nach Pfäffikon,https://creativecommons.org/publicdomain/zero/1.0/deed.de,"Stadtarchiv Uster, (ISIL: CH-000629-9)",8.792561,47.358186
8.792560978362419,47.358186484407334,ad316bbe663f4932b6a338657bf20c92,https://mobile.cmistar.ch/webclients/stadtarchivuster/#/content/ad316bbe663f4932b6a338657bf20c92/image,1900_06_019.jpg,1900_06_019,"Gujer, Julius",1900,"702283,246142",702283,246142,Römisches Kastell,8330 Pfäffikon,Besuch auf dem Kastell Irgenhausen bei Pfäffikon.,jpeg,Ausflug nach Pfäffikon,https://creativecommons.org/publicdomain/zero/1.0/deed.de,"Stadtarchiv Uster, (ISIL: CH-000629-9)",8.792561,47.358186
8.792560978362419,47.358186484407334,3a9aabb3eb4343ab9d6ce65138cbbd33,https://mobile.cmistar.ch/webclients/stadtarchivuster/#/content/3a9aabb3eb4343ab9d6ce65138cbbd33/image,1900_06_020.jpg,1900_06_020,"Gujer, Julius",1900,"702283,246142",702283,246142,Römisches Kastell,8330 Pfäffikon,Besuch auf dem Kastell Irgenhausen bei Pfäffikon.,jpeg,Ausflug nach Pfäffikon,https://creativecommons.org/publicdomain/zero/1.0/deed.de,"Stadtarchiv Uster, (ISIL: CH-000629-9)",8.792561,47.358186
8.716764569576901,47.349065431967233,cb30672c54684d37aa08a7f09fddff96,https://mobile.cmistar.ch/webclients/stadtarchivuster/#/content/cb30672c54684d37aa08a7f09fddff96/image,1900_06_025.jpg,1900_06_025,"Gujer, Julius",1900,"696574,245032",696574,245032,Poststrasse 20,8610 Uster,"Blick von Zürichstrasse auf Kreuzung von Zürichstrasse und Post/Niederusterstrasse. Rechts Poststrasse 20 nach dem Umbau. Bild auf 1900/1901 datierbar. (Heute Restaurant Molino, frühere Schmiedstube).",jpeg,,https://creativecommons.org/publicdomain/zero/1.0/deed.de,"Stadtarchiv Uster, (ISIL: CH-000629-9)",8.716765,47.349065
8.722123522865083,47.348448251175121,c779c3793397461d8ff1fe6931eddd96,https://mobile.cmistar.ch/webclients/stadtarchivuster/#/content/c779c3793397461d8ff1fe6931eddd96/image,1900_06_026.jpg,1900_06_026,"Gujer, Julius",1900,"696980,244970",696980,244970,Freiestrasse 21,8610 Uster,Blick in die Kanzleistrasse auf die kath. Kirche. Haus vorne ist Freiestrasse 21.,jpeg,,https://creativecommons.org/publicdomain/zero/1.0/deed.de,"Stadtarchiv Uster, (ISIL: CH-000629-9)",8.722124,47.348448
8.718848698156286,47.349869925704638,d071d70a668041159c96a252cd4211e5,https://mobile.cmistar.ch/webclients/stadtarchivuster/#/content/d071d70a668041159c96a252cd4211e5/image,1900_06_028.jpg,1900_06_028,"Gujer, Julius",1900,"696730,245124",696730,245124,Bankstrasse 3,8610 Uster,Festumzug der Schützen auf dem Bahnhofplatz. Kant. Schützenfest im Jahr 1900 in Uster,jpeg,,https://creativecommons.org/publicdomain/zero/1.0/deed.de,"Stadtarchiv Uster, (ISIL: CH-000629-9)",8.718849,47.349870
8.720314680628235,47.347532813842626,4b7777f0a7e447208123b6df8f9ae92e,https://mobile.cmistar.ch/webclients/stadtarchivuster/#/content/4b7777f0a7e447208123b6df8f9ae92e/image,1900_06_034.jpg,1900_06_034,"Gujer, Julius",1900,"696845,244866",696845,244866,Florastrasse 18,8610 Uster,"Kutsche auf dem Parkplatz hinter der Villa Grunholzer an der Florastrasse 18. Hinten Schopf, bzw. Waschhaus.",jpeg,,https://creativecommons.org/publicdomain/zero/1.0/deed.de,"Stadtarchiv Uster, (ISIL: CH-000629-9)",8.720315,47.347533
8.717875878353784,47.347388951053297,10c65b8e20254e9293421e64aa5fd60c,https://mobile.cmistar.ch/webclients/stadtarchivuster/#/content/10c65b8e20254e9293421e64aa5fd60c/image,1900_06_035.jpg,1900_06_035,"Gujer, Julius",1900,"696661,244847",696661,244847,"Zentralstrasse 4, 8",8610 Uster,Blick vom Kirchhügel oder Kirchturm auf Uster gen Bahnhof.,jpeg,,https://creativecommons.org/publicdomain/zero/1.0/deed.de,"Stadtarchiv Uster, (ISIL: CH-000629-9)",8.717876,47.347389
8.718470823593494,47.347913092294419,ffa76747008f41d69a2d699025782662,https://mobile.cmistar.ch/webclients/stadtarchivuster/#/content/ffa76747008f41d69a2d699025782662/image,1900_06_036.jpg,1900_06_036,"Gujer, Julius",1900,"696705,244906",696705,244906,Florastrasse 2,8610 Uster,Strassenszene auf der Florastrasse mit Blick auf Sternenplatz. Das Haus im Hintergrund ist die Florastrasse 2. Rechts ein Stück hinter dem Brunnen mündet die Braschlergasse.,jpeg,,https://creativecommons.org/publicdomain/zero/1.0/deed.de,"Stadtarchiv Uster, (ISIL: CH-000629-9)",8.718471,47.347913
8.7149970755522,47.345450798695161,d417a38174e0472a87e13a1bfacb6fb9,https://mobile.cmistar.ch/webclients/stadtarchivuster/#/content/d417a38174e0472a87e13a1bfacb6fb9/image,1900_06_038.jpg,1900_06_038,"Gujer, Julius",1900,"696447,244628",696447,244628,Apothekerstrasse 18,8610 Uster,"Blick von der Kirche nach Niederuster. Unten rechts steht das heutige Kirchgemeindehaus Kreuz. Links davon mit dem Mansardendach und Erker Talackerstrasse 1, der Dachfirst darüber, Talackerstrasse 2 und darüber wiederum Apothekerstrasse 18. Der Flarz",jpeg,,https://creativecommons.org/publicdomain/zero/1.0/deed.de,"Stadtarchiv Uster, (ISIL: CH-000629-9)",8.714997,47.345451
8.718291467291783,47.347609232892644,28c97f3badbe416d8d56cdfd25dc4ba4,https://mobile.cmistar.ch/webclients/stadtarchivuster/#/content/28c97f3badbe416d8d56cdfd25dc4ba4/image,1900_06_039.jpg,1900_06_039,"Gujer, Julius",1900,"696692,244872",696692,244872,Zentralstrasse 5,8610 Uster,"Zentralstrasse. Links hinter dem Baum der sog. „Inselhof“ an der Zentralstrasse 4, 8. Das rechts in den Strassenraum regende Haus ist die ehemalige Kantonaalbank an der Zentralstrasse 5. Geradeaus Zentralstrasse 2.",jpeg,,https://creativecommons.org/publicdomain/zero/1.0/deed.de,"Stadtarchiv Uster, (ISIL: CH-000629-9)",8.718291,47.347609
8.717875878353784,47.347388951053297,74a4634e20a04917addb001f7dc89c7b,https://mobile.cmistar.ch/webclients/stadtarchivuster/#/content/74a4634e20a04917addb001f7dc89c7b/image,1900_06_042.jpg,1900_06_042,"Gujer, Julius",1900,"696661,244847",696661,244847,"Zentralstrasse 4, 8",8610 Uster,"Blick vom Kirchhügel oder Kirchturm auf Uster gen Bahnhof. Im Bildmitelpunkt sog. ""Inselhof"" Zentralstrasse 4, 8",jpeg,,https://creativecommons.org/publicdomain/zero/1.0/deed.de,"Stadtarchiv Uster, (ISIL: CH-000629-9)",8.717876,47.347389
8.719075616306151,47.34774446600521,56b83098742041dbab8a058707cee4a4,https://mobile.cmistar.ch/webclients/stadtarchivuster/#/content/56b83098742041dbab8a058707cee4a4/image,1900_06_044.jpg,1900_06_044,"Gujer, Julius",1900,"696751,244888",696751,244888,Florastrasse 8,8610 Uster,Strassenszene auf der Florastrasse mit Blick auf Sternenplatz. Das Haus im Hintergrund ist die Florastrasse 2. Alle Häuser an der rechten Seite wurden für den Strassenbau abgerissen. Links Florastrasse 4 und 8,jpeg,,https://creativecommons.org/publicdomain/zero/1.0/deed.de,"Stadtarchiv Uster, (ISIL: CH-000629-9)",8.719076,47.347744
8.72200835697045,47.348062723873262,2d5adc9e8fb64dfba5f0763bf934cb44,https://mobile.cmistar.ch/webclients/stadtarchivuster/#/content/2d5adc9e8fb64dfba5f0763bf934cb44/image,1900_06_046.jpg,1900_06_046,"Gujer, Julius",1900,"696972,244927",696972,244927,Freiestrasse 20,8610 Uster,"Sekundarschule Freiestrasse 20 mit dahinterliegender Turnhalle. Rechts das frühere Krankenasyl von 1883 bis 1889. 1892 bis 1957 Gärtnerei Enderlin. Auf dem Bild Emma, Anna und Hermann Enderlin mit ihrem Vater",jpeg,,https://creativecommons.org/publicdomain/zero/1.0/deed.de,"Stadtarchiv Uster, (ISIL: CH-000629-9)",8.722008,47.348063
8.720621352063533,47.345424454375639,fd57fb259ecb4b0993487356959c9f7b,https://mobile.cmistar.ch/webclients/stadtarchivuster/#/content/fd57fb259ecb4b0993487356959c9f7b/image,1900_06_047.jpg,1900_06_047,"Gujer, Julius",1900,"696872,244632",696872,244632,Brauereistrasse 15,8610 Uster,Brauerei Uster. Mit neu erbauter Villa.,jpeg,,https://creativecommons.org/publicdomain/zero/1.0/deed.de,"Stadtarchiv Uster, (ISIL: CH-000629-9)",8.720621,47.345424
8.718594407372288,47.350304530258853,adc02204d9ac4297828a70c3c6c20b81,https://mobile.cmistar.ch/webclients/stadtarchivuster/#/content/adc02204d9ac4297828a70c3c6c20b81/image,1900_06_048.jpg,1900_06_048,"Gujer, Julius",1900,"696710,245172",696710,245172,Bahnhof Uster,8610 Uster,Entladen eines Güterzuges am Bahnhof Uster.,jpeg,,https://creativecommons.org/publicdomain/zero/1.0/deed.de,"Stadtarchiv Uster, (ISIL: CH-000629-9)",8.718594,47.350305
8.719737386818917,47.348294846155085,28c4d386c43f4208ac23d799677ccd27,https://mobile.cmistar.ch/webclients/stadtarchivuster/#/content/28c4d386c43f4208ac23d799677ccd27/image,1900_06_049.jpg,1900_06_049,"Gujer, Julius",1900,"696800,244950",696800,244950,Braschlergasse 6-8,8610 Uster,Blick in die Braschlergasse mit herrschaftlichem Haus mit Walmdach an der Braschlergasse 4-8 (2016 abgerissen) sowie Florastrasse 17 (rechter Hausteil mit Dachhäuschen).,jpeg,,https://creativecommons.org/publicdomain/zero/1.0/deed.de,"Stadtarchiv Uster, (ISIL: CH-000629-9)",8.719737,47.348295
8.71962315588601,47.347396561329134,03daa6e98a1740d78f728748f67266ae,https://mobile.cmistar.ch/webclients/stadtarchivuster/#/content/03daa6e98a1740d78f728748f67266ae/image,1900_06_050.jpg,1900_06_050,"Gujer, Julius",1900,"696793,244850",696793,244850,Florastrasse 12,8610 Uster,Buchbinderei an der Florastrasse 12.,jpeg,,https://creativecommons.org/publicdomain/zero/1.0/deed.de,"Stadtarchiv Uster, (ISIL: CH-000629-9)",8.719623,47.347397
8.720621352063533,47.345424454375639,d9707fc0572e4c40a1cb1d3490cb9d1f,https://mobile.cmistar.ch/webclients/stadtarchivuster/#/content/d9707fc0572e4c40a1cb1d3490cb9d1f/image,1900_06_070.jpg,1900_06_070,"Gujer, Julius",1900,"696872,244632",696872,244632,Brauereistrasse 15,8610 Uster,Brauerei vom Buchhaldenweg aus aufgenommen. Links oberhalb des Kamins sind die vier Valentini-Häuser an der Inselstrasse zu sehen. Darüber die Villa Huber.,jpeg,,https://creativecommons.org/publicdomain/zero/1.0/deed.de,"Stadtarchiv Uster, (ISIL: CH-000629-9)",8.720621,47.345424
8.72200835697045,47.348062723873262,927c372791b3459ebcd26f354903b53b,https://mobile.cmistar.ch/webclients/stadtarchivuster/#/content/927c372791b3459ebcd26f354903b53b/image,1900_06_073.jpg,1900_06_073,"Gujer, Julius",1900,"696972,244927",696972,244927,Freiestrasse 20,8610 Uster,Schüler vor dem Sekundarschulhaus an der Freiestrasse 20.,jpeg,,https://creativecommons.org/publicdomain/zero/1.0/deed.de,"Stadtarchiv Uster, (ISIL: CH-000629-9)",8.722008,47.348063
8.719120595100225,47.349066308873439,55d98956e23b43f7ad0d171954e0e5d8,https://mobile.cmistar.ch/webclients/stadtarchivuster/#/content/55d98956e23b43f7ad0d171954e0e5d8/image,1900_06_075.jpg,1900_06_075,"Gujer, Julius",1900,"696752,245035",696752,245035,Gotthardweg 1,8610 Uster,"Platz vor der Sternenscheune an der Bahnhofstrasse. Blick gegen Bahnlinie. Geradeaus, das sog. Haus Gotthard (Gotthardweg 1), welches Ende 2005 abgerissen wurde. Davor kleiner Park des Hauses mit dem Zinnengiebel.",jpeg,,https://creativecommons.org/publicdomain/zero/1.0/deed.de,"Stadtarchiv Uster, (ISIL: CH-000629-9)",8.719121,47.349066
8.717578369522807,47.348228831079496,2ae0677a32de47d4bc9f3da9b2883c5b,https://mobile.cmistar.ch/webclients/stadtarchivuster/#/content/2ae0677a32de47d4bc9f3da9b2883c5b/image,1900_06_076.jpg,1900_06_076,"Gujer, Julius",1900,"696637,244940",696637,244940,Zürichstrasse 1,8610 Uster,Blick in Richtung Zangger Villa an der Zürichstrasse 1. Rechts die Reihenhäuser Bahnhofstrasse 14-20. Links Rückansicht des Gasthof Sternen.,jpeg,,https://creativecommons.org/publicdomain/zero/1.0/deed.de,"Stadtarchiv Uster, (ISIL: CH-000629-9)",8.717578,47.348229
8.718470823593494,47.347913092294419,349311e14b3f4386b4356e4482517805,https://mobile.cmistar.ch/webclients/stadtarchivuster/#/content/349311e14b3f4386b4356e4482517805/image,1900_06_078.jpg,1900_06_078,"Gujer, Julius",1900,"696705,244906",696705,244906,Florastrasse 2,8610 Uster,Strassenszene auf der Florastrasse mit Blick auf Sternenplatz. Das vorragende Haus im Hintergrund ist die Florastrasse 2. Alle Häuser an der rechten Seite wurden für den Strassenausbau abgerissen. Die Bäume im Hintergrund gehören zum Zangger Park,jpeg,,https://creativecommons.org/publicdomain/zero/1.0/deed.de,"Stadtarchiv Uster, (ISIL: CH-000629-9)",8.718471,47.347913
8.720426202887118,47.347216732096328,6b1c8e592183402f95607e6b09e97682,https://mobile.cmistar.ch/webclients/stadtarchivuster/#/content/6b1c8e592183402f95607e6b09e97682/image,1900_06_081.jpg,1900_06_081,"Gujer, Julius",1900,"696854,244831",696854,244831,Florastrasse 18a,8610 Uster,Badeszene im Fabrikkanal hinter der Fabrik Zangger an der Florastrasse 18a.,jpeg,,https://creativecommons.org/publicdomain/zero/1.0/deed.de,"Stadtarchiv Uster, (ISIL: CH-000629-9)",8.720426,47.347217
8.717391963430474,47.348734645200544,432fcfb27e854ca3a6b67e17e170b7ce,https://mobile.cmistar.ch/webclients/stadtarchivuster/#/content/432fcfb27e854ca3a6b67e17e170b7ce/image,1900_06_082.jpg,1900_06_082,"Gujer, Julius",1900,"696622,244996",696622,244996,Zürichstrasse 6,8610 Uster,"Szene einer „Heuete“ an der Zürichstrasse. Auf der Wiese steht heute das Einkaufszentrum Uschter 77. Geradeaus die Zürichstrasse, ganz links die Seestrasse. Das Haus unter dem Baum ganz links ist Poststrasse 20, heutiges Restaurant Molino.",jpeg,,https://creativecommons.org/publicdomain/zero/1.0/deed.de,"Stadtarchiv Uster, (ISIL: CH-000629-9)",8.717392,47.348735
8.721306256534293,47.346937090725241,c0bf13b325c943c3b7941fbbbd0eda36,https://mobile.cmistar.ch/webclients/stadtarchivuster/#/content/c0bf13b325c943c3b7941fbbbd0eda36/image,1900_06_093.jpg,1900_06_093,"Gujer, Julius",1900,"696921,244801",696921,244801,Florastrasse 22,8610 Uster,Kinder beim Bad in der Dorfbadi an der Florastrasse.,jpeg,,https://creativecommons.org/publicdomain/zero/1.0/deed.de,"Stadtarchiv Uster, (ISIL: CH-000629-9)",8.721306,47.346937
8.720648725781416,47.347664037378863,7cc1036fc767404b94731b900748f57b,https://mobile.cmistar.ch/webclients/stadtarchivuster/#/content/7cc1036fc767404b94731b900748f57b/image,1901_08_011.jpg,1901_08_011,"Gujer, Julius",1901,"696870,244881",696870,244881,Florastrasse 37,8610 Uster,„18. Juni 1901“. Blick in die Imkerstrasse Richtung Freiestrasse. Rechts Florastrasse 37. Elektrische Leitun- gen an den Masten.,jpeg,,https://creativecommons.org/publicdomain/zero/1.0/deed.de,"Stadtarchiv Uster, (ISIL: CH-000629-9)",8.720649,47.347664
8.721134203904322,47.347487729680033,ba786f5d1a68458ba55dd639f152c2df,https://mobile.cmistar.ch/webclients/stadtarchivuster/#/content/ba786f5d1a68458ba55dd639f152c2df/image,1901_08_012.jpg,1901_08_012,"Gujer, Julius",1901,"696907,244862",696907,244862,Florastrasse 41,8610 Uster,Vor der Florastrasse 41. Der Giebel im Hintergrund gehört zur Turnhalle der Sekundarschule an der Frei- estrasse 20.,jpeg,,https://creativecommons.org/publicdomain/zero/1.0/deed.de,"Stadtarchiv Uster, (ISIL: CH-000629-9)",8.721134,47.347488
8.720314680628235,47.347532813842626,fd820c2b45cc4a49924961c82dd11507,https://mobile.cmistar.ch/webclients/stadtarchivuster/#/content/fd820c2b45cc4a49924961c82dd11507/image,1901_08_017.jpg,1901_08_017,"Gujer, Julius",1901,"696845,244866",696845,244866,Florastrasse 18,8610 Uster,Hinter Villa Grunholzer an der Florastrasse 18. Hinten ist der Schopf sichtbar. Kind mit Hund auf dem Arm.,jpeg,,https://creativecommons.org/publicdomain/zero/1.0/deed.de,"Stadtarchiv Uster, (ISIL: CH-000629-9)",8.720315,47.347533
8.724967816011162,47.348938332845705,cb0c50552d024074bd5a6a5a6fd9cf3e,https://mobile.cmistar.ch/webclients/stadtarchivuster/#/content/cb0c50552d024074bd5a6a5a6fd9cf3e/image,1901_08_027.jpg,1901_08_027,"Gujer, Julius",1901,"697194,245028",697194,245028,Kreuzstrasse 7-13,8610 Uster,Die Häuser rechts sind Kreuzstrasse 7-13 kurz nach der Fertigstellung. Links davon kath. Kirche und Pfarrhaus. Lnks hinter dem hinteren Haus erkennt man das Elektrizitätswerk.,jpeg,,https://creativecommons.org/publicdomain/zero/1.0/deed.de,"Stadtarchiv Uster, (ISIL: CH-000629-9)",8.724968,47.348938
8.718594407372288,47.350304530258853,4b68fb91180e434a8cccd9297b5490d9,https://mobile.cmistar.ch/webclients/stadtarchivuster/#/content/4b68fb91180e434a8cccd9297b5490d9/image,1901_08_031.jpg,1901_08_031,"Gujer, Julius",1901,"696710,245172",696710,245172,Bahnhof Uster,8610 Uster,Bahnhof Uster mit hölzerner Perronhalle kurz vor deren Abtragung. „Abfahrt der ... ans Schützenfest in Luzern im Juli.,jpeg,,https://creativecommons.org/publicdomain/zero/1.0/deed.de,"Stadtarchiv Uster, (ISIL: CH-000629-9)",8.718594,47.350305
8.720648725781416,47.347664037378863,716f431451a34cd590d2950b11b477c0,https://mobile.cmistar.ch/webclients/stadtarchivuster/#/content/716f431451a34cd590d2950b11b477c0/image,1901_08_045.jpg,1901_08_045,"Gujer, Julius",1901,"696870,244881",696870,244881,Florastrasse 37,8610 Uster,Jauchewagen vor Floratrasse 37.,jpeg,,https://creativecommons.org/publicdomain/zero/1.0/deed.de,"Stadtarchiv Uster, (ISIL: CH-000629-9)",8.720649,47.347664
8.722477546859457,47.348309381501977,770d4cca55aa42beae0d615dd4d5e997,https://mobile.cmistar.ch/webclients/stadtarchivuster/#/content/770d4cca55aa42beae0d615dd4d5e997/image,1901_08_046.jpg,1901_08_046,"Gujer, Julius",1901,"697007,244955",697007,244955,Freiestrasse 23,8610 Uster,Turnübungen auf dem Pausenplatz des Schulhauses Freiestrasse. Links hinten Freiestrasse 23. Ganz links oben noch erkennbar Kanzleistrasse 1.,jpeg,,https://creativecommons.org/publicdomain/zero/1.0/deed.de,"Stadtarchiv Uster, (ISIL: CH-000629-9)",8.722478,47.348309
8.722477546859457,47.348309381501977,31a6d650465445b895a47939970ab438,https://mobile.cmistar.ch/webclients/stadtarchivuster/#/content/31a6d650465445b895a47939970ab438/image,1901_08_047.jpg,1901_08_047,"Gujer, Julius",1901,"697007,244955",697007,244955,Freiestrasse 23,8610 Uster,Turnübungen auf dem Pausenplatz des Schulhauses Freiestrasse. Links hinten Freiestrasse 23. Ganz links oben noch erkennbar Kanzleistrasse 1.,jpeg,,https://creativecommons.org/publicdomain/zero/1.0/deed.de,"Stadtarchiv Uster, (ISIL: CH-000629-9)",8.722478,47.348309
8.720648725781416,47.347664037378863,a4cbf8905ac44e3cb500ee14c69aacdd,https://mobile.cmistar.ch/webclients/stadtarchivuster/#/content/a4cbf8905ac44e3cb500ee14c69aacdd/image,1901_08_048.jpg,1901_08_048,"Gujer, Julius",1901,"696870,244881",696870,244881,Florastrasse 37,8610 Uster,Personenkutsche vor Florastrasse 37.,jpeg,,https://creativecommons.org/publicdomain/zero/1.0/deed.de,"Stadtarchiv Uster, (ISIL: CH-000629-9)",8.720649,47.347664
8.792560978362419,47.358186484407334,de6dbf5e72984858afda9bf73e459b50,https://mobile.cmistar.ch/webclients/stadtarchivuster/#/content/de6dbf5e72984858afda9bf73e459b50/image,1901_08_049.jpg,1901_08_049,"Gujer, Julius",1901,"702283,246142",702283,246142,Römisches Kastell,8330 Pfäffikon,Besuch auf dem Kastell Irgenhausen bei Pfäffikon.,jpeg,Ausflug nach Pfäffikon,https://creativecommons.org/publicdomain/zero/1.0/deed.de,"Stadtarchiv Uster, (ISIL: CH-000629-9)",8.792561,47.358186
8.792560978362419,47.358186484407334,5d0cfa26e5174fdbaf9f8e8a368e42eb,https://mobile.cmistar.ch/webclients/stadtarchivuster/#/content/5d0cfa26e5174fdbaf9f8e8a368e42eb/image,1901_08_051.jpg,1901_08_051,"Gujer, Julius",1901,"702283,246142",702283,246142,Römisches Kastell,8330 Pfäffikon,Besuch auf dem Kastell Irgenhausen bei Pfäffikon.,jpeg,Ausflug nach Pfäffikon,https://creativecommons.org/publicdomain/zero/1.0/deed.de,"Stadtarchiv Uster, (ISIL: CH-000629-9)",8.792561,47.358186
8.720648725781416,47.347664037378863,d076f2447cc249d7ba02cbe295c335cb,https://mobile.cmistar.ch/webclients/stadtarchivuster/#/content/d076f2447cc249d7ba02cbe295c335cb/image,1901_08_053.jpg,1901_08_053,"Gujer, Julius",1901,"696870,244881",696870,244881,Florastrasse 37,8610 Uster,Blick in die Imkerstrase zur Freiestrasse. Rechts Florastrasse 37. Links Restaurant Frohsinn Florastrasse 35. Auf der Imkerstrasse Strassenarbeiter.,jpeg,,https://creativecommons.org/publicdomain/zero/1.0/deed.de,"Stadtarchiv Uster, (ISIL: CH-000629-9)",8.720649,47.347664
8.714873821999731,47.348042870929135,59105ca004b5425f8e1f149066e17752,https://mobile.cmistar.ch/webclients/stadtarchivuster/#/content/59105ca004b5425f8e1f149066e17752/image,1901_08_054.jpg,1901_08_054,"Gujer, Julius",1901,"696433,244916",696433,244916,Seestrasse 4,8610 Uster,Böschung zwischen zwei Fabrikkanälen vor der Fabrik Zangger an der Seestrasse 3. Ganz im Hintergrund Walmdach der ersten Fabrik Zangger an der Zentralstrasse 2a. Ganz rechts Barockdach von Seestrasse 7 und davor ein Dachabschnitt des „teckten Brü,jpeg,,https://creativecommons.org/publicdomain/zero/1.0/deed.de,"Stadtarchiv Uster, (ISIL: CH-000629-9)",8.714874,47.348043
8.715396197888479,47.346642789186461,762832fcb83347e791d59d45f5442c12,https://mobile.cmistar.ch/webclients/stadtarchivuster/#/content/762832fcb83347e791d59d45f5442c12/image,1901_08_059.jpg,1901_08_059,"Gujer, Julius",1901,"696475,244761",696475,244761,Schulweg 6,8610 Uster,Klassen vor dem Schuhaus Dorf am Schulweg 6.,jpeg,,https://creativecommons.org/publicdomain/zero/1.0/deed.de,"Stadtarchiv Uster, (ISIL: CH-000629-9)",8.715396,47.346643
8.715396197888479,47.346642789186461,71bd471a009749f097b2a963d59f1a1f,https://mobile.cmistar.ch/webclients/stadtarchivuster/#/content/71bd471a009749f097b2a963d59f1a1f/image,1901_08_060.jpg,1901_08_060,"Gujer, Julius",1901,"696475,244761",696475,244761,Schulweg 6,8610 Uster,Klassen vor dem Schuhaus Dorf am Schulweg 6.,jpeg,,https://creativecommons.org/publicdomain/zero/1.0/deed.de,"Stadtarchiv Uster, (ISIL: CH-000629-9)",8.715396,47.346643
8.72512985261077,47.347974005076516,6771e365263c496a9a19c036277b2231,https://mobile.cmistar.ch/webclients/stadtarchivuster/#/content/6771e365263c496a9a19c036277b2231/image,1901_08_063.jpg,1901_08_063,"Gujer, Julius",1901,"697208,244921",697208,244921,Bahnstrasse 31,8610 Uster,Methodistenkirche an der Bahnstrasse 31.,jpeg,,https://creativecommons.org/publicdomain/zero/1.0/deed.de,"Stadtarchiv Uster, (ISIL: CH-000629-9)",8.725130,47.347974
8.72512985261077,47.347974005076516,2849996a743f47839390ea25b0bd973a,https://mobile.cmistar.ch/webclients/stadtarchivuster/#/content/2849996a743f47839390ea25b0bd973a/image,1901_08_064.jpg,1901_08_064,"Gujer, Julius",1901,"697208,244921",697208,244921,Bahnstrasse 31,8610 Uster,Eingangsbereich Bahnstrasse 31.,jpeg,,https://creativecommons.org/publicdomain/zero/1.0/deed.de,"Stadtarchiv Uster, (ISIL: CH-000629-9)",8.725130,47.347974
8.719860633656023,47.347915666289275,863d0d14256e43e1b5c80b2028e54dbb,https://mobile.cmistar.ch/webclients/stadtarchivuster/#/content/863d0d14256e43e1b5c80b2028e54dbb/image,1901_08_067.jpg,1901_08_067,"Gujer, Julius",1901,"696810,244908",696810,244908,Florastrasse 19-23,8610 Uster,Lastkutsche rastet vor der Florastrasse 19-23.,jpeg,,https://creativecommons.org/publicdomain/zero/1.0/deed.de,"Stadtarchiv Uster, (ISIL: CH-000629-9)",8.719861,47.347916
8.72200835697045,47.348062723873262,098d2395c1ad4a22b5b0d28fc7350f4e,https://mobile.cmistar.ch/webclients/stadtarchivuster/#/content/098d2395c1ad4a22b5b0d28fc7350f4e/image,1901_08_069.jpg,1901_08_069,"Gujer, Julius",1901,"696972,244927",696972,244927,Freiestrasse 20,8610 Uster,"Blick vom Buchhaldenweg auf die kath. Kirche, Sekundarschule Freiestrasse 20, sowie Spinnerei Zangger an der Florastrasse 18a.",jpeg,,https://creativecommons.org/publicdomain/zero/1.0/deed.de,"Stadtarchiv Uster, (ISIL: CH-000629-9)",8.722008,47.348063
8.720314680628235,47.347532813842626,2f91298a379846a4898ec774ecff257d,https://mobile.cmistar.ch/webclients/stadtarchivuster/#/content/2f91298a379846a4898ec774ecff257d/image,1901_08_076.jpg,1901_08_076,"Gujer, Julius",1901,"696845,244866",696845,244866,Florastrasse 18,8610 Uster,Kutsche hinter der Villa Grunholzer an der Florastrasse 18 am „17. Oct. 1901“,jpeg,,https://creativecommons.org/publicdomain/zero/1.0/deed.de,"Stadtarchiv Uster, (ISIL: CH-000629-9)",8.720315,47.347533
8.720426202887118,47.347216732096328,063ea20660b5412cbcc1b0d4c6377ab7,https://mobile.cmistar.ch/webclients/stadtarchivuster/#/content/063ea20660b5412cbcc1b0d4c6377ab7/image,1901_08_079.jpg,1901_08_079,"Gujer, Julius",1901,"696854,244831",696854,244831,Florastrasse 18a,8610 Uster,Zwei Kinder mit Kuh hinter der Fabrik Zangger II an der Florastrasse 18a.,jpeg,,https://creativecommons.org/publicdomain/zero/1.0/deed.de,"Stadtarchiv Uster, (ISIL: CH-000629-9)",8.720426,47.347217
8.720426202887118,47.347216732096328,e4306b11c89b4135ad3b9ffca74f45ee,https://mobile.cmistar.ch/webclients/stadtarchivuster/#/content/e4306b11c89b4135ad3b9ffca74f45ee/image,1901_08_080.jpg,1901_08_080,"Gujer, Julius",1901,"696854,244831",696854,244831,Florastrasse 18a,8610 Uster,Zwei Kinder mit Kuh hinter der Fabrik Zangger II an der Florastrasse 18a.,jpeg,,https://creativecommons.org/publicdomain/zero/1.0/deed.de,"Stadtarchiv Uster, (ISIL: CH-000629-9)",8.720426,47.347217
8.720314680628235,47.347532813842626,bfbb59355a334828b0bc991630464e9b,https://mobile.cmistar.ch/webclients/stadtarchivuster/#/content/bfbb59355a334828b0bc991630464e9b/image,1901_08_085.jpg,1901_08_085,"Gujer, Julius",1901,"696845,244866",696845,244866,Florastrasse 18,8610 Uster,Kinder vor dem Eingangsportal der Villa Zangger an der Florastrasse 18.,jpeg,,https://creativecommons.org/publicdomain/zero/1.0/deed.de,"Stadtarchiv Uster, (ISIL: CH-000629-9)",8.720315,47.347533
8.720314680628235,47.347532813842626,33db416539c74cd19a90d59636c9a992,https://mobile.cmistar.ch/webclients/stadtarchivuster/#/content/33db416539c74cd19a90d59636c9a992/image,1901_08_086.jpg,1901_08_086,"Gujer, Julius",1901,"696845,244866",696845,244866,Florastrasse 18,8610 Uster,Kinder vor dem Eingangsportal der Villa Zangger an der Florastrasse 18.,jpeg,,https://creativecommons.org/publicdomain/zero/1.0/deed.de,"Stadtarchiv Uster, (ISIL: CH-000629-9)",8.720315,47.347533
8.720314680628235,47.347532813842626,336d17d8a4eb4f1080edf9cabeb52682,https://mobile.cmistar.ch/webclients/stadtarchivuster/#/content/336d17d8a4eb4f1080edf9cabeb52682/image,1901_08_087.jpg,1901_08_087,"Gujer, Julius",1901,"696845,244866",696845,244866,Florastrasse 18,8610 Uster,Kinder vor dem Eingangsportal der Villa Zangger an der Florastrasse 18.,jpeg,,https://creativecommons.org/publicdomain/zero/1.0/deed.de,"Stadtarchiv Uster, (ISIL: CH-000629-9)",8.720315,47.347533
8.718291467291783,47.347609232892644,e6607de2fe8b47c791841841b401fe5a,https://mobile.cmistar.ch/webclients/stadtarchivuster/#/content/e6607de2fe8b47c791841841b401fe5a/image,1901_08_089.jpg,1901_08_089,"Gujer, Julius",1901,"696692,244872",696692,244872,Zentralstrasse 5,8610 Uster,"Kantonalbankgebäude an der Zentralstrasse 5. Links Zentralstrasse 3, rechts untere Farb.",jpeg,,https://creativecommons.org/publicdomain/zero/1.0/deed.de,"Stadtarchiv Uster, (ISIL: CH-000629-9)",8.718291,47.347609
8.716906786137061,47.346716026651634,f4903a89dc674590858c2cc6a5810a91,https://mobile.cmistar.ch/webclients/stadtarchivuster/#/content/f4903a89dc674590858c2cc6a5810a91/image,1901_08_090.jpg,1901_08_090,"Gujer, Julius",1901,"696589,244771",696589,244771,Zentralstrasse 30,8610 Uster,Zentralstrasse Richtung Sternen aufgenommen. Das Dach ganz im Hintergrund gehört zur „Unteren Farb“,jpeg,,https://creativecommons.org/publicdomain/zero/1.0/deed.de,"Stadtarchiv Uster, (ISIL: CH-000629-9)",8.716907,47.346716
8.721961979675806,47.347235650732991,92242fc0e7f346d39ba27d4a432c179f,https://mobile.cmistar.ch/webclients/stadtarchivuster/#/content/92242fc0e7f346d39ba27d4a432c179f/image,1902_09_003.jpg,1902_09_003,"Gujer, Julius",1901,"696970,244835",696970,244835,Florastrasse 49,8610 Uster,Strassenarbeiten an der Florastrasse 49.,jpeg,,https://creativecommons.org/publicdomain/zero/1.0/deed.de,"Stadtarchiv Uster, (ISIL: CH-000629-9)",8.721962,47.347236
8.717578369522807,47.348228831079496,3bba86bd6a4a4add9a6b573670900e7e,https://mobile.cmistar.ch/webclients/stadtarchivuster/#/content/3bba86bd6a4a4add9a6b573670900e7e/image,1902_09_004.jpg,1902_09_004,"Gujer, Julius",1901,"696637,244940",696637,244940,Zürichstrasse 1,8610 Uster,Ustermarkt auf dem Sternenplatz („Jahrmarkt 1901“).,jpeg,,https://creativecommons.org/publicdomain/zero/1.0/deed.de,"Stadtarchiv Uster, (ISIL: CH-000629-9)",8.717578,47.348229
8.715396197888479,47.346642789186461,f2220555fc81440babe7d6569e82aba6,https://mobile.cmistar.ch/webclients/stadtarchivuster/#/content/f2220555fc81440babe7d6569e82aba6/image,1902_09_006.jpg,1902_09_006,"Gujer, Julius",1901,"696475,244761",696475,244761,Schulweg 6,8610 Uster,Ustermarkt mit Karussel auf dem Platz vor dem Schulhaus Dorf am Schulweg 6.,jpeg,,https://creativecommons.org/publicdomain/zero/1.0/deed.de,"Stadtarchiv Uster, (ISIL: CH-000629-9)",8.715396,47.346643
8.71601129202857,47.345799400706305,6843fb5094e44cc6a48df8f340f7e00d,https://mobile.cmistar.ch/webclients/stadtarchivuster/#/content/6843fb5094e44cc6a48df8f340f7e00d/image,1902_09_008.jpg,1902_09_008,"Gujer, Julius",1901,"696523,244668",696523,244668,Zentralstrasse 40,8610 Uster,Ustermarkt auf der Zentralstrasse. Ganz links Gasthaus Kreuz.,jpeg,,https://creativecommons.org/publicdomain/zero/1.0/deed.de,"Stadtarchiv Uster, (ISIL: CH-000629-9)",8.716011,47.345799
8.717001750546611,47.344052299167288,3c8c9cb4e8084bc99d1d6e4cd27ac837,https://mobile.cmistar.ch/webclients/stadtarchivuster/#/content/3c8c9cb4e8084bc99d1d6e4cd27ac837/image,1902_09_020.jpg,1902_09_020,"Gujer, Julius",1901,"696601,244475",696601,244475,Burgstrasse 3,8610 Uster,Rechts:Burgstrasse 3. Blick auf die Burg und das Gasthaus vor seinem Abriss.,jpeg,,https://creativecommons.org/publicdomain/zero/1.0/deed.de,"Stadtarchiv Uster, (ISIL: CH-000629-9)",8.717002,47.344052
8.718176171617198,47.345010803855672,099e85d006094340aa400b01f27117f5,https://mobile.cmistar.ch/webclients/stadtarchivuster/#/content/099e85d006094340aa400b01f27117f5/image,1902_09_021.jpg,1902_09_021,"Gujer, Julius",1901,"696688,244583",696688,244583,Schlossweg 4,8610 Uster,„Burg. Abgerissen Frühling 1902“. Blick vom Burgaufgang auf das sogenannte Restaurant Bürgli.,jpeg,,https://creativecommons.org/publicdomain/zero/1.0/deed.de,"Stadtarchiv Uster, (ISIL: CH-000629-9)",8.718176,47.345011
8.722477546859457,47.348309381501977,1635ebcbb7b34170bab535c0dd951138,https://mobile.cmistar.ch/webclients/stadtarchivuster/#/content/1635ebcbb7b34170bab535c0dd951138/image,1902_09_022.jpg,1902_09_022,"Gujer, Julius",1902,"697007,244955",697007,244955,Freiestrasse 23,8610 Uster,Freiestrasse 23 vom Sekundarschulhaus Freiestrasse 20 aus gesehen.,jpeg,,https://creativecommons.org/publicdomain/zero/1.0/deed.de,"Stadtarchiv Uster, (ISIL: CH-000629-9)",8.722478,47.348309
8.720314680628235,47.347532813842626,2675999f927f4f898370d0f946072cc8,https://mobile.cmistar.ch/webclients/stadtarchivuster/#/content/2675999f927f4f898370d0f946072cc8/image,1902_09_025.jpg,1902_09_025,"Gujer, Julius",1902,"696845,244866",696845,244866,Florastrasse 18,8610 Uster,Seitlich vor dem Eingangsportal der Villa Grunholzer an der Florastrasse 18. Gujer-Töchter (stehend) mit Freundinnen.,jpeg,,https://creativecommons.org/publicdomain/zero/1.0/deed.de,"Stadtarchiv Uster, (ISIL: CH-000629-9)",8.720315,47.347533
8.720314680628235,47.347532813842626,5fefb70c213049b4b6c9be8640224604,https://mobile.cmistar.ch/webclients/stadtarchivuster/#/content/5fefb70c213049b4b6c9be8640224604/image,1902_09_026.jpg,1902_09_026,"Gujer, Julius",1902,"696845,244866",696845,244866,Florastrasse 18,8610 Uster,Seitlich vor dem Eingangsportal der Villa Grunholzer an der Florastrasse 18. Gujer-Töchter (2. und 4. von rechts) mit Freundinnen.,jpeg,,https://creativecommons.org/publicdomain/zero/1.0/deed.de,"Stadtarchiv Uster, (ISIL: CH-000629-9)",8.720315,47.347533
8.730331983147442,47.345262225254167,2ede79e11f2544b385159cc1a8f3468d,https://mobile.cmistar.ch/webclients/stadtarchivuster/#/content/2ede79e11f2544b385159cc1a8f3468d/image,1902_09_030a.jpg,1902_09_030a,"Gujer, Julius",1902,"697606,244626",697606,244626,Aathalstrasse 36,8610 Uster,Aufnahme der Fabrik Huber (links) und Kunz I auf Burg und Kirche vom Pfisterberg aus.,jpeg,,https://creativecommons.org/publicdomain/zero/1.0/deed.de,"Stadtarchiv Uster, (ISIL: CH-000629-9)",8.730332,47.345262
8.725780152010239,47.346401532279373,a50ad8bad2b2467b86796839ac150b03,https://mobile.cmistar.ch/webclients/stadtarchivuster/#/content/a50ad8bad2b2467b86796839ac150b03/image,1902_09_030b.jpg,1902_09_030b,"Gujer, Julius",1902,"697260,244747",697260,244747,Florastrasse 42,8610 Uster,"Blick auf die Spinnerei Heusser-Staub, ehem. Kunz, vom Talweg aus.",jpeg,,https://creativecommons.org/publicdomain/zero/1.0/deed.de,"Stadtarchiv Uster, (ISIL: CH-000629-9)",8.725780,47.346402
8.717578369522807,47.348228831079496,5bca9c25cbad411593ee0a8d7de38431,https://mobile.cmistar.ch/webclients/stadtarchivuster/#/content/5bca9c25cbad411593ee0a8d7de38431/image,1902_09_032.jpg,1902_09_032,"Gujer, Julius",1902,"696637,244940",696637,244940,Zürichstrasse 1,8610 Uster,Hochzeitspaar mit Kutsche vor dem Gasthaus zum Sternen am „15. Mai 1902“.,jpeg,,https://creativecommons.org/publicdomain/zero/1.0/deed.de,"Stadtarchiv Uster, (ISIL: CH-000629-9)",8.717578,47.348229
8.718041421538045,47.347117250706368,fb7ada4b808f4b63808adfe2699805a6,https://mobile.cmistar.ch/webclients/stadtarchivuster/#/content/fb7ada4b808f4b63808adfe2699805a6/image,1902_09_033.jpg,1902_09_033,"Gujer, Julius",1902,"696674,244817",696674,244817,Zentralstrasse 15,8610 Uster,Zentralstrasse mit Blick auf die Kirche. Ganz rechts ist noch der Inselhof zu sehen. Links Kantonalbankgebäude Zentralstrasse 5.,jpeg,,https://creativecommons.org/publicdomain/zero/1.0/deed.de,"Stadtarchiv Uster, (ISIL: CH-000629-9)",8.718041,47.347117
8.720906014894837,47.34735533172676,1676dc8b8ac245dbbccf8abe9299bbf2,https://mobile.cmistar.ch/webclients/stadtarchivuster/#/content/1676dc8b8ac245dbbccf8abe9299bbf2/image,1902_09_036.jpg,1902_09_036,"Gujer, Julius",1902,"696890,244847",696890,244847,Florastrasse 20,8610 Uster,Sternenwirt „Herr Dr. Stahl v. Sternen ...“ auf der Florastrasse vor der Villa Zangger an der Florastrasse 18 (nicht zu sehen). Das Haus steht an Stelle der heutigen Florastrasse 20.,jpeg,,https://creativecommons.org/publicdomain/zero/1.0/deed.de,"Stadtarchiv Uster, (ISIL: CH-000629-9)",8.720906,47.347355
8.720314680628235,47.347532813842626,3b509d23647347e7833a53f8cc6c7d15,https://mobile.cmistar.ch/webclients/stadtarchivuster/#/content/3b509d23647347e7833a53f8cc6c7d15/image,1902_09_039.jpg,1902_09_039,"Gujer, Julius",1902,"696845,244866",696845,244866,Florastrasse 18,8610 Uster,Villa Grunholzer an der Florastrasse 18. Maler posieren in riskanten Stellungen an der Fassade.,jpeg,,https://creativecommons.org/publicdomain/zero/1.0/deed.de,"Stadtarchiv Uster, (ISIL: CH-000629-9)",8.720315,47.347533
8.720314680628235,47.347532813842626,07cd5814c94b49c38f868bc793d050a0,https://mobile.cmistar.ch/webclients/stadtarchivuster/#/content/07cd5814c94b49c38f868bc793d050a0/image,1902_09_040.jpg,1902_09_040,"Gujer, Julius",1902,"696845,244866",696845,244866,Florastrasse 18,8610 Uster,„Maler Brunner u. seine Gehilfen – Renovation des Hauses. Mai 1902“. Posierende Maler vor dem rechten Fenster des Erdgeschosses der Villa Grunholzer an der Florastrasse 18.,jpeg,,https://creativecommons.org/publicdomain/zero/1.0/deed.de,"Stadtarchiv Uster, (ISIL: CH-000629-9)",8.720315,47.347533
8.720314680628235,47.347532813842626,f9351fe197c142a0ba50874dbf89793d,https://mobile.cmistar.ch/webclients/stadtarchivuster/#/content/f9351fe197c142a0ba50874dbf89793d/image,1902_09_053.jpg,1902_09_053,"Gujer, Julius",1902,"696845,244866",696845,244866,Florastrasse 18,8610 Uster,Gujer-Töchter mit Zofe im Garten der Villa Grunholzer.,jpeg,,https://creativecommons.org/publicdomain/zero/1.0/deed.de,"Stadtarchiv Uster, (ISIL: CH-000629-9)",8.720315,47.347533
8.721134203904322,47.347487729680033,a8510e60201746059dda498b8821ec1a,https://mobile.cmistar.ch/webclients/stadtarchivuster/#/content/a8510e60201746059dda498b8821ec1a/image,1902_09_057.jpg,1902_09_057,"Gujer, Julius",1902,"696907,244862",696907,244862,Florastrasse 41,8610 Uster,Kutsche vor der Florastrasse 41. Das Haus im Hintergrund hinter den Bäumen ist die Turnhalle der Sekundarschule Freiestrasse 20.,jpeg,,https://creativecommons.org/publicdomain/zero/1.0/deed.de,"Stadtarchiv Uster, (ISIL: CH-000629-9)",8.721134,47.347488
8.72200835697045,47.348062723873262,503051d5e6954e95b08bb365db264b8a,https://mobile.cmistar.ch/webclients/stadtarchivuster/#/content/503051d5e6954e95b08bb365db264b8a/image,1902_09_058.jpg,1902_09_058,"Gujer, Julius",1902,"696972,244927",696972,244927,Freiestrasse 20,8610 Uster,„III. Cl [asse] Sek. Schule“ Freiestrasse 20.,jpeg,,https://creativecommons.org/publicdomain/zero/1.0/deed.de,"Stadtarchiv Uster, (ISIL: CH-000629-9)",8.722008,47.348063
8.716338631655916,47.348413474415736,86df9688856d4223af824dc83c1866be,https://mobile.cmistar.ch/webclients/stadtarchivuster/#/content/86df9688856d4223af824dc83c1866be/image,1902_09_061.jpg,1902_09_061,"Gujer, Julius",1902,"696543,244959",696543,244959,Seestrassee 3,8610 Uster,Spritzenwagen auf Brücke über den Fabrikkanal. Im Hintergrund Spinnerei Zangger an der Seestrasse 3.,jpeg,,https://creativecommons.org/publicdomain/zero/1.0/deed.de,"Stadtarchiv Uster, (ISIL: CH-000629-9)",8.716339,47.348413
8.709771456284425,47.345544443542011,9372e19406e543fe8da6300abbee89d8,https://mobile.cmistar.ch/webclients/stadtarchivuster/#/content/9372e19406e543fe8da6300abbee89d8/image,1902_09_064.jpg,1902_09_064,"Gujer, Julius",1902,"696052,244632",696052,244632,Seestrasse 40,8610 Uster,Personenumzug auf der Seestrasse auf Höhe der Seestrasse 40 im Wil in Niederuster im Hochsommer 1902 zur Einweihung des Schulhauses in Nieeruster.,jpeg,,https://creativecommons.org/publicdomain/zero/1.0/deed.de,"Stadtarchiv Uster, (ISIL: CH-000629-9)",8.709771,47.345544
8.715650900804633,47.34511972842909,70b9ff6785e748c9b4317b10764cc07a,https://mobile.cmistar.ch/webclients/stadtarchivuster/#/content/70b9ff6785e748c9b4317b10764cc07a/image,1902_09_065.jpg,1902_09_065,"Gujer, Julius",1902,"696497,244592",696497,244592,Talackerstrasse 12,8610 Uster,Blick über den Friedhof auf Kirche und Burg.,jpeg,,https://creativecommons.org/publicdomain/zero/1.0/deed.de,"Stadtarchiv Uster, (ISIL: CH-000629-9)",8.715651,47.345120
8.709771456284425,47.345544443542011,c7ed9b9479f04191bee60535517260fa,https://mobile.cmistar.ch/webclients/stadtarchivuster/#/content/c7ed9b9479f04191bee60535517260fa/image,1902_09_066.jpg,1902_09_066,"Gujer, Julius",1902,"696052,244632",696052,244632,Seestrasse 40,8610 Uster,Personenumzug auf der Seestrasse auf Höhe der Seestrasse 40 im Wil in Niederuster im Hochsommer 1902 zur Einweihung des Schulhauses in Nieeruster.,jpeg,,https://creativecommons.org/publicdomain/zero/1.0/deed.de,"Stadtarchiv Uster, (ISIL: CH-000629-9)",8.709771,47.345544
8.715396197888479,47.346642789186461,5971df5416234214818c83d037de1453,https://mobile.cmistar.ch/webclients/stadtarchivuster/#/content/5971df5416234214818c83d037de1453/image,1902_09_080.jpg,1902_09_080,"Gujer, Julius",1902,"696475,244761",696475,244761,Schulweg 6,8610 Uster,Ustermarkt auf dem Schulhausplatz Dorf in Richtung Schulweg aufgenommen.,jpeg,,https://creativecommons.org/publicdomain/zero/1.0/deed.de,"Stadtarchiv Uster, (ISIL: CH-000629-9)",8.715396,47.346643
8.717578369522807,47.348228831079496,61df059fa8c44543a6fe4022c0bf15b5,https://mobile.cmistar.ch/webclients/stadtarchivuster/#/content/61df059fa8c44543a6fe4022c0bf15b5/image,1902_09_081.jpg,1902_09_081,"Gujer, Julius",1902,"696637,244940",696637,244940,Zürichstrasse 1,8610 Uster,Ustermarkt auf dem Sternenplatz. Hinten Hotel Sternen.,jpeg,,https://creativecommons.org/publicdomain/zero/1.0/deed.de,"Stadtarchiv Uster, (ISIL: CH-000629-9)",8.717578,47.348229
8.716764569576901,47.349065431967233,c37308e7c1d14545b47f67b395a7f8e9,https://mobile.cmistar.ch/webclients/stadtarchivuster/#/content/c37308e7c1d14545b47f67b395a7f8e9/image,1902_09_086.jpg,1902_09_086,"Gujer, Julius",1902,"696574,245032",696574,245032,Poststrasse 20,8610 Uster,"Poststrasse 20, Restaurant Schmiedstube, heute Molino. Renoviert und umgebauter Zustand.",jpeg,,https://creativecommons.org/publicdomain/zero/1.0/deed.de,"Stadtarchiv Uster, (ISIL: CH-000629-9)",8.716765,47.349065
8.740635496638241,47.345533275071944,4f1bbb434926444da95fea01e4efeeed,https://mobile.cmistar.ch/webclients/stadtarchivuster/#/content/4f1bbb434926444da95fea01e4efeeed/image,1902_10_012.jpg,1902_10_012,"Gujer, Julius",1902,"698384,244669",698384,244669,Aathalstrasse 84,8610 Uster,"Trümpler u. Söhne, Zürich. Baumwollspinnerei in Oberuster. Gegründet 1816 bzw. 1834. Blick Richtung Uster.",jpeg,,https://creativecommons.org/publicdomain/zero/1.0/deed.de,"Stadtarchiv Uster, (ISIL: CH-000629-9)",8.740635,47.345533
8.739427190995036,47.345915716187889,6723fc264bd6429fbe2578a8da3275aa,https://mobile.cmistar.ch/webclients/stadtarchivuster/#/content/6723fc264bd6429fbe2578a8da3275aa/image,1902_10_013.jpg,1902_10_013,"Gujer, Julius",1902,"698292,244710",698292,244710,Aathalstrasse 74-84,8610 Uster,"Trümpler u. Söhne, Zürich. Baumwollspinnerei in Oberuster. Gegründet 1816 bzw. 1834. Blick Richtung Aatal. Anbau vorne von 1878.",jpeg,,https://creativecommons.org/publicdomain/zero/1.0/deed.de,"Stadtarchiv Uster, (ISIL: CH-000629-9)",8.739427,47.345916
8.729422445993174,47.344867599881759,7f7f46bb5e8d47708bcfd4d289b4ce02,https://mobile.cmistar.ch/webclients/stadtarchivuster/#/content/7f7f46bb5e8d47708bcfd4d289b4ce02/image,1902_10_014.jpg,1902_10_014,"Gujer, Julius",1902,"697538,244581",697538,244581,Steigstrasse 2,8610 Uster,Seidenweberei Paul Sigrist an der Steigstrasse 2 in Uster. Bild von der Inselstrasse auf den Sheddach- Komplex.,jpeg,,https://creativecommons.org/publicdomain/zero/1.0/deed.de,"Stadtarchiv Uster, (ISIL: CH-000629-9)",8.729422,47.344868
8.729924638236879,47.345383725005171,625216afed1945929233138905e29ec5,https://mobile.cmistar.ch/webclients/stadtarchivuster/#/content/625216afed1945929233138905e29ec5/image,1902_10_014a.jpg,1902_10_014a,"Gujer, Julius",1902,"697575,244639",697575,244639,Aathalstrasse 34,8610 Uster,Aathalstrasse vor der Abzweigung Steigstrasse in Oberuster. Geradeaus der Kubus der Baumwollspinnerei Huber von 1846. Gesprengt in den 80er jahren des 20. Jahrhunderts. Davor Villa Huber an der Aatalstrasse 34.,jpeg,,https://creativecommons.org/publicdomain/zero/1.0/deed.de,"Stadtarchiv Uster, (ISIL: CH-000629-9)",8.729925,47.345384
8.728848575240173,47.345764575091479,3b4079dfd55a4edd8baf85fd5e636542,https://mobile.cmistar.ch/webclients/stadtarchivuster/#/content/3b4079dfd55a4edd8baf85fd5e636542/image,1902_10_015.jpg,1902_10_015,"Gujer, Julius",1902,"697493,244680",697493,244680,Aathalstrasse 28-32,8610 Uster,Mechanische Werkstätte Fritz Wunderli in Oberuster. Rechts der Strasse entlang Industriekomplex an der Aatalstrasse 28-32 mit der alten Öle als Kopfbau. Links im Hintergrund Fabrik Huber mit Villa.,jpeg,,https://creativecommons.org/publicdomain/zero/1.0/deed.de,"Stadtarchiv Uster, (ISIL: CH-000629-9)",8.728849,47.345765
8.725780152010239,47.346401532279373,0f2315ec4f30460d9f66df95d9405378,https://mobile.cmistar.ch/webclients/stadtarchivuster/#/content/0f2315ec4f30460d9f66df95d9405378/image,1902_10_016.jpg,1902_10_016,"Gujer, Julius",1902,"697260,244747",697260,244747,Florastrasse 42,8610 Uster,"Baumwollspinnerei Heusser-Staub an der Florastrasse 42 ehemals Fabrik Kunz I von 1816, bzw. 1836. Blick vom alten Industrieweiher hinter der Inselstrasse aus.",jpeg,,https://creativecommons.org/publicdomain/zero/1.0/deed.de,"Stadtarchiv Uster, (ISIL: CH-000629-9)",8.725780,47.346402
8.716338631655916,47.348413474415736,fa55d62d57b143148053d72143b80096,https://mobile.cmistar.ch/webclients/stadtarchivuster/#/content/fa55d62d57b143148053d72143b80096/image,1902_10_018.jpg,1902_10_018,"Gujer, Julius",1902,"696543,244959",696543,244959,Seestrasse 3,8610 Uster,Julius Gujer u. Cie. Fabrik Zangger an der Seestrasse 3 in Uster. Blick von Osten über den Fabrikkanal hinweg. Erbaut 1869.,jpeg,,https://creativecommons.org/publicdomain/zero/1.0/deed.de,"Stadtarchiv Uster, (ISIL: CH-000629-9)",8.716339,47.348413
8.711449036902927,47.348179634003579,a7245ca8c39340d1b64330a62d71d272,https://mobile.cmistar.ch/webclients/stadtarchivuster/#/content/a7245ca8c39340d1b64330a62d71d272/image,1902_10_019.jpg,1902_10_019,"Gujer, Julius",1902,"696174,244927",696174,244927,Im Lot 8,8610 Uster,"Bamwollspinnerei Heinz Knecht, spätere BUAG von der Quellenstrasse nach Westen aufgenommen. Gegründet 1860.",jpeg,,https://creativecommons.org/publicdomain/zero/1.0/deed.de,"Stadtarchiv Uster, (ISIL: CH-000629-9)",8.711449,47.348180
8.702939233185219,47.345979297309306,d4525fbd95c04383a20a4665b149ca7a,https://mobile.cmistar.ch/webclients/stadtarchivuster/#/content/d4525fbd95c04383a20a4665b149ca7a/image,1902_10_020.jpg,1902_10_020,"Gujer, Julius",1902,"695535,244672",695535,244672,Turbinenweg 4,8610 Uster,"Eschersche Spinnerei und Zwirnerei in Niederuster, ehemalige Baumwollspinnerei Kunz, gegründet 1824 vom Standort der Mühle Nederuster aufgenommen.",jpeg,,https://creativecommons.org/publicdomain/zero/1.0/deed.de,"Stadtarchiv Uster, (ISIL: CH-000629-9)",8.702939,47.345979
8.703558143364665,47.345288858873424,a009a5f30e4e4d24966286f88cb88114,https://mobile.cmistar.ch/webclients/stadtarchivuster/#/content/a009a5f30e4e4d24966286f88cb88114/image,1902_10_021.jpg,1902_10_021,"Gujer, Julius",1902,"695583,244596",695583,244596,Seestrasse 64,8610 Uster,"Jacques Lenzlinger, mechanisches Baugeschäft und Sägerei in Niederuster. Die beiden Häuser vorne stehen heute nicht mehr. Ganz links die Mühle Niederuster.",jpeg,,https://creativecommons.org/publicdomain/zero/1.0/deed.de,"Stadtarchiv Uster, (ISIL: CH-000629-9)",8.703558,47.345289
8.695944468662926,47.347944747777042,2323ec16dab34440982f5d132bae61b2,https://mobile.cmistar.ch/webclients/stadtarchivuster/#/content/2323ec16dab34440982f5d132bae61b2/image,1902_10_024.jpg,1902_10_024,"Gujer, Julius",1902,"695003,244882",695003,244882,Seestrasse 110,8610 Uster,"Chappe u. Cordonnetspinnerei von André Bindschädler in Niederuster, Turicum. Rechts im Hintergrund das Fabrikantenwohnhaus.",jpeg,,https://creativecommons.org/publicdomain/zero/1.0/deed.de,"Stadtarchiv Uster, (ISIL: CH-000629-9)",8.695944,47.347945
8.732232298114495,47.345034046727932,bba31839ab74464da08fb9f6f5bb33b0,https://mobile.cmistar.ch/webclients/stadtarchivuster/#/content/bba31839ab74464da08fb9f6f5bb33b0/image,1902_10_025.jpg,1902_10_025,"Gujer, Julius",1902,"697750,244603",697750,244603,Aathalstrasse 41,8610 Uster,Mühle Oberuster an der Aatalstrasse 41.,jpeg,,https://creativecommons.org/publicdomain/zero/1.0/deed.de,"Stadtarchiv Uster, (ISIL: CH-000629-9)",8.732232,47.345034
8.718693451062237,47.351122023974021,31307eeeba9647f78409fa95f49c1984,https://mobile.cmistar.ch/webclients/stadtarchivuster/#/content/31307eeeba9647f78409fa95f49c1984/image,1902_10_026.jpg,1902_10_026,"Gujer, Julius",1902,"696716,245263",696716,245263,Industriestrasse 1c,8610 Uster,Lokremise II französischen Typs. Ganz rechts Remise I von 1856. Dazwischen Zwischenbau der Giesserei Blank.,jpeg,,https://creativecommons.org/publicdomain/zero/1.0/deed.de,"Stadtarchiv Uster, (ISIL: CH-000629-9)",8.718693,47.351122
8.720621352063533,47.345424454375639,31586bf1e1fc474fa5c6092f65f7598e,https://mobile.cmistar.ch/webclients/stadtarchivuster/#/content/31586bf1e1fc474fa5c6092f65f7598e/image,1902_10_027.jpg,1902_10_027,"Gujer, Julius",1902,"696872,244632",696872,244632,Brauereistrasse 15,8610 Uster,Brauerei Uster an der Brauereistrasse.,jpeg,,https://creativecommons.org/publicdomain/zero/1.0/deed.de,"Stadtarchiv Uster, (ISIL: CH-000629-9)",8.720621,47.345424
8.71599171284978,47.352717167841696,89462d1452324de7b0f2f11b3d27959e,https://mobile.cmistar.ch/webclients/stadtarchivuster/#/content/89462d1452324de7b0f2f11b3d27959e/image,1902_10_028.jpg,1902_10_028,"Gujer, Julius",1902,"696509,245437",696509,245437,Industriestrasse 31,8610 Uster,Gründungsbau des Baugeschäftes Valentini-Müller an der Industriestrasse. Später Seidendrucker und Weichkäserei (Heidi-Käse). Heute abgebrochen.,jpeg,,https://creativecommons.org/publicdomain/zero/1.0/deed.de,"Stadtarchiv Uster, (ISIL: CH-000629-9)",8.715992,47.352717
8.722017390998781,47.349537889818713,e9677f5ee04e40348ea6173536e6f444,https://mobile.cmistar.ch/webclients/stadtarchivuster/#/content/e9677f5ee04e40348ea6173536e6f444/image,1902_10_029.jpg,1902_10_029,"Gujer, Julius",1902,"696970,245091",696970,245091,Neuwiesenstrasse 10,8610 Uster,"Zellweger, Werkstätten für Electrotechnik an der Bahnstrasse, bzw. Neuwiesenstrasse 10. Links Villa Elektra an der Bahnstrasse 11.",jpeg,,https://creativecommons.org/publicdomain/zero/1.0/deed.de,"Stadtarchiv Uster, (ISIL: CH-000629-9)",8.722017,47.349538
8.722712979219871,47.352039905487658,bc0e5f3829154b4bbbbaf65d217131be,https://mobile.cmistar.ch/webclients/stadtarchivuster/#/content/bc0e5f3829154b4bbbbaf65d217131be/image,1902_10_030.jpg,1902_10_030,"Gujer, Julius",1902,"697018,245370",697018,245370,Feldhofstrasse 2,8610 Uster,"Bau und Zimmergeschäft Heinrich Boller unterhalb des Spital Uster. Im Hintergrund links ist das alte Spital Uster zu sehen, welches 1982 abgerissen wurde.",jpeg,,https://creativecommons.org/publicdomain/zero/1.0/deed.de,"Stadtarchiv Uster, (ISIL: CH-000629-9)",8.722713,47.352040
8.723217838793499,47.350469068032595,6034eedc43a342f5b6935d8ff54778d0,https://mobile.cmistar.ch/webclients/stadtarchivuster/#/content/6034eedc43a342f5b6935d8ff54778d0/image,1902_10_031.jpg,1902_10_031,"Gujer, Julius",1902,"697059,245196",697059,245196,Asylstrasse 10,8610 Uster,Electrische Centrale Uster an der Asylstrasse. Heute Musikcontainer.,jpeg,,https://creativecommons.org/publicdomain/zero/1.0/deed.de,"Stadtarchiv Uster, (ISIL: CH-000629-9)",8.723218,47.350469
8.721306256534293,47.346937090725241,e8622290573448a5a68e5cfc869d6bc0,https://mobile.cmistar.ch/webclients/stadtarchivuster/#/content/e8622290573448a5a68e5cfc869d6bc0/image,1903_1904_11_004.jpg,1903_1904_11_004,"Gujer, Julius",1903,"696921,244801",696921,244801,Florastrasse 22,8610 Uster,Badende Mädchen im Kanal vor der Badeanstalt. Rechts hinter dem stehenden Mädchen Überlauf aus der Badeanstalt in den Kanal.,jpeg,,https://creativecommons.org/publicdomain/zero/1.0/deed.de,"Stadtarchiv Uster, (ISIL: CH-000629-9)",8.721306,47.346937
8.720621352063533,47.345424454375639,0698cf27fe104db3abe49fa22f4428b2,https://mobile.cmistar.ch/webclients/stadtarchivuster/#/content/0698cf27fe104db3abe49fa22f4428b2/image,1903_1904_11_005.jpg,1903_1904_11_005,"Gujer, Julius",1903,"696872,244632",696872,244632,Brauereistrasse 15,8610 Uster,"Brauerei Uster von Norden, vom Gelände der Fabrik Zangger an der Florastrasse 18 aus betrachtet. Ganz links Schuppen der Fabrik. Im Graben im Vordergrund führt der Fabrikkanal entlang.",jpeg,,https://creativecommons.org/publicdomain/zero/1.0/deed.de,"Stadtarchiv Uster, (ISIL: CH-000629-9)",8.720621,47.345424
8.720621352063533,47.345424454375639,aebc31d3d10c480aa03f142e17f82d2b,https://mobile.cmistar.ch/webclients/stadtarchivuster/#/content/aebc31d3d10c480aa03f142e17f82d2b/image,1903_1904_11_007.jpg,1903_1904_11_007,"Gujer, Julius",1903,"696872,244632",696872,244632,Brauereistrasse 15,8610 Uster,Brauerei Uster vom Aabach aus. Kinder spielen im Flachwasser eines Kataraktes und sitzen auf einem Brückenwiderlager.,jpeg,,https://creativecommons.org/publicdomain/zero/1.0/deed.de,"Stadtarchiv Uster, (ISIL: CH-000629-9)",8.720621,47.345424
8.718682817115159,47.3473710103328,f37c9f2a489e4f1d96d13d89f63a610a,https://mobile.cmistar.ch/webclients/stadtarchivuster/#/content/f37c9f2a489e4f1d96d13d89f63a610a/image,1903_1904_11_011.jpg,1903_1904_11_011,"Gujer, Julius",1903,"696722,244846",696722,244846,Zentralstrasse 9-13,8610 Uster,Flarz an der Zentralstrasse 9-13. Im Hintergrund rechts oben die Obere Farb. Ganz links hinter den Bäumen das ehemalige Kantonalbankgebäude an der Zentralstrasse 5.,jpeg,,https://creativecommons.org/publicdomain/zero/1.0/deed.de,"Stadtarchiv Uster, (ISIL: CH-000629-9)",8.718683,47.347371
8.718594407372288,47.350304530258853,ed50f3e7063e4d4eb7e563c5b1c3db92,https://mobile.cmistar.ch/webclients/stadtarchivuster/#/content/ed50f3e7063e4d4eb7e563c5b1c3db92/image,1903_1904_11_012.jpg,1903_1904_11_012,"Gujer, Julius",1903,"696710,245172",696710,245172,Bahnhof Uster,8610 Uster,„Schulreise am 26. Juni 1903. Abfahrt“. Ganz links Bahnhofgebäude mit neuem Anbau. Neues Perrondach. Rechts daneben die alte Remise I mit vollständig sichtbarem Seitenrisaliten. Noch bevor der Grossbau Rüegg 1912 daneben entstand und den Risali,jpeg,,https://creativecommons.org/publicdomain/zero/1.0/deed.de,"Stadtarchiv Uster, (ISIL: CH-000629-9)",8.718594,47.350305
8.715678374650748,47.34681957823291,9ae49b11a93d4025ac8b00f50f1e369d,https://mobile.cmistar.ch/webclients/stadtarchivuster/#/content/9ae49b11a93d4025ac8b00f50f1e369d/image,1903_1904_11_020.jpg,1903_1904_11_020,"Gujer, Julius",1903,"696496,244781",696496,244781,Schulweg 7,8610 Uster,Blick von Apothekerstrasse auf die Kirche. Das Haus in der rechten Bildhälfte ist das heutige Restaurant Kastanie am Schulweg 7.,jpeg,,https://creativecommons.org/publicdomain/zero/1.0/deed.de,"Stadtarchiv Uster, (ISIL: CH-000629-9)",8.715678,47.346820
8.718041421538045,47.347117250706368,4ece08ff7b4e4165b27c67b1d2bda257,https://mobile.cmistar.ch/webclients/stadtarchivuster/#/content/4ece08ff7b4e4165b27c67b1d2bda257/image,1903_1904_11_040.jpg,1903_1904_11_040,"Gujer, Julius",1903,"696674,244817",696674,244817,Zentralstrasse 15,8610 Uster,"Blick vom Haldenbuchweg auf Uster. In der Mitte der Inselhof, rechts davon Fabrik Zangger an der Seestrasse 3. Ganz rechts der Trocknungsturm der Oberen Farb.",jpeg,,https://creativecommons.org/publicdomain/zero/1.0/deed.de,"Stadtarchiv Uster, (ISIL: CH-000629-9)",8.718041,47.347117
8.715396197888479,47.346642789186461,6e08a62a6ac0439baa95228948b7ccfc,https://mobile.cmistar.ch/webclients/stadtarchivuster/#/content/6e08a62a6ac0439baa95228948b7ccfc/image,1903_1904_11_041.jpg,1903_1904_11_041,"Gujer, Julius",1904,"696475,244761",696475,244761,Schulweg 6,8610 Uster,Blick von der Kirche in den Schulweg auf das Schulhaus Dorf. Rechts die Kastanie am Schulweg 7.,jpeg,,https://creativecommons.org/publicdomain/zero/1.0/deed.de,"Stadtarchiv Uster, (ISIL: CH-000629-9)",8.715396,47.346643
8.720621352063533,47.345424454375639,7455ef8c51d840cc8019409b3b6b2d33,https://mobile.cmistar.ch/webclients/stadtarchivuster/#/content/7455ef8c51d840cc8019409b3b6b2d33/image,1903_1904_11_042.jpg,1903_1904_11_042,"Gujer, Julius",1904,"696872,244632",696872,244632,Brauereistrasse 15,8610 Uster,Brauerei Uster vom Aabch aus betrachtet. Kinder auf dem Widerlager.,jpeg,,https://creativecommons.org/publicdomain/zero/1.0/deed.de,"Stadtarchiv Uster, (ISIL: CH-000629-9)",8.720621,47.345424
8.71811564411928,47.348555711573511,fc6e9185da354128b3453c54b4c9e14e,https://mobile.cmistar.ch/webclients/stadtarchivuster/#/content/fc6e9185da354128b3453c54b4c9e14e/image,1903_1904_11_061a.jpg,1903_1904_11_061a,"Gujer, Julius",1928,"696677,244977",696677,244977,Bahnhofstrasse 20,8610 Uster,"Bahnhofstrasse im Winter nach 1927. Links Bahnhofstrasse 20, rechts die Sternenscheune.",jpeg,,https://creativecommons.org/publicdomain/zero/1.0/deed.de,"Stadtarchiv Uster, (ISIL: CH-000629-9)",8.718116,47.348556
8.718896135810992,47.348538062689073,6f9fb376cd7d486e999e2c113d405c62,https://mobile.cmistar.ch/webclients/stadtarchivuster/#/content/6f9fb376cd7d486e999e2c113d405c62/image,1903_1904_11_062.jpg,1903_1904_11_062,"Gujer, Julius",1904,"696736,244976",696736,244976,Bahnhofstrasse 17,8610 Uster,Zirkusveranstaltung auf dem Platz vor der Sternenscheune an der Bahnhofstrasse.,jpeg,,https://creativecommons.org/publicdomain/zero/1.0/deed.de,"Stadtarchiv Uster, (ISIL: CH-000629-9)",8.718896,47.348538
8.718896135810992,47.348538062689073,60cb825973ff417caae6653ecb297824,https://mobile.cmistar.ch/webclients/stadtarchivuster/#/content/60cb825973ff417caae6653ecb297824/image,1903_1904_11_063.jpg,1903_1904_11_063,"Gujer, Julius",1904,"696736,244976",696736,244976,Bahnhofstrasse 17,8610 Uster,Zirkusveranstaltung auf dem Platz vor der Sternenscheune an der Bahnhofstrasse.,jpeg,,https://creativecommons.org/publicdomain/zero/1.0/deed.de,"Stadtarchiv Uster, (ISIL: CH-000629-9)",8.718896,47.348538
8.72200835697045,47.348062723873262,aa0e6c8982bb42d094ee4ef105ba46d0,https://mobile.cmistar.ch/webclients/stadtarchivuster/#/content/aa0e6c8982bb42d094ee4ef105ba46d0/image,1903_1904_11_072.jpg,1903_1904_11_072,"Gujer, Julius",1904,"696972,244927",696972,244927,Freiestrasse 20,8610 Uster,Ansicht auf Sekundarschule und Turnhalle von der Florastrasse her. Im Hintergrund kath. Kirche.,jpeg,,https://creativecommons.org/publicdomain/zero/1.0/deed.de,"Stadtarchiv Uster, (ISIL: CH-000629-9)",8.722008,47.348063
8.720426202887118,47.347216732096328,01365902d9b34181a3e9e6a8dda77132,https://mobile.cmistar.ch/webclients/stadtarchivuster/#/content/01365902d9b34181a3e9e6a8dda77132/image,1904_1905_12_016.jpg,1904_1905_12_016,"Gujer, Julius",1904,"696854,244831",696854,244831,Florastrasse 18a,8610 Uster,Gruppe von Kindern vor einem Kanalabschnitt vor der Badeanstalt (rechts). Darüber Fabrik Zangger an der Florastrasse 18a. Der Kanal beschreibt hier einen Bogen und mündet hinter einem Stauwehr in den Altlauf des Aabach (ganz links).,jpeg,,https://creativecommons.org/publicdomain/zero/1.0/deed.de,"Stadtarchiv Uster, (ISIL: CH-000629-9)",8.720426,47.347217
8.719709789682648,47.348798901712563,7ee77ad2ff51445ca2cb2ef2330acf41,https://mobile.cmistar.ch/webclients/stadtarchivuster/#/content/7ee77ad2ff51445ca2cb2ef2330acf41/image,1904_1905_12_034.jpg,1904_1905_12_034,"Gujer, Julius",1904,"696797,245006",696797,245006,Gotthardweg 5,8610 Uster,Kindergarten am Gotthardweg. Im Hintergrund rechts die Freiestrasse.,jpeg,,https://creativecommons.org/publicdomain/zero/1.0/deed.de,"Stadtarchiv Uster, (ISIL: CH-000629-9)",8.719710,47.348799
8.720426202887118,47.347216732096328,da6f8fe3750043f38d9b39b731a60e54,https://mobile.cmistar.ch/webclients/stadtarchivuster/#/content/da6f8fe3750043f38d9b39b731a60e54/image,1904_1905_12_038.jpg,1904_1905_12_038,"Gujer, Julius",1904,"696854,244831",696854,244831,Florastrasse 18a,8610 Uster,Hinter der Fabrik Zangger an der Florastrasse 18a. Präsentation eines Pferdes.,jpeg,,https://creativecommons.org/publicdomain/zero/1.0/deed.de,"Stadtarchiv Uster, (ISIL: CH-000629-9)",8.720426,47.347217
8.717436545608985,47.349489774796268,46a01dfc5f464835b26ec27fa6da6ec7,https://mobile.cmistar.ch/webclients/stadtarchivuster/#/content/46a01dfc5f464835b26ec27fa6da6ec7/image,1904_1905_12_039.jpg,1904_1905_12_039,"Gujer, Julius",1905,"696624,245080",696624,245080,Poststrasse 12,8610 Uster,"Poststrasse in Richtung Bahnhof aufgenommen. Ganz im Hintergrund der östliche Seitenrisalit des Bahnhof- gebäudes. Im Mittelgrund vorne Poststrasse 12 (Schuhgeschäft Dosenbach), rechts Poststrasse 11.",jpeg,,https://creativecommons.org/publicdomain/zero/1.0/deed.de,"Stadtarchiv Uster, (ISIL: CH-000629-9)",8.717437,47.349490
8.72079341396357,47.347626448295479,45c716b0145a47bea09d4aa36afe3985,https://mobile.cmistar.ch/webclients/stadtarchivuster/#/content/45c716b0145a47bea09d4aa36afe3985/image,1904_1905_12_040.jpg,1904_1905_12_040,"Gujer, Julius",1905,"696881,244877",696881,244877,Florastrasse 39,8610 Uster,Rechter Bildrand sog „Ruchwieshaus“ (abgebrochen). Linker Bildrand Florastrasse 39 (heute Sanitär Günthard). Fasnachtsumzug auf der Florastrasse 1905.,jpeg,,https://creativecommons.org/publicdomain/zero/1.0/deed.de,"Stadtarchiv Uster, (ISIL: CH-000629-9)",8.720793,47.347626
8.72079341396357,47.347626448295479,1b58072c9ad3479a875691ba8a3d6692,https://mobile.cmistar.ch/webclients/stadtarchivuster/#/content/1b58072c9ad3479a875691ba8a3d6692/image,1904_1905_12_041.jpg,1904_1905_12_041,"Gujer, Julius",1905,"696881,244877",696881,244877,Florastrasse 39,8610 Uster,Rechter Bildrand sog „Ruchwieshaus“ (abgebrochen). Linker Bildrand Florastrasse 39 (heute Sanitär Günthard). Fasnachtsumzug auf der Florastrasse 1905.,jpeg,,https://creativecommons.org/publicdomain/zero/1.0/deed.de,"Stadtarchiv Uster, (ISIL: CH-000629-9)",8.720793,47.347626
8.71601129202857,47.345799400706305,dc9ef47d4b754ef6aa07e96712673c41,https://mobile.cmistar.ch/webclients/stadtarchivuster/#/content/dc9ef47d4b754ef6aa07e96712673c41/image,1905_13_012.jpg,1905_13_012,"Gujer, Julius",1905,"696523,244668",696523,244668,Zentralstrasse 40,8610 Uster,Festumzug zu Ehren des kant. Turn- und Jugendfestes auf der Zentralstrasse vor dem Gasthaus Kreuz.,jpeg,Kantonales Turn- und Jugendfest in Uster,https://creativecommons.org/publicdomain/zero/1.0/deed.de,"Stadtarchiv Uster, (ISIL: CH-000629-9)",8.716011,47.345799
8.71601129202857,47.345799400706305,8cac67aa77a44fbfad33619779be0220,https://mobile.cmistar.ch/webclients/stadtarchivuster/#/content/8cac67aa77a44fbfad33619779be0220/image,1905_13_013.jpg,1905_13_013,"Gujer, Julius",1905,"696523,244668",696523,244668,Zentralstrasse 40,8610 Uster,Festumzug zu Ehren des kant. Turn- und Jugendfestes auf der Zentralstrasse vor dem Gasthaus Kreuz. Rechts Pfarrhaus,jpeg,Kantonales Turn- und Jugendfest in Uster,https://creativecommons.org/publicdomain/zero/1.0/deed.de,"Stadtarchiv Uster, (ISIL: CH-000629-9)",8.716011,47.345799
8.715884021555938,47.345458979109289,339fdfd35a324027b34b4262ef451c34,https://mobile.cmistar.ch/webclients/stadtarchivuster/#/content/339fdfd35a324027b34b4262ef451c34/image,1905_13_019.jpg,1905_13_019,"Gujer, Julius",1905,"696514,244630",696514,244630,Talackerstrasse 2,8610 Uster,Apothekerstrasse Einmündung Talackerstrasse. Das Gebäude links oben ist Talackerstrasse 2.,jpeg,Kantonales Turn- und Jugendfest in Uster,https://creativecommons.org/publicdomain/zero/1.0/deed.de,"Stadtarchiv Uster, (ISIL: CH-000629-9)",8.715884,47.345459
8.715884021555938,47.345458979109289,fd37cabe576a4851b4cd56498482644a,https://mobile.cmistar.ch/webclients/stadtarchivuster/#/content/fd37cabe576a4851b4cd56498482644a/image,1905_13_021.jpg,1905_13_021,"Gujer, Julius",1905,"696514,244630",696514,244630,Talackerstrasse 2,8610 Uster,Apothekerstrasse Einmündung Talackerstrasse. Das Gebäude links oben ist Talackerstrasse 2.,jpeg,Kantonales Turn- und Jugendfest in Uster,https://creativecommons.org/publicdomain/zero/1.0/deed.de,"Stadtarchiv Uster, (ISIL: CH-000629-9)",8.715884,47.345459
8.71601129202857,47.345799400706305,163025983f394657922577aa45eccca2,https://mobile.cmistar.ch/webclients/stadtarchivuster/#/content/163025983f394657922577aa45eccca2/image,1905_13_022.jpg,1905_13_022,"Gujer, Julius",1905,"696523,244668",696523,244668,Zentralstrasse 40,8610 Uster,Kinderumzug zu Ehren des kant. Turn- und Jugendfestes auf der Zentralstrasse vor dem Gasthaus Kreuz. Ganz links Talackerstrasse 2.,jpeg,Kantonales Turn- und Jugendfest in Uster,https://creativecommons.org/publicdomain/zero/1.0/deed.de,"Stadtarchiv Uster, (ISIL: CH-000629-9)",8.716011,47.345799
8.717347535724063,47.346882060074662,44a725122a30474587abbe399ba782c4,https://mobile.cmistar.ch/webclients/stadtarchivuster/#/content/44a725122a30474587abbe399ba782c4/image,1905_13_023.jpg,1905_13_023,"Gujer, Julius",1905,"696622,244790",696622,244790,Zentralstrasse 26,8610 Uster,"Kinderumzug zu Ehren des kant. Turn- und Jugendfestes auf der Zentralstrasse. Links Zentralstrasse 26. Mitte rechts Brücke über die Aa. Rechts oben am Bildrand Zentralstrasse 5a (abgebrannt – heute Neubau), links daneben Kantonalbankgebäude Zentr",jpeg,Kantonales Turn- und Jugendfest in Uster,https://creativecommons.org/publicdomain/zero/1.0/deed.de,"Stadtarchiv Uster, (ISIL: CH-000629-9)",8.717348,47.346882
8.717347535724063,47.346882060074662,8952ef1b24684e1baf89bbb7823b463c,https://mobile.cmistar.ch/webclients/stadtarchivuster/#/content/8952ef1b24684e1baf89bbb7823b463c/image,1905_13_024.jpg,1905_13_024,"Gujer, Julius",1905,"696622,244790",696622,244790,Zentralstrasse 26,8610 Uster,"Kinderumzug zu Ehren des kant. Turn- und Jugendfestes auf der Zentralstrasse. Links Zentralstrasse 26. Mitte rechts Brücke über die Aa. Rechts oben am Bildrand Zentralstrasse 5a (abgebrannt – heute Neubau), links daneben Kantonalbankgebäude Zentr",jpeg,Kantonales Turn- und Jugendfest in Uster,https://creativecommons.org/publicdomain/zero/1.0/deed.de,"Stadtarchiv Uster, (ISIL: CH-000629-9)",8.717348,47.346882
8.717944627746583,47.347496135435684,9417322600024109ab80532860f44828,https://mobile.cmistar.ch/webclients/stadtarchivuster/#/content/9417322600024109ab80532860f44828/image,1905_13_025.jpg,1905_13_025,"Gujer, Julius",1905,"696666,244859",696666,244859,"Zentralstrasse 4, 8",8610 Uster,"Kinderumzug zu Ehren des kant. Turn- und Jugendfestes. Einmündung Zentralstrasse – Florastrasse mit Blick auf die Kirche. Links Zentralstrasse 1, rechts Inselhof an der Zentralstrasse 4-8. Das links ins Bild ragende Dach neben der Zentralstrasse 1 is",jpeg,Kantonales Turn- und Jugendfest in Uster,https://creativecommons.org/publicdomain/zero/1.0/deed.de,"Stadtarchiv Uster, (ISIL: CH-000629-9)",8.717945,47.347496
8.717347535724063,47.346882060074662,4c113c2145c44b56b458c23c77b940a3,https://mobile.cmistar.ch/webclients/stadtarchivuster/#/content/4c113c2145c44b56b458c23c77b940a3/image,1905_13_026.jpg,1905_13_026,"Gujer, Julius",1905,"696622,244790",696622,244790,Zentralstrasse 26,8610 Uster,"Kinderumzug zu Ehren des kant. Turn- und Jugendfestes auf der Zentralstrasse. Links Zentralstrasse 26. Mitte rechts Brücke über die Aa. Rechts oben am Bildrand Zentralstrasse 5a (abgebrannt – heute Neubau), links daneben Kantonalbankgebäude Zentr",jpeg,Kantonales Turn- und Jugendfest in Uster,https://creativecommons.org/publicdomain/zero/1.0/deed.de,"Stadtarchiv Uster, (ISIL: CH-000629-9)",8.717348,47.346882
8.715884021555938,47.345458979109289,95c12ca6385d4ce28670863eb960795f,https://mobile.cmistar.ch/webclients/stadtarchivuster/#/content/95c12ca6385d4ce28670863eb960795f/image,1905_13_027.jpg,1905_13_027,"Gujer, Julius",1905,"696514,244630",696514,244630,Talackerstrasse 2,8610 Uster,Blick in die Apothekerstrasse von der Zentralstrasse/Talackerstrasse. Links das ehemalige Schulhaus und Gemeindehaus an der Talackerstrasse 2.,jpeg,Kantonales Turn- und Jugendfest in Uster,https://creativecommons.org/publicdomain/zero/1.0/deed.de,"Stadtarchiv Uster, (ISIL: CH-000629-9)",8.715884,47.345459
8.715884021555938,47.345458979109289,1a5c39944d384b25a9fb0fbc22f00f0c,https://mobile.cmistar.ch/webclients/stadtarchivuster/#/content/1a5c39944d384b25a9fb0fbc22f00f0c/image,1905_13_028.jpg,1905_13_028,"Gujer, Julius",1905,"696514,244630",696514,244630,Talackerstrasse 2,8610 Uster,Blick in die Apothekerstrasse von der Zentralstrasse/Talackerstrasse. Links das ehemalige Schulhaus und Gemeindehaus an der Talackerstrasse 2.,jpeg,Kantonales Turn- und Jugendfest in Uster,https://creativecommons.org/publicdomain/zero/1.0/deed.de,"Stadtarchiv Uster, (ISIL: CH-000629-9)",8.715884,47.345459
8.717028572014643,47.349035522116537,79fedabdaf6843a2b3088ea6a1f68d0c,https://mobile.cmistar.ch/webclients/stadtarchivuster/#/content/79fedabdaf6843a2b3088ea6a1f68d0c/image,1905_13_032.jpg,1905_13_032,"Gujer, Julius",1905,"696594,245029",696594,245029,Poststrasse 13,8610 Uster,Zürichstrasse Einmündung Poststrasse. Links oben heutige Poststrasse 13. Rechts oben Hotel Sternen.,jpeg,Kantonales Turn- und Jugendfest in Uster,https://creativecommons.org/publicdomain/zero/1.0/deed.de,"Stadtarchiv Uster, (ISIL: CH-000629-9)",8.717029,47.349036
8.717028572014643,47.349035522116537,9587f700f2b64209ac706e13e6f14304,https://mobile.cmistar.ch/webclients/stadtarchivuster/#/content/9587f700f2b64209ac706e13e6f14304/image,1905_13_033.jpg,1905_13_033,"Gujer, Julius",1905,"696594,245029",696594,245029,Poststrasse 13,8610 Uster,Poststrasse Richtung Bahnhof. Ganz oben links am rechten Strassenrand Bankstrasse 5. Ganz links am obe- ren Bildrand Postrasse 12.,jpeg,Kantonales Turn- und Jugendfest in Uster,https://creativecommons.org/publicdomain/zero/1.0/deed.de,"Stadtarchiv Uster, (ISIL: CH-000629-9)",8.717029,47.349036
8.717028572014643,47.349035522116537,c15ee28bbcee4c8db1cdb81d35887280,https://mobile.cmistar.ch/webclients/stadtarchivuster/#/content/c15ee28bbcee4c8db1cdb81d35887280/image,1905_13_034.jpg,1905_13_034,"Gujer, Julius",1905,"696594,245029",696594,245029,Poststrasse 13,8610 Uster,Einmündung Poststrasse – Zürichstrasse gegenüber Poststrasse 20.,jpeg,Kantonales Turn- und Jugendfest in Uster,https://creativecommons.org/publicdomain/zero/1.0/deed.de,"Stadtarchiv Uster, (ISIL: CH-000629-9)",8.717029,47.349036
8.723451344093126,47.346976203975402,f8999393603046e1b5810043dd5a62b6,https://mobile.cmistar.ch/webclients/stadtarchivuster/#/content/f8999393603046e1b5810043dd5a62b6/image,1905_1906_14_006.jpg,1905_1906_14_006,"Gujer, Julius",1893,"697083,244808",697083,244808,Florastrasse 63,8610 Uster,"„März 1893“. Florastrasse 63 von Südosten, also von der Rückseite.",jpeg,,https://creativecommons.org/publicdomain/zero/1.0/deed.de,"Stadtarchiv Uster, (ISIL: CH-000629-9)",8.723451,47.346976
8.718125815194963,47.341808951985989,0609bc7a31744c24b90909974604a3bf,https://mobile.cmistar.ch/webclients/stadtarchivuster/#/content/0609bc7a31744c24b90909974604a3bf/image,1905_1906_14_009.jpg,1905_1906_14_009,"Gujer, Julius",1905,"696690,244227",696690,244227,Schwizerstrasse 22,8610 Uster,Schwizerstrasse 22 (an der Strasse) und angebauter 24.,jpeg,,https://creativecommons.org/publicdomain/zero/1.0/deed.de,"Stadtarchiv Uster, (ISIL: CH-000629-9)",8.718126,47.341809
8.720413358216252,47.347783592936949,508fbbe252c64a8fadac9bcaae100ba5,https://mobile.cmistar.ch/webclients/stadtarchivuster/#/content/508fbbe252c64a8fadac9bcaae100ba5/image,1905_1906_14_011.jpg,1905_1906_14_011,"Gujer, Julius",1905,"696852,244894",696852,244894,Florastrasse 35,8610 Uster,Blick von der Villa Grunholzer in die Imkerstrasse gegen Nordosten. Links unten Florastrasse 37.,jpeg,,https://creativecommons.org/publicdomain/zero/1.0/deed.de,"Stadtarchiv Uster, (ISIL: CH-000629-9)",8.720413,47.347784
8.72200835697045,47.348062723873262,cc2de25b5deb461199f57e74833129ed,https://mobile.cmistar.ch/webclients/stadtarchivuster/#/content/cc2de25b5deb461199f57e74833129ed/image,1905_1906_14_013.jpg,1905_1906_14_013,"Gujer, Julius",1894,"696972,244927",696972,244927,Freiestrasse 20,8610 Uster,Bau der Sekundarschule Freiestrasse am 20. Sept. 1894.,jpeg,,https://creativecommons.org/publicdomain/zero/1.0/deed.de,"Stadtarchiv Uster, (ISIL: CH-000629-9)",8.722008,47.348063
8.72200835697045,47.348062723873262,907882171c954a9e834957d4ddce75fa,https://mobile.cmistar.ch/webclients/stadtarchivuster/#/content/907882171c954a9e834957d4ddce75fa/image,1905_1906_14_014.jpg,1905_1906_14_014,"Gujer, Julius",1894,"696972,244927",696972,244927,Freiestrasse 20,8610 Uster,Bau der Sekundarschule Freiestrasse am 20. Aug. 1894. gegen die Florastrasse. Aufmauerung des Unterge- schosses.,jpeg,,https://creativecommons.org/publicdomain/zero/1.0/deed.de,"Stadtarchiv Uster, (ISIL: CH-000629-9)",8.722008,47.348063
8.72200835697045,47.348062723873262,153f2b18eaf14ed2a2adb59e86b0fc9d,https://mobile.cmistar.ch/webclients/stadtarchivuster/#/content/153f2b18eaf14ed2a2adb59e86b0fc9d/image,1905_1906_14_015.jpg,1905_1906_14_015,"Gujer, Julius",1894,"696972,244927",696972,244927,Freiestrasse 20,8610 Uster,Bau der Sekundarschule Freiestrasse mit Blick zur Bahnhofstrasse. Ganz rechts Hotel Usterhof,jpeg,,https://creativecommons.org/publicdomain/zero/1.0/deed.de,"Stadtarchiv Uster, (ISIL: CH-000629-9)",8.722008,47.348063
8.72200835697045,47.348062723873262,9643fd39d67e4f89b917f6c0362fa41b,https://mobile.cmistar.ch/webclients/stadtarchivuster/#/content/9643fd39d67e4f89b917f6c0362fa41b/image,1905_1906_14_016.jpg,1905_1906_14_016,"Gujer, Julius",1894,"696972,244927",696972,244927,Freiestrasse 20,8610 Uster,Bau der Sekundarschule Freiestrasse mit Burg im Hintergrund.,jpeg,,https://creativecommons.org/publicdomain/zero/1.0/deed.de,"Stadtarchiv Uster, (ISIL: CH-000629-9)",8.722008,47.348063
8.711449036902927,47.348179634003579,bcbd9ab5f2db413cb1b491ac5c9db28b,https://mobile.cmistar.ch/webclients/stadtarchivuster/#/content/bcbd9ab5f2db413cb1b491ac5c9db28b/image,1905_1906_14_017.jpg,1905_1906_14_017,"Gujer, Julius",1905,"696174,244927",696174,244927,Im Lot 8,8610 Uster,"Fabrik Knecht, spätere BUAG gegen Westen. Zu beachten der Zinnenbewehrte Eckturm. Geradeaus das Maschinenhaus. Auffallend wenig Baumwuchs im Vergleich zu heute.",jpeg,,https://creativecommons.org/publicdomain/zero/1.0/deed.de,"Stadtarchiv Uster, (ISIL: CH-000629-9)",8.711449,47.348180
8.720314680628235,47.347532813842626,0760b8fa6a9340bb8aeeae284bdec4e8,https://mobile.cmistar.ch/webclients/stadtarchivuster/#/content/0760b8fa6a9340bb8aeeae284bdec4e8/image,1905_1906_14_022.jpg,1905_1906_14_022,"Gujer, Julius",1905,"696845,244866",696845,244866,Florastrasse 18,8610 Uster,Garten der Villa Grunholzer an der Florastrasse 18. Blick direkt auf die Rückseite der Villa. Picknick unterm Sonnenschirm.,jpeg,,https://creativecommons.org/publicdomain/zero/1.0/deed.de,"Stadtarchiv Uster, (ISIL: CH-000629-9)",8.720315,47.347533
8.728593950483679,47.346181215977353,54c6f7366b4d4e3e82e8460b869e6190,https://mobile.cmistar.ch/webclients/stadtarchivuster/#/content/54c6f7366b4d4e3e82e8460b869e6190/image,1905_1906_14_040.jpg,1905_1906_14_040,"Gujer, Julius",1905,"697473,244726",697473,244726,Aathalstrasse 19,8610 Uster,Aathalstrasse 19 (abgebrochen).,jpeg,,https://creativecommons.org/publicdomain/zero/1.0/deed.de,"Stadtarchiv Uster, (ISIL: CH-000629-9)",8.728594,47.346181
8.722123522865083,47.348448251175121,0757ea0f8a5e4dd0909326b3cd153d18,https://mobile.cmistar.ch/webclients/stadtarchivuster/#/content/0757ea0f8a5e4dd0909326b3cd153d18/image,1905_1906_14_044.jpg,1905_1906_14_044,"Gujer, Julius",1906,"696980,244970",696980,244970,Freiestrasse 21,8610 Uster,Blick vom Schulhaus Freiestrasse in die Kanzleistrasse zur kath Kirche. Links Restaurant „Steinfels“. Geschlossene Bahnbarriere.,jpeg,,https://creativecommons.org/publicdomain/zero/1.0/deed.de,"Stadtarchiv Uster, (ISIL: CH-000629-9)",8.722124,47.348448
8.720413358216252,47.347783592936949,c9ef2de205ae43f992ab388b35a8c3cf,https://mobile.cmistar.ch/webclients/stadtarchivuster/#/content/c9ef2de205ae43f992ab388b35a8c3cf/image,1905_1906_14_046.jpg,1905_1906_14_046,"Gujer, Julius",1906,"696852,244894",696852,244894,Florastrasse 31-35,8610 Uster,Florastrasse 31 – 35. Gut sichtbar die vorgelagerten und eigezäunten Gärten. Restaurant Frohsinn (rechts) und Restauration Flora u. U. Tenti (links).,jpeg,,https://creativecommons.org/publicdomain/zero/1.0/deed.de,"Stadtarchiv Uster, (ISIL: CH-000629-9)",8.720413,47.347784
8.718257166429517,47.3478345011915,13c8cdd05f5f47729c1ba9b5c8728d20,https://mobile.cmistar.ch/webclients/stadtarchivuster/#/content/13c8cdd05f5f47729c1ba9b5c8728d20/image,1905_1906_14_048.jpg,1905_1906_14_048,"Gujer, Julius",1906,"696689,244897",696689,244897,Zentralstrasse 1,8610 Uster,Sternenplatz 1890. Rechts Zentralstrasse 1. Kinder mit Kinderwagen. Geradeaus Restaurant Bierbrauerei.,jpeg,,https://creativecommons.org/publicdomain/zero/1.0/deed.de,"Stadtarchiv Uster, (ISIL: CH-000629-9)",8.718257,47.347835
8.71576585818786,47.347709166777264,cfdab8285f2343dd91001dffe49d25d7,https://mobile.cmistar.ch/webclients/stadtarchivuster/#/content/cfdab8285f2343dd91001dffe49d25d7/image,1905_1906_14_049.jpg,1905_1906_14_049,"Gujer, Julius",1906,"696501,244880",696501,244880,Gerbestrasse 7,8610 Uster,Freie Kirche an der Apothekerstrasse/Gerbestrasse. Links der Kirche die Posamenterei an der Gerbestrasse und rechts der Kirche das alte Bezirksgebäude am Schulweg 2.,jpeg,,https://creativecommons.org/publicdomain/zero/1.0/deed.de,"Stadtarchiv Uster, (ISIL: CH-000629-9)",8.715766,47.347709
8.719913346241084,47.34790608569795,c67ce982171140ffa58c6ec354767bc5,https://mobile.cmistar.ch/webclients/stadtarchivuster/#/content/c67ce982171140ffa58c6ec354767bc5/image,1905_1906_14_050.jpg,1905_1906_14_050,"Gujer, Julius",1906,"696814,244907",696814,244907,Florastrasse 19-23,8610 Uster,"Links: Florastrasse 19-23, das flache Gebäude rechts daneben mit den Weberfenstern Florastrasse 27, rechts Florastrasse 31-35. Alle stehen noch.",jpeg,,https://creativecommons.org/publicdomain/zero/1.0/deed.de,"Stadtarchiv Uster, (ISIL: CH-000629-9)",8.719913,47.347906
8.720426202887118,47.347216732096328,ce702043a8ee4ef6be0921642d2b13e2,https://mobile.cmistar.ch/webclients/stadtarchivuster/#/content/ce702043a8ee4ef6be0921642d2b13e2/image,1905_1906_14_051.jpg,1905_1906_14_051,"Gujer, Julius",1906,"696854,244831",696854,244831,Florastrasse 18a,8610 Uster,Blick vom Haldenbuchweg über die Fabrik Zangger an der Florastrasse 18a zur kath Kirche. Rechts hinter ihr der Wagerenhof.,jpeg,,https://creativecommons.org/publicdomain/zero/1.0/deed.de,"Stadtarchiv Uster, (ISIL: CH-000629-9)",8.720426,47.347217
8.719913346241084,47.34790608569795,c38636054b3845718d0420ebdb75560e,https://mobile.cmistar.ch/webclients/stadtarchivuster/#/content/c38636054b3845718d0420ebdb75560e/image,1905_1906_14_057a.jpg,1905_1906_14_057a,"Gujer, Julius",1906,"696814,244907",696814,244907,Florastrasse 23,8610 Uster,Blick in die Imkerstrasse zur Freiestrasse. Ganz links der Telegraphenmast.,jpeg,,https://creativecommons.org/publicdomain/zero/1.0/deed.de,"Stadtarchiv Uster, (ISIL: CH-000629-9)",8.719913,47.347906
8.716311002310162,47.34891752914406,1681910b313d4a0b88f1ab237b2dd0e7,https://mobile.cmistar.ch/webclients/stadtarchivuster/#/content/1681910b313d4a0b88f1ab237b2dd0e7/image,1905_1906_14_059.jpg,1905_1906_14_059,"Gujer, Julius",1906,"696540,245015",696540,245015,Zürichstrasse 5,8610 Uster,Kreuzung Seestrasse Zürichstrasse. Links oben Wohnhaus auf heutigem Stadthofareal.,jpeg,,https://creativecommons.org/publicdomain/zero/1.0/deed.de,"Stadtarchiv Uster, (ISIL: CH-000629-9)",8.716311,47.348918
8.715396197888479,47.346642789186461,be54c6447168454785714568c7ab4c24,https://mobile.cmistar.ch/webclients/stadtarchivuster/#/content/be54c6447168454785714568c7ab4c24/image,1905_1906_14_060.jpg,1905_1906_14_060,"Gujer, Julius",1906,"696475,244761",696475,244761,Schulweg 6,8610 Uster,Schulhaus Dorf.,jpeg,,https://creativecommons.org/publicdomain/zero/1.0/deed.de,"Stadtarchiv Uster, (ISIL: CH-000629-9)",8.715396,47.346643
8.720906014894837,47.34735533172676,4b18c3fe29064d96ae6e78457a8f9ab9,https://mobile.cmistar.ch/webclients/stadtarchivuster/#/content/4b18c3fe29064d96ae6e78457a8f9ab9/image,1905_1906_14_061.jpg,1905_1906_14_061,"Gujer, Julius",1906,"696890,244847",696890,244847,Florastrasse 20,8610 Uster,Ruchwieshaus vom Garten der Villa Grunholzer an der Florastrasse 18 aus.,jpeg,,https://creativecommons.org/publicdomain/zero/1.0/deed.de,"Stadtarchiv Uster, (ISIL: CH-000629-9)",8.720906,47.347355
8.720314680628235,47.347532813842626,582975857bee44e5a4f580b3c0dc2341,https://mobile.cmistar.ch/webclients/stadtarchivuster/#/content/582975857bee44e5a4f580b3c0dc2341/image,1905_1906_14_063.jpg,1905_1906_14_063,"Gujer, Julius",1906,"696845,244866",696845,244866,Florastrasse 18,8610 Uster,Blick von der Imkerstrasse auf Villa Grunholzer und Spinnerei Zangger an der Florastrasse 18,jpeg,,https://creativecommons.org/publicdomain/zero/1.0/deed.de,"Stadtarchiv Uster, (ISIL: CH-000629-9)",8.720315,47.347533
8.720426202887118,47.347216732096328,f3a9c66813624ab09f9ae619baa9a747,https://mobile.cmistar.ch/webclients/stadtarchivuster/#/content/f3a9c66813624ab09f9ae619baa9a747/image,1905_1906_14_066.jpg,1905_1906_14_066,"Gujer, Julius",1906,"696854,244831",696854,244831,Florastrasse 18a,8610 Uster,Wuhranlagen hinter der Fabrik Zangger an der Florastrasse. Links hinten die ref. Kirche.,jpeg,,https://creativecommons.org/publicdomain/zero/1.0/deed.de,"Stadtarchiv Uster, (ISIL: CH-000629-9)",8.720426,47.347217
8.725761149390849,47.351097412836921,3410d59a5f864d868412156abc49c74f,https://mobile.cmistar.ch/webclients/stadtarchivuster/#/content/3410d59a5f864d868412156abc49c74f/image,1905_1906_14_067.jpg,1905_1906_14_067,"Gujer, Julius",1906,"697250,245269",697250,245269,Asylstrasse 22,8610 Uster,Wagerenhof an der Asylstrasse 22 von Südwesten.,jpeg,,https://creativecommons.org/publicdomain/zero/1.0/deed.de,"Stadtarchiv Uster, (ISIL: CH-000629-9)",8.725761,47.351097
8.716661151877416,47.345855176189104,d07c7d2e2efc42f3ae72d3c03e17742b,https://mobile.cmistar.ch/webclients/stadtarchivuster/#/content/d07c7d2e2efc42f3ae72d3c03e17742b/image,1905_1906_14_071.jpg,1905_1906_14_071,"Gujer, Julius",1906,"696572,244675",696572,244675,Zentralstrasse 41,8610 Uster,Blick vom Schulhaus Dorf auf die Kirche und Burg.,jpeg,,https://creativecommons.org/publicdomain/zero/1.0/deed.de,"Stadtarchiv Uster, (ISIL: CH-000629-9)",8.716661,47.345855
8.716661151877416,47.345855176189104,cd1f6ecaa86546bdb57ae44ec9c8aa95,https://mobile.cmistar.ch/webclients/stadtarchivuster/#/content/cd1f6ecaa86546bdb57ae44ec9c8aa95/image,1905_1906_14_074.jpg,1905_1906_14_074,"Gujer, Julius",1906,"696572,244675",696572,244675,Zentralstrasse 41,8610 Uster,Blick vom Schulhaus Dorf auf die Kirche und Burg.,jpeg,,https://creativecommons.org/publicdomain/zero/1.0/deed.de,"Stadtarchiv Uster, (ISIL: CH-000629-9)",8.716661,47.345855
8.729334226604157,47.345597225906729,8c339a9b2c114e168ec4e4248a17996e,https://mobile.cmistar.ch/webclients/stadtarchivuster/#/content/8c339a9b2c114e168ec4e4248a17996e/image,1905_1906_14_081.jpg,1905_1906_14_081,"Gujer, Julius",1906,"697530,244662",697530,244662,Aathalstrasse 32,8610 Uster,Aathalstrasse Richtung Kirchuster. Links Oele.,jpeg,,https://creativecommons.org/publicdomain/zero/1.0/deed.de,"Stadtarchiv Uster, (ISIL: CH-000629-9)",8.729334,47.345597
8.720175369691361,47.345591326199916,307ccc2e16de4dabb9c778ab647f4d24,https://mobile.cmistar.ch/webclients/stadtarchivuster/#/content/307ccc2e16de4dabb9c778ab647f4d24/image,1907_1910_15_009.jpg,1907_1910_15_009,"Gujer, Julius",1907,"696838,244650",696838,244650,Brauereistrasse 11,8610 Uster,Die Brauerei Bartenstein von Nordwesten aus.,jpeg,,https://creativecommons.org/publicdomain/zero/1.0/deed.de,"Stadtarchiv Uster, (ISIL: CH-000629-9)",8.720175,47.345591
8.721306256534293,47.346937090725241,54b3b738450e46bf92911c203cd3519d,https://mobile.cmistar.ch/webclients/stadtarchivuster/#/content/54b3b738450e46bf92911c203cd3519d/image,1907_1910_15_018.jpg,1907_1910_15_018,"Gujer, Julius",1908,"696921,244801",696921,244801,Florastrasse 22,8610 Uster,Badende Kinder im Kanal vor der Badeanstalt.,jpeg,,https://creativecommons.org/publicdomain/zero/1.0/deed.de,"Stadtarchiv Uster, (ISIL: CH-000629-9)",8.721306,47.346937
8.720175369691361,47.345591326199916,48838558fd6d4041bc3c8b5fb19117f1,https://mobile.cmistar.ch/webclients/stadtarchivuster/#/content/48838558fd6d4041bc3c8b5fb19117f1/image,1907_1910_15_021.jpg,1907_1910_15_021,"Gujer, Julius",1908,"696838,244650",696838,244650,Brauereistrasse 11,8610 Uster,Badende Kinder im Aabach vor der Brauerei Bartenstein. Blickwinkel vom Bachbett aus.,jpeg,,https://creativecommons.org/publicdomain/zero/1.0/deed.de,"Stadtarchiv Uster, (ISIL: CH-000629-9)",8.720175,47.345591
8.720314680628235,47.347532813842626,9eb022a322164006ab8f327bbf1f25f4,https://mobile.cmistar.ch/webclients/stadtarchivuster/#/content/9eb022a322164006ab8f327bbf1f25f4/image,1907_1910_15_034.jpg,1907_1910_15_034,"Gujer, Julius",1909,"696845,244866",696845,244866,Florastrasse 18,8610 Uster,Frauengruppe im Garten wahrscheinlich der Vlla Grunholzer,jpeg,,https://creativecommons.org/publicdomain/zero/1.0/deed.de,"Stadtarchiv Uster, (ISIL: CH-000629-9)",8.720315,47.347533
8.720426202887118,47.347216732096328,9b137f06042d43d397182ee78a0598a2,https://mobile.cmistar.ch/webclients/stadtarchivuster/#/content/9b137f06042d43d397182ee78a0598a2/image,1907_1910_15_042.jpg,1907_1910_15_042,"Gujer, Julius",1909,"696854,244831",696854,244831,Florastrasse 18a,8610 Uster,"Jugendliche auf dem Dammweg am Ruchwiesweiher. Im Hintergrund Holzverschalung der Badeanstalt, dahinter Fabrik Zangger an der Florastrasse 18a. Im Vordergrund hockend, die beiden Töchter von Julius Gujer.",jpeg,,https://creativecommons.org/publicdomain/zero/1.0/deed.de,"Stadtarchiv Uster, (ISIL: CH-000629-9)",8.720426,47.347217
8.720413358216252,47.347783592936949,22c56e5c990340d4b38ac6833ddda86e,https://mobile.cmistar.ch/webclients/stadtarchivuster/#/content/22c56e5c990340d4b38ac6833ddda86e/image,1907_1910_15_047.jpg,1907_1910_15_047,"Gujer, Julius",1909,"696852,244894",696852,244894,Florastrasse 35,8610 Uster,Mit Fahrrad an der Abzweigung Florastrasse – Imkerstrasse. Links Restaurant Frohsinn an der Florastrasse 35. Der metallene Mast hinter den drei Mädchen ist ein Telegraphenmast.,jpeg,,https://creativecommons.org/publicdomain/zero/1.0/deed.de,"Stadtarchiv Uster, (ISIL: CH-000629-9)",8.720413,47.347784
8.721168924996659,47.347280446755434,0da19c4ca0344239a63db84e96438b5f,https://mobile.cmistar.ch/webclients/stadtarchivuster/#/content/0da19c4ca0344239a63db84e96438b5f/image,1907_1910_15_054.jpg,1907_1910_15_054,"Gujer, Julius",1910,"696910,244839",696910,244839,Florastrasse 24,8610 Uster,Sog. „Villa Fürchterlich“ von Süden. Heute längst abgebrochener Satteldachflarz an der Florastrasse direkt nördlich der Dorfbadi.,jpeg,,https://creativecommons.org/publicdomain/zero/1.0/deed.de,"Stadtarchiv Uster, (ISIL: CH-000629-9)",8.721169,47.347280
8.721168924996659,47.347280446755434,4162bf8d8b454587bdc1e6e24cd1da20,https://mobile.cmistar.ch/webclients/stadtarchivuster/#/content/4162bf8d8b454587bdc1e6e24cd1da20/image,1907_1910_15_055.jpg,1907_1910_15_055,"Gujer, Julius",1910,"696910,244839",696910,244839,Florastrasse 24,8610 Uster,Sog. „Villa Fürchterlich“ von Westen. Heute längst abgebrochener Satteldachflarz an der Florastrasse direkt nördlich der Dorfbadi. Der Weg vor dem Haus ist der Weg zur Badeanstalt.,jpeg,,https://creativecommons.org/publicdomain/zero/1.0/deed.de,"Stadtarchiv Uster, (ISIL: CH-000629-9)",8.721169,47.347280
8.712016139340804,47.346985972255133,dff0e2d2c6754cd7847ceea5663a17f5,https://mobile.cmistar.ch/webclients/stadtarchivuster/#/content/dff0e2d2c6754cd7847ceea5663a17f5/image,1907_1910_15_056.jpg,1907_1910_15_056,"Gujer, Julius",1910,"696219,244795",696219,244795,Forchstrasse 7,8610 Uster,Forchstrasse mit Blick auf die Fabrik Zangger III an der Seestrasse.,jpeg,,https://creativecommons.org/publicdomain/zero/1.0/deed.de,"Stadtarchiv Uster, (ISIL: CH-000629-9)",8.712016,47.346986
8.721168924996659,47.347280446755434,5b9982c9ba2d4c8991bff775216e5202,https://mobile.cmistar.ch/webclients/stadtarchivuster/#/content/5b9982c9ba2d4c8991bff775216e5202/image,1907_1910_15_062.jpg,1907_1910_15_062,"Gujer, Julius",1910,"696910,244839",696910,244839,Florastrasse 24,8610 Uster,Villa Fürchterlich,jpeg,,https://creativecommons.org/publicdomain/zero/1.0/deed.de,"Stadtarchiv Uster, (ISIL: CH-000629-9)",8.721169,47.347280
8.72200835697045,47.348062723873262,099ba02848984b9f8fb6c9cc67897bcf,https://mobile.cmistar.ch/webclients/stadtarchivuster/#/content/099ba02848984b9f8fb6c9cc67897bcf/image,1909_17_005.jpg,1909_17_005,"Gujer, Julius",1909,"696972,244927",696972,244927,Freiestrasse 20,8610 Uster,Sekundarschule Freiestrasse 20.,jpeg,"Bezirksausstellung für Industrie, Gerwerbe und Landwirtschaft",https://creativecommons.org/publicdomain/zero/1.0/deed.de,"Stadtarchiv Uster, (ISIL: CH-000629-9)",8.722008,47.348063
8.72200835697045,47.348062723873262,2b50df399100456a9bbb296bbe3bf7dd,https://mobile.cmistar.ch/webclients/stadtarchivuster/#/content/2b50df399100456a9bbb296bbe3bf7dd/image,1909_17_007.jpg,1909_17_007,"Gujer, Julius",1909,"696972,244927",696972,244927,Freiestrasse 20,8610 Uster,Ausstellungspavillon auf dem Platz vor dem Schulhaus Freiestrasse 20. Im hintergrund Turnhalle,jpeg,"Bezirksausstellung für Industrie, Gerwerbe und Landwirtschaft",https://creativecommons.org/publicdomain/zero/1.0/deed.de,"Stadtarchiv Uster, (ISIL: CH-000629-9)",8.722008,47.348063
8.72200835697045,47.348062723873262,05383e33838840a6a8c6d3fe46e23564,https://mobile.cmistar.ch/webclients/stadtarchivuster/#/content/05383e33838840a6a8c6d3fe46e23564/image,1909_17_008.jpg,1909_17_008,"Gujer, Julius",1909,"696972,244927",696972,244927,Freiestrasse 20,8610 Uster,Ausstellungspavillon auf dem Platz vor dem Schulhaus Freiestrasse 20. Im hintergrund links Freiestrasse 21.,jpeg,"Bezirksausstellung für Industrie, Gerwerbe und Landwirtschaft",https://creativecommons.org/publicdomain/zero/1.0/deed.de,"Stadtarchiv Uster, (ISIL: CH-000629-9)",8.722008,47.348063
8.722123522865083,47.348448251175121,f1b5809b55d1444f95ed8c2f18e16f25,https://mobile.cmistar.ch/webclients/stadtarchivuster/#/content/f1b5809b55d1444f95ed8c2f18e16f25/image,1909_17_009.jpg,1909_17_009,"Gujer, Julius",1909,"696980,244970",696980,244970,Freiestrasse 21,8610 Uster,Freiestrasse 23 vom Schulhausplatz aus gesehen.,jpeg,"Bezirksausstellung für Industrie, Gerwerbe und Landwirtschaft",https://creativecommons.org/publicdomain/zero/1.0/deed.de,"Stadtarchiv Uster, (ISIL: CH-000629-9)",8.722124,47.348448
8.722477546859457,47.348309381501977,5879e82cf0974d899ba7d74176943a8d,https://mobile.cmistar.ch/webclients/stadtarchivuster/#/content/5879e82cf0974d899ba7d74176943a8d/image,1909_17_010.jpg,1909_17_010,"Gujer, Julius",1909,"697007,244955",697007,244955,Freiestrasse 23,8610 Uster,Blick vom Schulhaus Freiestrasse 20 über die Kanzleistrasse zur kath. Kirche.,jpeg,"Bezirksausstellung für Industrie, Gerwerbe und Landwirtschaft",https://creativecommons.org/publicdomain/zero/1.0/deed.de,"Stadtarchiv Uster, (ISIL: CH-000629-9)",8.722478,47.348309
8.72200835697045,47.348062723873262,3443c74ef743416e99c1aa5ab5c238bb,https://mobile.cmistar.ch/webclients/stadtarchivuster/#/content/3443c74ef743416e99c1aa5ab5c238bb/image,1909_17_012.jpg,1909_17_012,"Gujer, Julius",1909,"696972,244927",696972,244927,Freiestrasse 20,8610 Uster,Blick von Freiestrasse aufs Ausstellungstor und das Schulhaus Freiestrasse 20.,jpeg,"Bezirksausstellung für Industrie, Gerwerbe und Landwirtschaft",https://creativecommons.org/publicdomain/zero/1.0/deed.de,"Stadtarchiv Uster, (ISIL: CH-000629-9)",8.722008,47.348063
8.72200835697045,47.348062723873262,b26ed0c01bc146618155861a11befa08,https://mobile.cmistar.ch/webclients/stadtarchivuster/#/content/b26ed0c01bc146618155861a11befa08/image,1909_17_013.jpg,1909_17_013,"Gujer, Julius",1909,"696972,244927",696972,244927,Freiestrasse 20,8610 Uster,Blick aufs Ausstellungsgelände auf dem Schulhausplatz Freiestrasse 20.,jpeg,"Bezirksausstellung für Industrie, Gerwerbe und Landwirtschaft",https://creativecommons.org/publicdomain/zero/1.0/deed.de,"Stadtarchiv Uster, (ISIL: CH-000629-9)",8.722008,47.348063
8.72200835697045,47.348062723873262,d8ebde97acee4174ac307c4feb0fcdb1,https://mobile.cmistar.ch/webclients/stadtarchivuster/#/content/d8ebde97acee4174ac307c4feb0fcdb1/image,1909_17_014.jpg,1909_17_014,"Gujer, Julius",1909,"696972,244927",696972,244927,Freiestrasse 20,8610 Uster,Nachgebaute Einsiedlerhütte vor der Turnhalle an der Freiestrasse 20.,jpeg,"Bezirksausstellung für Industrie, Gerwerbe und Landwirtschaft",https://creativecommons.org/publicdomain/zero/1.0/deed.de,"Stadtarchiv Uster, (ISIL: CH-000629-9)",8.722008,47.348063
8.72200835697045,47.348062723873262,7f3a66e685004c1688ffec1681fbb934,https://mobile.cmistar.ch/webclients/stadtarchivuster/#/content/7f3a66e685004c1688ffec1681fbb934/image,1909_17_015.jpg,1909_17_015,"Gujer, Julius",1909,"696972,244927",696972,244927,Freiestrasse 20,8610 Uster,Nachgebaute Einsiedlerhütte vor der Turnhalle an der Freiestrasse 20.,jpeg,"Bezirksausstellung für Industrie, Gerwerbe und Landwirtschaft",https://creativecommons.org/publicdomain/zero/1.0/deed.de,"Stadtarchiv Uster, (ISIL: CH-000629-9)",8.722008,47.348063
8.72200835697045,47.348062723873262,885b84da7a3a41d5bf9f04d48886ccdb,https://mobile.cmistar.ch/webclients/stadtarchivuster/#/content/885b84da7a3a41d5bf9f04d48886ccdb/image,1909_17_016.jpg,1909_17_016,"Gujer, Julius",1909,"696972,244927",696972,244927,Freiestrasse 20,8610 Uster,Turicum-Automobil als 1. Preis an der Ausstellung auf der Ausstellung an der Freiestrasse 20.,jpeg,"Bezirksausstellung für Industrie, Gerwerbe und Landwirtschaft",https://creativecommons.org/publicdomain/zero/1.0/deed.de,"Stadtarchiv Uster, (ISIL: CH-000629-9)",8.722008,47.348063
8.72200835697045,47.348062723873262,0f8c2e3c5a76418a9168fc19443a79b5,https://mobile.cmistar.ch/webclients/stadtarchivuster/#/content/0f8c2e3c5a76418a9168fc19443a79b5/image,1909_17_017.jpg,1909_17_017,"Gujer, Julius",1909,"696972,244927",696972,244927,Freiestrasse 20,8610 Uster,Blick entlang der Rückfassade des Schulhauses zur Turnhalle an der Freiestrasse 20.,jpeg,"Bezirksausstellung für Industrie, Gerwerbe und Landwirtschaft",https://creativecommons.org/publicdomain/zero/1.0/deed.de,"Stadtarchiv Uster, (ISIL: CH-000629-9)",8.722008,47.348063
8.72200835697045,47.348062723873262,ae1f687619c541179d1ff61d520822ab,https://mobile.cmistar.ch/webclients/stadtarchivuster/#/content/ae1f687619c541179d1ff61d520822ab/image,1909_17_018.jpg,1909_17_018,"Gujer, Julius",1909,"696972,244927",696972,244927,Freiestrasse 20,8610 Uster,Südwestecke des Schulhauses Freiestrasse 20. Ganz links Turnhalle.,jpeg,"Bezirksausstellung für Industrie, Gerwerbe und Landwirtschaft",https://creativecommons.org/publicdomain/zero/1.0/deed.de,"Stadtarchiv Uster, (ISIL: CH-000629-9)",8.722008,47.348063
8.72200835697045,47.348062723873262,0c9422678c474a95b68013a911be1228,https://mobile.cmistar.ch/webclients/stadtarchivuster/#/content/0c9422678c474a95b68013a911be1228/image,1909_17_019.jpg,1909_17_019,"Gujer, Julius",1909,"696972,244927",696972,244927,Freiestrasse 20,8610 Uster,Rückfassade Schulhaus Freiestrasse 20 mit Blick nach Osten.,jpeg,"Bezirksausstellung für Industrie, Gerwerbe und Landwirtschaft",https://creativecommons.org/publicdomain/zero/1.0/deed.de,"Stadtarchiv Uster, (ISIL: CH-000629-9)",8.722008,47.348063
8.717578369522807,47.348228831079496,b4216adc100f4412ae5e8a5f609c55e3,https://mobile.cmistar.ch/webclients/stadtarchivuster/#/content/b4216adc100f4412ae5e8a5f609c55e3/image,1909_17_020.jpg,1909_17_020,"Gujer, Julius",1909,"696637,244940",696637,244940,Zürichstrasse 1,8610 Uster,Bläserumzug auf der Zürichstrasse. Ganz links Zürichstrasse 1 Villa Zangger. Im Hintergrund Haus an der Zürichstrasse 7 an dessen Stelle sich heute das Stadthofhochhaus erhebt. Im Vordergrund rechts Einmündung der Bahnhofstrasse.,jpeg,"Bezirksausstellung für Industrie, Gerwerbe und Landwirtschaft",https://creativecommons.org/publicdomain/zero/1.0/deed.de,"Stadtarchiv Uster, (ISIL: CH-000629-9)",8.717578,47.348229
8.72200835697045,47.348062723873262,6c1c56d08d1041ceafa4dd7a78e4e19b,https://mobile.cmistar.ch/webclients/stadtarchivuster/#/content/6c1c56d08d1041ceafa4dd7a78e4e19b/image,1909_17_023.jpg,1909_17_023,"Gujer, Julius",1909,"696972,244927",696972,244927,Freiestrasse 20,8610 Uster,Turnhalle an der Freiestrasse 20.,jpeg,"Bezirksausstellung für Industrie, Gerwerbe und Landwirtschaft",https://creativecommons.org/publicdomain/zero/1.0/deed.de,"Stadtarchiv Uster, (ISIL: CH-000629-9)",8.722008,47.348063
8.72200835697045,47.348062723873262,e77b3057dd324ce78eb1a977e8c65d4c,https://mobile.cmistar.ch/webclients/stadtarchivuster/#/content/e77b3057dd324ce78eb1a977e8c65d4c/image,1909_17_024.jpg,1909_17_024,"Gujer, Julius",1909,"696972,244927",696972,244927,Freiestrasse 20,8610 Uster,Ausstellungszelt („Blumenhalle“) vor der Turnhalle Freiestrasse 20.,jpeg,"Bezirksausstellung für Industrie, Gerwerbe und Landwirtschaft",https://creativecommons.org/publicdomain/zero/1.0/deed.de,"Stadtarchiv Uster, (ISIL: CH-000629-9)",8.722008,47.348063
8.72200835697045,47.348062723873262,683898a63485489eac631df6f9965006,https://mobile.cmistar.ch/webclients/stadtarchivuster/#/content/683898a63485489eac631df6f9965006/image,1909_17_025.jpg,1909_17_025,"Gujer, Julius",1909,"696972,244927",696972,244927,Freiestrasse 20,8610 Uster,Ausstellungszelt („Blumenhalle“) vor der Turnhalle Freiestrasse 20.,jpeg,"Bezirksausstellung für Industrie, Gerwerbe und Landwirtschaft",https://creativecommons.org/publicdomain/zero/1.0/deed.de,"Stadtarchiv Uster, (ISIL: CH-000629-9)",8.722008,47.348063
8.72200835697045,47.348062723873262,8b934a61b0324948a5b63a07f7c2f5fc,https://mobile.cmistar.ch/webclients/stadtarchivuster/#/content/8b934a61b0324948a5b63a07f7c2f5fc/image,1909_17_026.jpg,1909_17_026,"Gujer, Julius",1909,"696972,244927",696972,244927,Freiestrasse 20,8610 Uster,Ausstellungszelt („Blumenhalle“) vor der Turnhalle Freiestrasse 20. Blick auf Freiestrasse.,jpeg,"Bezirksausstellung für Industrie, Gerwerbe und Landwirtschaft",https://creativecommons.org/publicdomain/zero/1.0/deed.de,"Stadtarchiv Uster, (ISIL: CH-000629-9)",8.722008,47.348063
8.719273711963416,47.349379453572197,70cfbc80a07240eb9954479c035a5a2a,https://mobile.cmistar.ch/webclients/stadtarchivuster/#/content/70cfbc80a07240eb9954479c035a5a2a/image,1909_17_027.jpg,1909_17_027,"Gujer, Julius",1909,"696763,245070",696763,245070,Bahnhofstrasse 5,8610 Uster,Blick von der Bahnhofstrasse in die Freiestrasse. Im Vordergrund Schienen der Uster-Oetwil-Bahn. Rechts Bahnhofstrasse 5. Honoratioren begeben sich zum zweiten Ausstellungsfeld an Schulhaus Dorf.,jpeg,"Bezirksausstellung für Industrie, Gerwerbe und Landwirtschaft",https://creativecommons.org/publicdomain/zero/1.0/deed.de,"Stadtarchiv Uster, (ISIL: CH-000629-9)",8.719274,47.349379
8.72200835697045,47.348062723873262,b656ed16e54f4149820dc2aa1a8904aa,https://mobile.cmistar.ch/webclients/stadtarchivuster/#/content/b656ed16e54f4149820dc2aa1a8904aa/image,1909_17_034.jpg,1909_17_034,"Gujer, Julius",1909,"696972,244927",696972,244927,Freiestrasse 20,8610 Uster,Kiosk an der Ecke des Schulhauses Freiestrasse 20.,jpeg,"Bezirksausstellung für Industrie, Gerwerbe und Landwirtschaft",https://creativecommons.org/publicdomain/zero/1.0/deed.de,"Stadtarchiv Uster, (ISIL: CH-000629-9)",8.722008,47.348063
8.72200835697045,47.348062723873262,9a0ab357b11846e4ba9d644a3041ef81,https://mobile.cmistar.ch/webclients/stadtarchivuster/#/content/9a0ab357b11846e4ba9d644a3041ef81/image,1909_17_035.jpg,1909_17_035,"Gujer, Julius",1909,"696972,244927",696972,244927,Freiestrasse 20,8610 Uster,Kiosk an der Ecke des Schulhauses Freiestrasse 20. Ganz rechts Turnhalle,jpeg,"Bezirksausstellung für Industrie, Gerwerbe und Landwirtschaft",https://creativecommons.org/publicdomain/zero/1.0/deed.de,"Stadtarchiv Uster, (ISIL: CH-000629-9)",8.722008,47.348063
8.715396197888479,47.346642789186461,ebd8ea0c1c2c48b99fcd004a426977f6,https://mobile.cmistar.ch/webclients/stadtarchivuster/#/content/ebd8ea0c1c2c48b99fcd004a426977f6/image,1909_17_041.jpg,1909_17_041,"Gujer, Julius",1909,"696475,244761",696475,244761,Schulweg 6,8610 Uster,Schulhaus Dorf am Schulweg 6. Geschmückt für die Bezirksausstellung.,jpeg,"Bezirksausstellung für Industrie, Gerwerbe und Landwirtschaft",https://creativecommons.org/publicdomain/zero/1.0/deed.de,"Stadtarchiv Uster, (ISIL: CH-000629-9)",8.715396,47.346643
8.715396197888479,47.346642789186461,d9164ef6eb8f4098afe04ff10f075516,https://mobile.cmistar.ch/webclients/stadtarchivuster/#/content/d9164ef6eb8f4098afe04ff10f075516/image,1909_17_042.jpg,1909_17_042,"Gujer, Julius",1909,"696475,244761",696475,244761,Schulweg 6,8610 Uster,Eingangsportal zum Ausstellungsschulhaus Dorf am Schulweg 6.,jpeg,"Bezirksausstellung für Industrie, Gerwerbe und Landwirtschaft",https://creativecommons.org/publicdomain/zero/1.0/deed.de,"Stadtarchiv Uster, (ISIL: CH-000629-9)",8.715396,47.346643
8.715396197888479,47.346642789186461,e1f5a3ca22b14e1aa8e359203c374249,https://mobile.cmistar.ch/webclients/stadtarchivuster/#/content/e1f5a3ca22b14e1aa8e359203c374249/image,1909_17_042a.jpg,1909_17_042a,"Gujer, Julius",1909,"696475,244761",696475,244761,Schulweg 6,8610 Uster,Blick vom Schulhaus Dorf über den geschmückten Platz zur Kirche an der Zentralstrasse. Ganz rechts das Pfarrhaus.,jpeg,"Bezirksausstellung für Industrie, Gerwerbe und Landwirtschaft",https://creativecommons.org/publicdomain/zero/1.0/deed.de,"Stadtarchiv Uster, (ISIL: CH-000629-9)",8.715396,47.346643
8.715396197888479,47.346642789186461,9c66548ce11240b08d6d1e37feab7d5b,https://mobile.cmistar.ch/webclients/stadtarchivuster/#/content/9c66548ce11240b08d6d1e37feab7d5b/image,1909_17_043.jpg,1909_17_043,"Gujer, Julius",1909,"696475,244761",696475,244761,Schulweg 6,8610 Uster,Schulhaus Dorf am Schulweg 6. Geschmückt für die Bezirksausstellung.,jpeg,"Bezirksausstellung für Industrie, Gerwerbe und Landwirtschaft",https://creativecommons.org/publicdomain/zero/1.0/deed.de,"Stadtarchiv Uster, (ISIL: CH-000629-9)",8.715396,47.346643
8.719273711963416,47.349379453572197,32d0c3c9812645ceafd77465fcc284b0,https://mobile.cmistar.ch/webclients/stadtarchivuster/#/content/32d0c3c9812645ceafd77465fcc284b0/image,1909_17_051.jpg,1909_17_051,"Gujer, Julius",1909,"696763,245070",696763,245070,Bahnhofstrasse 5,8610 Uster,Blick von der Bahnhofstrasse in die Freiestrasse. Im Vordergrund Schienen der Uster-Oetwil-Bahn. Rechts Bahnhofstrasse 5. Vorne Militärs.,jpeg,"Bezirksausstellung für Industrie, Gerwerbe und Landwirtschaft",https://creativecommons.org/publicdomain/zero/1.0/deed.de,"Stadtarchiv Uster, (ISIL: CH-000629-9)",8.719274,47.349379
8.712016139340804,47.346985972255133,166f2bae0980457babab6c0d50561320,https://mobile.cmistar.ch/webclients/stadtarchivuster/#/content/166f2bae0980457babab6c0d50561320/image,1910_16_001.jpg,1910_16_001,"Gujer, Julius",1910,"696219,244795",696219,244795,Forchstrasse 7,8610 Uster,"Forchstrasse, ehemalige Hockmattstrasse.",jpeg,,https://creativecommons.org/publicdomain/zero/1.0/deed.de,"Stadtarchiv Uster, (ISIL: CH-000629-9)",8.712016,47.346986
8.722265449601569,47.347196294439449,6af17177f065458592c6c695b3236719,https://mobile.cmistar.ch/webclients/stadtarchivuster/#/content/6af17177f065458592c6c695b3236719/image,1910_16_007.jpg,1910_16_007,"Gujer, Julius",1910,"696993,244831",696993,244831,Florastrasse 53,8610 Uster,Am Ruchwiesweiher mit Blick Richtung Oberuster. Hinten links Florastrasse 53. Das längliche Gebäude hinter den Kindern steht an Stelle der heutigen Kinderkrippe an der Florastrasse 26.,jpeg,,https://creativecommons.org/publicdomain/zero/1.0/deed.de,"Stadtarchiv Uster, (ISIL: CH-000629-9)",8.722265,47.347196
8.727560383294389,47.346678520835013,49239779ac1c4ee0a67b7134b019cedb,https://mobile.cmistar.ch/webclients/stadtarchivuster/#/content/49239779ac1c4ee0a67b7134b019cedb/image,1910_16_012.jpg,1910_16_012,"Gujer, Julius",1910,"697394,244780",697394,244780,Aathalstrasse 5,8610 Uster,"Floratsrasse/Aathalstrasse an der Einmündung der Freiestrasse (links). Die Gebäude hinten links Aathalstrasse 1, 3 und 5 (Restaurant Sonne). Rechts Aathalstrasse 4 und 6.",jpeg,,https://creativecommons.org/publicdomain/zero/1.0/deed.de,"Stadtarchiv Uster, (ISIL: CH-000629-9)",8.727560,47.346679
8.720314680628235,47.347532813842626,942aa08b670c4164b4a177d954f45994,https://mobile.cmistar.ch/webclients/stadtarchivuster/#/content/942aa08b670c4164b4a177d954f45994/image,1910_16_015.jpg,1910_16_015,"Gujer, Julius",1910,"696845,244866",696845,244866,Florastrasse 18,8610 Uster,Eins der ersten Automobile in Uster vor der Villa Grunholzer an der Florastrasse 18. Ein Turicum aus Ustermer Produktion.,jpeg,,https://creativecommons.org/publicdomain/zero/1.0/deed.de,"Stadtarchiv Uster, (ISIL: CH-000629-9)",8.720315,47.347533
8.722265449601569,47.347196294439449,b66a84c903f44432a4893848b43c0dc4,https://mobile.cmistar.ch/webclients/stadtarchivuster/#/content/b66a84c903f44432a4893848b43c0dc4/image,1910_16_017.jpg,1910_16_017,"Gujer, Julius",1910,"696993,244831",696993,244831,Florastrasse 53,8610 Uster,Florastrasse 53 mit rückwärtiger Scheune.,jpeg,,https://creativecommons.org/publicdomain/zero/1.0/deed.de,"Stadtarchiv Uster, (ISIL: CH-000629-9)",8.722265,47.347196
8.721306256534293,47.346937090725241,342706d328264245ac6972c2c4060301,https://mobile.cmistar.ch/webclients/stadtarchivuster/#/content/342706d328264245ac6972c2c4060301/image,1910_16_018.jpg,1910_16_018,"Gujer, Julius",1910,"696921,244801",696921,244801,Florastrasse 22,8610 Uster,In der Badeanstalt Dorf.,jpeg,,https://creativecommons.org/publicdomain/zero/1.0/deed.de,"Stadtarchiv Uster, (ISIL: CH-000629-9)",8.721306,47.346937
8.720175369691361,47.345591326199916,c85fea5bd121432c981337625cdd00f3,https://mobile.cmistar.ch/webclients/stadtarchivuster/#/content/c85fea5bd121432c981337625cdd00f3/image,1910_16_019.jpg,1910_16_019,"Gujer, Julius",1910,"696838,244650",696838,244650,Brauereistrasse 11,8610 Uster,Badende Kinder im Aabach vor der Brauerei Bartenstein (Villa oben rechts gerade noch identifizierbar).,jpeg,,https://creativecommons.org/publicdomain/zero/1.0/deed.de,"Stadtarchiv Uster, (ISIL: CH-000629-9)",8.720175,47.345591
8.717867462076168,47.345383042145997,0d04b472f21f40018f2a9ef87377a4dd,https://mobile.cmistar.ch/webclients/stadtarchivuster/#/content/0d04b472f21f40018f2a9ef87377a4dd/image,1910_16_025.jpg,1910_16_025,"Gujer, Julius",1910,"696664,244624",696664,244624,Badiweg,8610 Uster,Blick auf Kirche und Burg von Osten. Standort mit 3 Knaben ist der Park hinter der Brauerei.,jpeg,,https://creativecommons.org/publicdomain/zero/1.0/deed.de,"Stadtarchiv Uster, (ISIL: CH-000629-9)",8.717867,47.345383
ADVADV,asasv,v<sddvz<v,<d,v<xcv<zav,<vz<v
dgnzdnzdnd,gndfgn,ndgndgn,xcfnxgn,ggxcgn,xdgnx
